parent,address,distance,pname,importance,biz_ext,biz_type,cityname,type,photos,typecode,shopinfo,poiweight,childtype,adname,name,location,tel,shopid,id
[],浪心村东海百货对面,[],广东省,[],"{'cost': [], 'rating': []}",[],深圳市,医疗保健服务;诊所;诊所,"[{'title': [], 'url': 'http://store.is.autonavi.com/showpic/4e49a77690203e1b2cba5f8e1022ac9d'}, {'title': [], 'url': 'http://store.is.autonavi.com/showpic/60e4e59041f53b331c90679813202e94'}, {'title': [], 'url': 'http://store.is.autonavi.com/showpic/a50c2c7270ba1e3fc143586c5bf0fc87'}]",090300,2,[],[],宝安区,诊所,"113.917519,22.664560",13631581612;17373485955,[],B0J0O7DR4I
[],观澜新湖路与高尔夫大道交叉口南160米,[],广东省,[],"{'cost': [], 'rating': []}",[],深圳市,医疗保健服务;诊所;诊所,"[{'title': [], 'url': 'http://store.is.autonavi.com/showpic/0e8ce1c898c13220df755162e2481a25'}]",090300,2,[],[],龙华区,诊所,"114.089379,22.723334",[],[],B0J30ZD32Y
[],33区裕安二路173号,[],广东省,[],"{'cost': [], 'rating': []}",[],深圳市,医疗保健服务;诊所;诊所,"[{'title': [], 'url': 'http://store.is.autonavi.com/showpic/1010e0637f357587b764c888f1cbf28b'}, {'title': [], 'url': 'http://store.is.autonavi.com/showpic/7aea284033c17e02c56677697d0d5d46'}, {'title': [], 'url': 'http://s-pic.oss-cn-beijing.aliyuncs.com/desensitize/deep/images/publish/7dfdef7e4fb0ad3c5154f89732fb9864.jpg'}]",090300,2,[],[],宝安区,深圳夏志军诊所,"113.909458,22.580130",13682382809,[],B0FFH0ZGL9
[],龙园路61-1号,[],广东省,[],"{'cost': [], 'rating': []}",[],深圳市,医疗保健服务;诊所;诊所,"[{'title': [], 'url': 'https://aos-comment.amap.com/B0JAXM73GY/headerImg/3ca6739823438db20ff713ddad08e4c9_2048_2048_80.jpg'}, {'title': [], 'url': 'http://store.is.autonavi.com/showpic/5958612fb2adeecc7ec37f5a47a7c3db'}, {'title': [], 'url': 'http://store.is.autonavi.com/showpic/9b7ebec18bc5dd943aa7eb24dd5ef911'}]",090300,2,[],[],龙岗区,深圳徐源诊所,"114.258635,22.722481",[],[],B0JAXM73GY
[],固戍二路石街住宅小区(固戍地铁站A口步行280米),[],广东省,[],"{'cost': [], 'rating': []}",[],深圳市,医疗保健服务;诊所;诊所,"[{'title': [], 'url': 'http://store.is.autonavi.com/showpic/2d061191ce13b202b653b06d13484f62'}]",090300,2,[],[],宝安区,深圳诊所,"113.849345,22.601791",[],[],B0HRVOFFKA
[],沙井新桥洋下二路15-1号,[],广东省,[],"{'cost': [], 'rating': []}",[],深圳市,医疗保健服务;诊所;诊所,"[{'title': [], 'url': 'http://store.is.autonavi.com/showpic/ec83555be06f8ca08d1bb3f74a07569b'}, {'title': [], 'url': 'http://store.is.autonavi.com/showpic/f72f405ca39f2952aae910f9f9200f2c'}, {'title': [], 'url': 'http://store.is.autonavi.com/showpic/5b37dd01b3714da7945f46e44748a494'}]",090300,2,[],[],宝安区,深圳张远强诊所,"113.842490,22.736128",13689593063,[],B0HRUMD9W2
[],沙浦二村沙浦二路302号,[],广东省,[],"{'cost': [], 'rating': []}",[],深圳市,医疗保健服务;诊所;诊所,"[{'title': [], 'url': 'http://store.is.autonavi.com/showpic/d40fe506dbe7bed999ecda5d39816dac'}]",090300,2,[],[],宝安区,慧文诊所,"113.830313,22.778918",[],[],B0FFKFOQOM
[],北山道57号-6金海雅居12号(盐田墟地铁站B口旁),[],广东省,[],"{'cost': [], 'rating': []}",[],深圳市,医疗保健服务;诊所;诊所,"[{'title': [], 'url': 'http://store.is.autonavi.com/showpic/3813fde7750be16bee38c8c8e40e13ae'}, {'title': [], 'url': 'http://store.is.autonavi.com/showpic/59dc6965460d1f039d62eb0911b8e4bd'}, {'title': [], 'url': 'http://store.is.autonavi.com/showpic/425d0c0615441d348ba4d9ad52e40932'}]",090300,2,[],[],盐田区,林尧诊所,"114.276049,22.586507",13714508983,[],B0FFGDF5GN
[],沿河南路与民旺路交叉口南80米,[],广东省,[],"{'cost': [], 'rating': []}",[],深圳市,医疗保健服务;诊所;诊所,"[{'title': [], 'url': 'http://store.is.autonavi.com/showpic/8806a2a1e37e787f671a28f6862318bb'}]",090300,2,[],[],龙华区,深圳卫民诊所,"114.037564,22.621086",18819068582,[],B0FFKD31YK
[],下李南路89-1号,[],广东省,[],"{'cost': [], 'rating': []}",[],深圳市,医疗保健服务;诊所;诊所,"[{'title': [], 'url': 'http://store.is.autonavi.com/showpic/ca48cf5aaa8affa3beefb4f2db752154'}, {'title': [], 'url': 'http://store.is.autonavi.com/showpic/3547262015718943810c526c6a05a567'}]",090300,2,[],[],龙岗区,深圳成志诊所,"114.135304,22.636812",0755-89379927,[],B0FFFE5HZW
[],光前村龙井路170号8铺,[],广东省,[],"{'cost': [], 'rating': []}",[],深圳市,医疗保健服务;诊所;诊所,"[{'title': [], 'url': 'http://s-pic.oss-cn-beijing.aliyuncs.com/desensitize/deep/images/publish/bd520044ee6a8c1dd689804735b1704d.jpg'}, {'title': [], 'url': 'http://s-pic.oss-cn-beijing.aliyuncs.com/desensitize/deep/images/publish/1469396ee46330da2a953ac36d4586f6.jpg'}, {'title': [], 'url': 'http://s-pic.oss-cn-beijing.aliyuncs.com/desensitize/deep/images/publish/73c3fa3a1d801016f57e6020332b3766.jpg'}]",090300,2,[],[],南山区,深圳王行军诊所,"113.962911,22.562536",13410585786,[],B0I6CAJS55
[],六约牛始埔礼耕路98号,[],广东省,[],"{'cost': [], 'rating': []}",[],深圳市,医疗保健服务;诊所;诊所,"[{'title': [], 'url': 'http://store.is.autonavi.com/showpic/bed6a4e7894afa433dfe20135a4e5082'}, {'title': [], 'url': 'http://store.is.autonavi.com/showpic/ad62e43b8f651ca8b6e466576919cff0'}]",090300,2,[],[],龙岗区,深圳广福中医综合诊所,"114.186550,22.631538",[],[],B0JDOABLGY
[],灵芝园新村东北门旁,[],广东省,[],"{'cost': [], 'rating': []}",[],深圳市,医疗保健服务;诊所;诊所,"[{'title': [], 'url': 'http://store.is.autonavi.com/showpic/6271e155841fefc6072166c8da7d5f3d'}]",090300,2,[],[],宝安区,彭可真诊所,"113.911249,22.568616",0755-27752339,[],B02F38SVGF
B0FFH3R2XO,宝田三路途窝大厦(平峦山地铁站A口步行120米),[],广东省,[],"{'cost': [], 'rating': []}",[],深圳市,医疗保健服务;专科医院;专科医院|医疗保健服务;诊所;诊所,"[{'title': [], 'url': 'http://s-pic.oss-cn-beijing.aliyuncs.com/desensitize/deep/images/publish/519122cfc19261fcfcca4ef2a9fff3e5.jpg'}, {'title': [], 'url': 'http://store.is.autonavi.com/showpic/ff8619ada94f99838c1ac8941ae0e6fd'}]",090200|090300,2,[],202,宝安区,朱梅诊所,"113.871373,22.602326",[],[],B0JUFOTY1Z
[],布吉街道布吉一村一村街33号,[],广东省,[],"{'cost': [], 'rating': []}",[],深圳市,医疗保健服务;诊所;诊所,"[{'title': [], 'url': 'http://store.is.autonavi.com/showpic/f03544669e8a241b763fc3fea947d604'}]",090300,2,[],[],龙岗区,深圳梁杨诊所,"114.116483,22.601680",[],[],B0GD5R5SSB
[],翠园街38-10(晒布地铁站A2口步行380米),[],广东省,[],"{'cost': [], 'rating': []}",[],深圳市,医疗保健服务;诊所;诊所,"[{'title': [], 'url': 'http://store.is.autonavi.com/showpic/40d3d3f9b927c4fe3ddfb5cc4c2aa92f'}, {'title': [], 'url': 'http://store.is.autonavi.com/showpic/5640bb86ad6dc31654670232ab3a6d96'}]",090300,2,[],[],罗湖区,深圳陈文治诊所,"114.126612,22.550179",0755-22208978,[],B0FFGZPZQL
[],福强路2006号(福田口岸地铁站D2口步行380米),[],广东省,[],"{'cost': [], 'rating': []}",[],深圳市,医疗保健服务;诊所;诊所|医疗保健服务;专科医院;专科医院,"[{'title': [], 'url': 'http://store.is.autonavi.com/showpic/0f7997deb15a478419c818687d1eaaef'}, {'title': [], 'url': 'http://s-pic.oss-cn-beijing.aliyuncs.com/desensitize/deep/images/publish/d17cd8e7193ee2409409236f597457c3.jpg'}, {'title': [], 'url': 'http://s-pic.oss-cn-beijing.aliyuncs.com/desensitize/deep/images/publish/4245e6713a8dc98907ab145a4408fcc0.jpg'}]",090300|090200,2,[],[],福田区,洪琪诊所,"114.064230,22.518060",[],[],B0IG59MWFT
[],新和村桥新路13-1号,[],广东省,[],"{'cost': [], 'rating': []}",[],深圳市,医疗保健服务;诊所;诊所,"[{'title': [], 'url': 'http://store.is.autonavi.com/showpic/6c4acdddf67389aeb834997c9b6aea6a'}, {'title': [], 'url': 'http://s-pic.oss-cn-beijing.aliyuncs.com/desensitize/deep/images/publish/012c832fd1372cfc0d107dc9fe785a95.jpg'}, {'title': [], 'url': 'http://store.is.autonavi.com/showpic/be2a0ff011d237765a4afbe2a46ced1c'}]",090300,2,[],[],宝安区,深圳德泰诊所,"113.799308,22.673243",[],[],B0J2C631H9
[],坪地街道22小区建设路18号,[],广东省,[],"{'cost': [], 'rating': []}",[],深圳市,医疗保健服务;诊所;诊所,"[{'title': [], 'url': 'http://store.is.autonavi.com/showpic/56df6a3355686d8617d76829e794f785'}, {'title': [], 'url': 'http://store.is.autonavi.com/showpic/79cc8ae86f6c9699280c13ecb0848c67'}, {'title': [], 'url': 'http://store.is.autonavi.com/showpic/25868eaf8cc8bbd91e8ee2674dcd8b16'}]",090300,2,[],[],龙岗区,深圳张俞诊所,"114.311424,22.772370",13715019529;13979237598,[],B0IAFOBYOB
[],龙东社区龙南路319号(新塘围地铁站A口步行410米),[],广东省,[],"{'cost': [], 'rating': []}",[],深圳市,医疗保健服务;诊所;诊所,"[{'title': [], 'url': 'http://store.is.autonavi.com/showpic/39fd5f899ee7b17077a7a4d0786779fa'}, {'title': [], 'url': 'http://store.is.autonavi.com/showpic/c602512cd9c058aeca13ffe4ea9d605f'}, {'title': [], 'url': 'http://store.is.autonavi.com/showpic/21a08fcf0557b414031f35a3e278e74e'}]",090300,2,[],[],龙岗区,深圳元康诊所,"114.282772,22.725421",18238699875,[],B0HGDA8EAI
[],凤凰街道塘家新村一巷13-2,[],广东省,[],"{'cost': [], 'rating': []}",[],深圳市,医疗保健服务;诊所;诊所,"[{'title': [], 'url': 'http://store.is.autonavi.com/showpic/367f307465e5a8fec946293465a235d7'}, {'title': [], 'url': 'http://store.is.autonavi.com/showpic/d0f9001e9a30c7f066d26518083303ee'}]",090300,2,[],[],光明区,深圳家学诊所,"113.938690,22.729958",13267238280,[],B0FFKG8WUW
[],吉华街道水径社区下水径吉华路305号1-2层,[],广东省,[],"{'cost': [], 'rating': []}",[],深圳市,医疗保健服务;诊所;诊所,"[{'title': [], 'url': 'http://s-pic.oss-cn-beijing.aliyuncs.com/desensitize/deep/images/publish/363c949ebb059f1dd7faad9d5371b447.jpg'}, {'title': [], 'url': 'http://s-pic.oss-cn-beijing.aliyuncs.com/desensitize/deep/images/publish/f5857c40af3c6dddc13322d219b2c140.jpg'}, {'title': [], 'url': 'http://s-pic.oss-cn-beijing.aliyuncs.com/desensitize/deep/images/publish/f625e9814f3f7b77d64ca81cedda185c.jpg'}]",090300,2,[],[],龙岗区,深圳天成诊所,"114.109937,22.617291",0755-28683903,[],B0FFJXROGH
[],东岳路12号,[],广东省,[],"{'cost': [], 'rating': []}",[],深圳市,医疗保健服务;诊所;诊所,"[{'title': [], 'url': 'http://store.is.autonavi.com/showpic/23d348c1bffe668cc06a41135b7e9abd'}, {'title': [], 'url': 'http://store.is.autonavi.com/showpic/3267a54cc81915d5093b5da77127954a'}]",090300,2,[],[],宝安区,深圳振东诊所,"113.815007,22.741509",13530600339,[],B0FFKZDCM1
[],裕安二路240号,[],广东省,[],"{'cost': [], 'rating': []}",[],深圳市,医疗保健服务;诊所;诊所,"[{'title': [], 'url': 'http://store.is.autonavi.com/showpic/0ccb3808aea83a59783a7f472b0c5b17'}, {'title': [], 'url': 'http://store.is.autonavi.com/showpic/987ae18fb3892b269fd0cbb7bd6dd856'}]",090300,2,[],[],宝安区,深圳裕安诊所,"113.905754,22.576436",[],[],B0H6BRER6X
[],东龙新村3区1号1楼,[],广东省,[],"{'cost': [], 'rating': []}",[],深圳市,医疗保健服务;诊所;诊所,"[{'title': [], 'url': 'http://store.is.autonavi.com/showpic/dc908a39afcfb2c712bba8e3051c98c5'}, {'title': [], 'url': 'http://store.is.autonavi.com/showpic/221f0ff56d556ff55ae4676e89c1facc'}]",090300,2,[],[],龙华区,深圳和悦诊所,"114.023829,22.636828",18098974877,[],B0FFKWN09R
[],吉华街道丽湖社区上水花园122栋101,[],广东省,[],"{'cost': [], 'rating': []}",[],深圳市,医疗保健服务;诊所;诊所,"[{'title': [], 'url': 'http://store.is.autonavi.com/showpic/9056dbab0dde92cbf7d30441f74c833c'}, {'title': [], 'url': 'http://store.is.autonavi.com/showpic/af931a4951fc6fc8ce4ce3da750c7031'}, {'title': [], 'url': 'http://store.is.autonavi.com/showpic/7a0fc1f7a2b811157e56fc7b8ddbc88a'}]",090300,2,[],[],龙岗区,深圳郑周诊所,"114.108153,22.627367",0755-89671153;13609615748,[],B0FFK62896
[],平湖街道横岭路16号南,[],广东省,[],"{'cost': [], 'rating': []}",[],深圳市,医疗保健服务;诊所;诊所,"[{'title': [], 'url': 'http://s-pic.oss-cn-beijing.aliyuncs.com/desensitize/deep/images/publish/53fc2a002f6bdb01bdb41a822872e0db.jpg'}, {'title': [], 'url': 'http://store.is.autonavi.com/showpic/c332d69d7c115283325c8a3aaf8f2c33'}]",090300,2,[],[],龙岗区,深圳黄建诊所,"114.136587,22.694630",13590415960,[],B0FFJ55OSQ
[],万丰中路471-1号,[],广东省,[],"{'cost': [], 'rating': []}",[],深圳市,医疗保健服务;诊所;诊所,"[{'title': [], 'url': 'http://store.is.autonavi.com/showpic/1c0916f42f0f9dca5e06f0344b00c9f0'}, {'title': [], 'url': 'https://aos-comment.amap.com/B0FFIMTW49/headerImg/4d1b15b22b4baee1e4e7147aa2d584a9_2048_2048_80.jpg'}, {'title': [], 'url': 'http://store.is.autonavi.com/showpic/5b738cc64fd474067667d094327f6844'}]",090300,2,[],[],宝安区,深圳陈进海诊所,"113.826240,22.725951",0755-27462877;13603069027,[],B0FFIMTW49
[],辅城社区工业大道41号,[],广东省,[],"{'cost': [], 'rating': []}",[],深圳市,医疗保健服务;诊所;诊所,"[{'title': [], 'url': 'http://s-pic.oss-cn-beijing.aliyuncs.com/desensitize/deep/images/publish/0a154574f952105004c4b0efcc467262.jpg'}, {'title': [], 'url': 'http://store.is.autonavi.com/showpic/fd550b054de73e1bef2d442c5a62c688'}, {'title': [], 'url': 'http://store.is.autonavi.com/showpic/442daacd7a854be45d80cb4af11e1fb2'}]",090300,2,[],[],龙岗区,鲁豫诊所,"114.111394,22.691334",18476369845,[],B0FFKCF8DP
[],福永街道白石厦新塘工业区永平二路9-5,[],广东省,[],"{'cost': [], 'rating': []}",[],深圳市,医疗保健服务;诊所;诊所,"[{'title': [], 'url': 'http://s-pic.oss-cn-beijing.aliyuncs.com/desensitize/deep/images/publish/b139f5142072afea672f7428b88eccac.jpg'}, {'title': [], 'url': 'http://store.is.autonavi.com/showpic/40fe23bd3b65ec6ff1c5435b369cc279'}]",090300,2,[],[],宝安区,新堂诊所,"113.831525,22.671009",13632650941,[],B0FFISKOM0
[],福宁街13号(赤尾地铁站E口步行450米),[],广东省,[],"{'cost': [], 'rating': []}",[],深圳市,医疗保健服务;诊所;诊所,"[{'title': [], 'url': 'http://store.is.autonavi.com/showpic/55acc039a310a084c90f2ce1'}]",090300,2,[],[],福田区,张锋诊所,"114.082113,22.530313",0755-83391783,[],B02F38SW2B
[],楼村新村东南门旁,[],广东省,[],"{'cost': [], 'rating': []}",[],深圳市,医疗保健服务;诊所;诊所,"[{'title': [], 'url': 'http://s-pic.oss-cn-beijing.aliyuncs.com/desensitize/deep/images/publish/6e38ac1c153937be3744b1bdbd31eddd.jpg'}, {'title': [], 'url': 'http://store.is.autonavi.com/showpic/9145b244dcf9cef83dcb44b0632c3086'}]",090300,2,[],[],光明区,海斌诊所,"113.930644,22.782524",[],[],B0HBRP58EE
[],杨田路15-8号,[],广东省,[],"{'cost': [], 'rating': []}",[],深圳市,医疗保健服务;诊所;诊所,"[{'title': [], 'url': 'http://store.is.autonavi.com/showpic/ca90d85ce3b43979d3d886a0a69ec698'}, {'title': [], 'url': 'http://store.is.autonavi.com/showpic/aac6b27ddbe5438dcc1144b2089ccb48'}]",090300,2,[],[],龙岗区,深圳壹和中医诊所,"114.271164,22.740193",18923891262,[],B0JD47HP8T
[],南澳街道办关厂路8-1号,[],广东省,[],"{'cost': [], 'rating': []}",[],深圳市,医疗保健服务;诊所;诊所,"[{'title': [], 'url': 'http://store.is.autonavi.com/showpic/47c728bd85a680678cef55c145da504c'}, {'title': [], 'url': 'http://store.is.autonavi.com/showpic/f73e28d28d02dca87fe6dec14ec10d0d'}]",090300,2,[],[],龙岗区,深圳泰安堂诊所,"114.493200,22.533351",13794457008;18825201386,[],B0FFKCN9HX
[],华旺路21-9号(阳台山东地铁站A口步行440米),[],广东省,[],"{'cost': [], 'rating': []}",[],深圳市,医疗保健服务;诊所;诊所,"[{'title': [], 'url': 'http://store.is.autonavi.com/showpic/07c9c0b1f036ef9d8cb1cf34e15b3e73'}]",090300,2,[],[],龙华区,深圳李艳诊所,"113.990926,22.671158",15811820908,[],B0KB41XBVE
[],平湖镇北门街21号(双拥街地铁站C口步行210米),[],广东省,[],"{'cost': [], 'rating': []}",[],深圳市,医疗保健服务;诊所;诊所,"[{'title': [], 'url': 'http://store.is.autonavi.com/showpic/34121f1be21cb17cf35807cf1d8aea34'}, {'title': [], 'url': 'http://store.is.autonavi.com/showpic/e10ec722192bf1056c22cc5c5e2d6a18'}]",090300,2,[],[],龙岗区,石建国诊所,"114.132277,22.697671",[],[],B0FFI0PU8G
[],坪山街道东纵路85-2号车天地汽车销售服务有限公司,[],广东省,[],"{'cost': [], 'rating': []}",[],深圳市,医疗保健服务;诊所;诊所,"[{'title': [], 'url': 'http://s-pic.oss-cn-beijing.aliyuncs.com/desensitize/deep/images/publish/c7046dc8b6ad25bddf70f17778ab91dd.jpg'}, {'title': [], 'url': 'http://store.is.autonavi.com/showpic/da2642f7f068f67e0cc9b4ba668668dd'}]",090300,2,[],[],坪山区,深圳曾剑辉诊所,"114.366873,22.686135",13713972393,[],B0H6YCBU56
[],航城街道鹤洲东区九巷3号,[],广东省,[],"{'cost': [], 'rating': []}",[],深圳市,医疗保健服务;诊所;诊所,"[{'title': [], 'url': 'http://aos-cdn-image.amap.com/sns/ugccomment/7de466b5-bcf0-4e6a-aa42-366d455091f0.jpg'}, {'title': [], 'url': 'http://aos-cdn-image.amap.com/sns/ugccomment/77632125-b809-42f1-91f9-826ba5aa90f2.jpg'}, {'title': [], 'url': 'http://s-pic.oss-cn-beijing.aliyuncs.com/desensitize/deep/images/publish/f9e149c566d9ccf34189b960e1433441.jpg'}]",090300,2,[],[],宝安区,李娜诊所,"113.861606,22.625497",13360079436,[],B0FFIRCOYA
[],新田大道海宾公寓157号,[],广东省,[],"{'cost': [], 'rating': []}",[],深圳市,医疗保健服务;诊所;诊所,"[{'title': [], 'url': 'http://store.is.autonavi.com/showpic/451708c728c77af16a1ea1337c2127c4'}, {'title': [], 'url': 'https://aos-comment.amap.com/B0FFI67BTR/headerImg/3ef769cfb543d60524597ed26bee8fa8_2048_2048_80.jpg'}, {'title': [], 'url': 'http://store.is.autonavi.com/showpic/144ccd1e76cbf41e8c78d9cf932e8bf6'}]",090300,2,[],[],宝安区,世通诊所,"113.829709,22.691461",0755-27312405,[],B0FFI67BTR
[],横岗镇大康村奔康路2号,[],广东省,[],"{'cost': [], 'rating': []}",[],深圳市,医疗保健服务;专科医院;专科医院|医疗保健服务;诊所;诊所,"[{'title': [], 'url': 'http://s-pic.oss-cn-beijing.aliyuncs.com/desensitize/deep/images/publish/8e5679b13c2f1185e5cc3d3bbb7ed4e8.jpg'}, {'title': [], 'url': 'http://store.is.autonavi.com/showpic/9448bfe3c9f70972e19fd243c652a199'}]",090200|090300,2,[],[],龙岗区,廖康诊所,"114.242294,22.648588",[],[],B0FFIRWDLR
[],光彩新世纪北门旁(南山地铁站D口步行150米),[],广东省,[],"{'cost': [], 'rating': []}",[],深圳市,医疗保健服务;诊所;诊所,"[{'title': [], 'url': 'http://store.is.autonavi.com/showpic/ff91d4d246709becb5f726145783dee6'}, {'title': [], 'url': 'http://store.is.autonavi.com/showpic/c226d576b5c380defd87b2bcc2dd0bc6'}, {'title': [], 'url': 'http://store.is.autonavi.com/showpic/2306c14aa4aaf60a178301fcb61c1a34'}]",090300,2,[],[],南山区,深圳文馨诊所,"113.924935,22.523027",19926441562,[],B0FFLII1P4
[],新安街道宝民社区宝民一路灶下村一坊七巷2号102,[],广东省,[],"{'cost': [], 'rating': []}",[],深圳市,医疗保健服务;诊所;诊所,"[{'title': [], 'url': 'http://store.is.autonavi.com/showpic/62bfceb4eac243bebce269b8439b19aa'}, {'title': [], 'url': 'http://store.is.autonavi.com/showpic/7c355ffdce1a54fefe53ed1a3f82b7b9'}, {'title': [], 'url': 'http://store.is.autonavi.com/showpic/bb1f41baa7ba3f60aa33fb4532fd0381'}]",090300,2,[],[],宝安区,深圳龙泉中医(综合)诊所,"113.899348,22.566099",13266587758;15112556535,[],B0HD141WBJ
[],平湖街道辅城坳社区白龙头五巷二号,[],广东省,[],"{'cost': [], 'rating': []}",[],深圳市,医疗保健服务;诊所;诊所,"[{'title': [], 'url': 'http://s-pic.oss-cn-beijing.aliyuncs.com/desensitize/images/publish/cce300ba2ca0400bf3a9416b5208ac57.jpg'}, {'title': [], 'url': 'http://store.is.autonavi.com/showpic/5fcfb192df339f77aa62ee49ce1b5086'}, {'title': [], 'url': 'http://store.is.autonavi.com/showpic/e24ba0a69d5fe8d45b394ac6aa4b9ee8'}]",090300,2,[],[],龙岗区,深圳济民诊所,"114.097851,22.691354",[],[],B0FFMDX170
[],西乡固戍南昌二队东区九巷六号,[],广东省,[],"{'cost': [], 'rating': []}",[],深圳市,医疗保健服务;诊所;诊所,"[{'title': [], 'url': 'http://store.is.autonavi.com/showpic/4600b3cb581085ea0710edb46270c98c'}]",090300,2,[],[],宝安区,深圳善念诊所,"113.841058,22.600782",13841885695,[],B0JG1LPIFW
[],福永街道和平社区玻璃围新村南五巷11-1号,[],广东省,[],"{'cost': [], 'rating': []}",[],深圳市,医疗保健服务;诊所;诊所,"[{'title': [], 'url': 'http://store.is.autonavi.com/showpic/fe66b16d2de0ab599632d0a78b33399a'}, {'title': [], 'url': 'http://store.is.autonavi.com/showpic/f3638d820baf19dc7f0a107f8b842104'}, {'title': [], 'url': 'http://s-pic.oss-cn-beijing.aliyuncs.com/desensitize/deep/images/publish/6d3f486e63e590a904d9302a80c6d6ee.jpg'}]",090300,2,[],[],宝安区,周林诊所,"113.794847,22.689882",[],[],B0FFJ3OXO5
[],万科麓城金域中央花园F栋101,[],广东省,[],"{'cost': [], 'rating': []}",[],深圳市,医疗保健服务;诊所;诊所,"[{'title': [], 'url': 'http://store.is.autonavi.com/showpic/408a0d315046e7b7881ff9b962d77e07'}, {'title': [], 'url': 'http://store.is.autonavi.com/showpic/daf20c6f7caac73a6cdf34bcfe25c82f'}]",090300,2,[],[],龙岗区,众医诊所,"114.104696,22.625027",[],[],B0FFKBD01K
[],坂田街道坂田社区长坑路东四巷1号101,[],广东省,[],"{'cost': [], 'rating': []}",[],深圳市,医疗保健服务;诊所;诊所,"[{'title': [], 'url': 'http://s-pic.oss-cn-beijing.aliyuncs.com/desensitize/deep/images/publish/dde8c9228af8b467f33085a73c245290.jpg'}, {'title': [], 'url': 'https://aos-comment.amap.com/B0JDSZU2P7/headerImg/045e16b47c437aeb9f0ff8d5cd4e6471_2048_2048_80.jpg'}, {'title': [], 'url': 'http://s-pic.oss-cn-beijing.aliyuncs.com/desensitize/deep/images/publish/53f23e70f1a69332f286e6876335dff6.jpg'}]",090300,2,[],[],龙华区,深圳汉青诊所,"114.000281,22.672270",13597400903,[],B0JDSZU2P7
[],福田村牛巷坊67号102室(福田路沃尔玛旁),[],广东省,[],"{'cost': [], 'rating': []}",[],深圳市,医疗保健服务;诊所;诊所,"[{'title': [], 'url': 'http://store.is.autonavi.com/showpic/e57cbf277e851b419a082ed6a55464b6'}, {'title': [], 'url': 'http://store.is.autonavi.com/showpic/fbf068ae64a75a2b7adc4f88183e7650'}]",090300,2,[],[],福田区,深圳顺平诊所,"114.080577,22.532523",13828849372,[],B0FFJ30DT2
[],福景花园东北门北50米(龙华地铁站D口步行300米),[],广东省,[],"{'cost': [], 'rating': []}",[],深圳市,医疗保健服务;诊所;诊所,"[{'title': [], 'url': 'http://store.is.autonavi.com/showpic/c9be6606b424d93748becf2dca3630d4'}]",090300,2,[],[],龙华区,深圳路航诊所,"114.022994,22.649013",13430499505,[],B0H3275VSF
[],福星路19-1号(赤尾地铁站E口步行340米),[],广东省,[],"{'cost': [], 'rating': []}",[],深圳市,医疗保健服务;诊所;诊所,"[{'title': [], 'url': 'http://s-pic.oss-cn-beijing.aliyuncs.com/desensitize/deep/images/publish/064f9a5f2022fb4f5b988d3e8969a6f8.jpg'}, {'title': [], 'url': 'http://s-pic.oss-cn-beijing.aliyuncs.com/desensitize/deep/images/publish/1e525a1e60b8c5dc2ec2545c40ae5817.jpg'}, {'title': [], 'url': 'https://aos-comment.amap.com/B02F38SYH4/headerImg/a22509f591c5a11429cfd2a799bd635d_2048_2048_80.jpg'}]",090300,2,[],[],福田区,林伟槟诊所,"114.080630,22.531321",0755-83336637,[],B02F38SYH4
[],坪地街道中心白石塘村发展路90-2号,[],广东省,[],"{'cost': [], 'rating': []}",[],深圳市,医疗保健服务;诊所;诊所,"[{'title': [], 'url': 'http://store.is.autonavi.com/showpic/9014e316b530f16c0ca8c311094a6973'}, {'title': [], 'url': 'http://s-pic.oss-cn-beijing.aliyuncs.com/desensitize/deep/images/publish/b884c95bfbe81685e40b3235e1d20dac.jpg'}, {'title': [], 'url': 'http://s-pic.oss-cn-beijing.aliyuncs.com/desensitize/deep/images/publish/8c326ddbad7525a347a97fdaa31c65cf.jpg'}]",090300,2,[],[],龙岗区,深圳曾辉诊所,"114.300216,22.779311",15818577299,[],B0FFIS2HOZ
[],南湾街道下李朗社区深朗北33号楼,[],广东省,[],"{'cost': [], 'rating': []}",[],深圳市,医疗保健服务;诊所;诊所,"[{'title': [], 'url': 'http://store.is.autonavi.com/showpic/c2f568e50b2dc35ddcee147ccb70b80d'}, {'title': [], 'url': 'http://s-pic.oss-cn-beijing.aliyuncs.com/desensitize/deep/images/publish/189699834031ba9376278b19393462ee.jpg'}, {'title': [], 'url': 'http://store.is.autonavi.com/showpic/c0859a53bdfba941e0ae3e749cb957f7'}]",090300,2,[],[],龙岗区,深圳深源诊所,"114.127922,22.645054",[],[],B0JRUZR7FL
[],民治街道民治社区皓月花园1栋8号,[],广东省,[],"{'cost': [], 'rating': []}",[],深圳市,医疗保健服务;诊所;诊所,"[{'title': [], 'url': 'http://store.is.autonavi.com/showpic/e9b0429c3df17c1105f79bc152ea8245'}, {'title': [], 'url': 'http://store.is.autonavi.com/showpic/9ae329dc68973ac6ece18d57949bfcad'}, {'title': [], 'url': 'http://store.is.autonavi.com/showpic/beaacc716bfb04571cbc585bfe3087cb'}]",090300,2,[],[],龙华区,深圳吉丽诊所,"114.044621,22.616171",13145994731,[],B0G14AESYE
[],布吉街道京南路91号103铺,[],广东省,[],"{'cost': [], 'rating': []}",[],深圳市,医疗保健服务;诊所;诊所,"[{'title': [], 'url': 'http://store.is.autonavi.com/showpic/aff570538c242df2b3d88059ffd33f32'}, {'title': [], 'url': 'http://store.is.autonavi.com/showpic/85f085a67711ed73443ec0e365e4e8d0'}]",090300,2,[],[],龙岗区,深圳李花诊所,"114.124789,22.600514",13530179205,[],B0FFJY5NCN
B0FFGTPIJC,玉翠新村a区167栋,[],广东省,[],"{'cost': [], 'rating': []}",[],深圳市,医疗保健服务;诊所;诊所,"[{'title': [], 'url': 'http://store.is.autonavi.com/showpic/987a9113f3ac1f42df83f4855417c014'}, {'title': [], 'url': 'http://store.is.autonavi.com/showpic/87b87f6d5626f7b1efa4b573d20872ad'}, {'title': [], 'url': 'http://store.is.autonavi.com/showpic/e18c5b7bea45b688e5f2202c831ad002'}]",090300,2,[],202,龙华区,深圳凤兰诊所,"114.030680,22.673644",18123793133,[],B0FFHGW746
[],海典居东1门旁(南山书城地铁站E口旁),[],广东省,[],"{'cost': [], 'rating': []}",[],深圳市,医疗保健服务;诊所;诊所,"[{'title': [], 'url': 'http://store.is.autonavi.com/showpic/ba9ed2df80d5f495cb3755a19075eee2'}, {'title': [], 'url': 'http://s-pic.oss-cn-beijing.aliyuncs.com/desensitize/deep/images/publish/ff16af0cd4fe0352b939f33423d371ba.jpg'}]",090300,2,[],[],南山区,黄恩堂诊所,"113.927779,22.518306",[],[],B0I31Z219Q
[],白石洲一街100号,[],广东省,[],"{'cost': [], 'rating': []}",[],深圳市,医疗保健服务;诊所;诊所,"[{'title': [], 'url': 'http://store.is.autonavi.com/showpic/8bc8bea5945a8a1abe9b0510b1df4f8f'}, {'title': [], 'url': 'http://store.is.autonavi.com/showpic/0042ad7a8f721924ec78bead6af9cf9c'}, {'title': [], 'url': 'http://store.is.autonavi.com/showpic/b618320d1f1da0922443affb5a3340c8'}]",090300,2,[],[],南山区,深圳白石诊所,"113.967573,22.534087",19928731314,[],B0JBDSUE8W
[],沙井街道和一社区和-路15-2号,[],广东省,[],"{'cost': [], 'rating': []}",[],深圳市,医疗保健服务;诊所;诊所,"[{'title': [], 'url': 'http://store.is.autonavi.com/showpic/6049ba60bbaa7d308573a0ffe838ac85'}]",090300,2,[],[],宝安区,深圳和仁诊所,"113.790490,22.715979",0755-23724289,[],B0H6S5ZBRE
[],坪山街道六联社区宝珠路一巷5号,[],广东省,[],"{'cost': [], 'rating': []}",[],深圳市,医疗保健服务;诊所;诊所,"[{'title': [], 'url': 'http://store.is.autonavi.com/showpic/6e77d1a3d72a4e59450e816cd3fd7c4c'}]",090300,2,[],[],坪山区,深圳云平诊所,"114.327126,22.698976",[],[],B0G1F7NVOO
[],和平路北一巷3-2,[],广东省,[],"{'cost': [], 'rating': []}",[],深圳市,医疗保健服务;诊所;诊所|医疗保健服务;专科医院;专科医院,"[{'title': [], 'url': 'http://store.is.autonavi.com/showpic/22feaf7a263b4f5a9962883ed05e1135'}, {'title': [], 'url': 'http://s-pic.oss-cn-beijing.aliyuncs.com/desensitize/deep/images/publish/71f15ac216dde3b09a5b27329ec856ad.jpg'}, {'title': [], 'url': 'http://store.is.autonavi.com/showpic/dca91a6ba95522586cac06008969a611'}]",090300|090200,2,[],[],宝安区,深圳吴敏诊所,"113.792351,22.692807",[],[],B02F38MGDJ
[],南联社区鹏达路128号,[],广东省,[],"{'cost': [], 'rating': []}",[],深圳市,医疗保健服务;诊所;诊所|医疗保健服务;专科医院;专科医院,"[{'title': [], 'url': 'http://store.is.autonavi.com/showpic/2e60fb654033142b0f43e60d53f4d304'}, {'title': [], 'url': 'http://store.is.autonavi.com/showpic/b76caadf0fc7c9624b5b28cbdf95f58e'}, {'title': [], 'url': 'http://store.is.autonavi.com/showpic/04ee2a74b4d9ff2ad9d616d1649248dd'}]",090300|090200,2,[],[],龙岗区,深圳张锦花诊所,"114.261118,22.714448",0755-84806190,[],B02F38PERA
[],福海街道桥头社区桥南新村1号楼A103铺,[],广东省,[],"{'cost': [], 'rating': []}",[],深圳市,医疗保健服务;诊所;诊所,"[{'title': [], 'url': 'http://s-pic.oss-cn-beijing.aliyuncs.com/desensitize/deep/images/publish/8a03f98d773b0450a078fb9590c8ca91.jpg'}, {'title': [], 'url': 'http://s-pic.oss-cn-beijing.aliyuncs.com/desensitize/deep/images/publish/63fec776f0898b4e32718482910be881.jpg'}, {'title': [], 'url': 'http://s-pic.oss-cn-beijing.aliyuncs.com/desensitize/deep/images/publish/71a5ca4a17ce0bf75856d59f559ebbc9.jpg'}]",090300,2,[],[],宝安区,深圳陈田诊所,"113.810389,22.690123",18820172598,[],B0FFILFV2T
[],公明街道公明社区长春中路130号,[],广东省,[],"{'cost': [], 'rating': []}",[],深圳市,医疗保健服务;诊所;诊所,"[{'title': [], 'url': 'http://store.is.autonavi.com/showpic/a647d25cb2ae1e72d22de9d987ca4573'}, {'title': [], 'url': 'http://store.is.autonavi.com/showpic/4c09fd379014450c4cbad9ad0911f878'}]",090300,2,[],[],光明区,翔鸿诊所,"113.894440,22.784201",[],[],B0KDYDUBKG
[],吓坑安全文明小区B区东北门旁,[],广东省,[],"{'cost': [], 'rating': []}",[],深圳市,医疗保健服务;诊所;诊所,"[{'title': [], 'url': 'http://store.is.autonavi.com/showpic/87363a8675cd5202678a3005b373423e'}, {'title': [], 'url': 'http://s-pic.oss-cn-beijing.aliyuncs.com/desensitize/images/publish/66b2d57a13402fb39b12d0353c66765b.jpg'}, {'title': [], 'url': 'http://store.is.autonavi.com/showpic/0b14e170c92ab392f9e7a41f1e47ebbf'}]",090300,2,[],[],龙岗区,曾棚诊所,"114.316898,22.731611",[],[],B0HKOOM07Y
B02F302261,泰然四路26号劲松大厦13c,[],广东省,[],"{'cost': [], 'rating': []}",[],深圳市,医疗保健服务;诊所;诊所,"[{'title': [], 'url': 'https://aos-comment.amap.com/B0J0KZWVLU/headerImg/e749faf199b63c795050f13fb5aec80a_2048_2048_80.jpg'}, {'title': [], 'url': 'https://aos-comment.amap.com/B0J0KZWVLU/headerImg/46bd0930cbcf252876eb995d22a279f4_2048_2048_80.jpg'}, {'title': [], 'url': 'https://aos-comment.amap.com/B0J0KZWVLU/headerImg/e3129d6dd84a981ee87fdd83a039c97a_2048_2048_80.jpg'}]",090300,2,[],202,福田区,深圳值的诊所,"114.029880,22.534436",[],[],B0J0KZWVLU
[],大王山工业二路与沙井路交叉口西80米,[],广东省,[],"{'cost': [], 'rating': []}",[],深圳市,医疗保健服务;诊所;诊所,"[{'title': [], 'url': 'http://store.is.autonavi.com/showpic/e47f3bde145981724055422bb9e863c2'}]",090300,2,[],[],宝安区,深圳康健诊所,"113.804186,22.713680",[],[],B0I1J7EABA
B0FFFHB5G3,红岭南路1031号红岭大厦,[],广东省,[],"{'cost': [], 'rating': []}",[],深圳市,医疗保健服务;诊所;诊所,"[{'title': [], 'url': 'http://s-pic.oss-cn-beijing.aliyuncs.com/desensitize/deep/images/publish/12c4d5a514a697a28211b095e02c1301.jpg'}, {'title': [], 'url': 'http://store.is.autonavi.com/showpic/a2f4114275880e1c16c9c810ee7010e0'}, {'title': [], 'url': 'http://store.is.autonavi.com/showpic/fbea8a38dc18ca96b0780f6bad1169b9'}]",090300,2,[],202,福田区,中医综合诊所,"114.104521,22.539094",[],[],B0H64NHMUB
[],西乡流塘荔园一路32号一楼101,[],广东省,[],"{'cost': [], 'rating': []}",[],深圳市,医疗保健服务;诊所;诊所,"[{'title': [], 'url': 'http://s-pic.oss-cn-beijing.aliyuncs.com/desensitize/deep/images/publish/c5cccb05a6a8977bf7bef5b330c31a74.jpg'}, {'title': [], 'url': 'http://store.is.autonavi.com/showpic/7a601c9a18aa0e785f3d9a463b57ae82'}, {'title': [], 'url': 'http://store.is.autonavi.com/showpic/a03214730420f75529a93a8759cdc84e'}]",090300,2,[],[],宝安区,深圳盛泰诊所,"113.890442,22.579792",13530804979,[],B0FFK4B33P
[],皇岗上围三村17号皇岗小学附属幼儿园旁,[],广东省,[],"{'cost': [], 'rating': []}",[],深圳市,医疗保健服务;诊所;诊所,"[{'title': [], 'url': 'http://store.is.autonavi.com/showpic/c00410d082aeed1d6d004aeae854d19a'}, {'title': [], 'url': 'http://store.is.autonavi.com/showpic/3fd42f070df09f03874858af019ee30b'}, {'title': [], 'url': 'http://s-pic.oss-cn-beijing.aliyuncs.com/desensitize/deep/images/publish/d8dfa953625a7477dc0df202b0483ed2.jpg'}]",090300,2,[],[],福田区,周昌素西医诊所,"114.061622,22.526892",18926795499,[],B0FFH3M3HN
B02F37SC46,光翠路南12康之宝百货(光翠路美食街店),[],广东省,[],"{'cost': [], 'rating': []}",[],深圳市,医疗保健服务;诊所;诊所,"[{'title': [], 'url': 'http://store.is.autonavi.com/showpic/b18731fe797800dc9aa53ff48ab8e16a'}]",090300,2,[],202,光明区,中医(综合)诊所,"113.945294,22.759591",[],[],B0KDGDJMD2
[],民治街道上芬社区东龙新村一区46号46-1,[],广东省,[],"{'cost': [], 'rating': []}",[],深圳市,医疗保健服务;诊所;诊所,"[{'title': [], 'url': 'http://store.is.autonavi.com/showpic/21cf7af9ef93d549ed6cdbc44d0d43e4'}, {'title': [], 'url': 'http://store.is.autonavi.com/showpic/9a02a8d48d7c72597b1eb6f041fded0d'}, {'title': [], 'url': 'http://store.is.autonavi.com/showpic/a077ea324e51549431f8c3d5a90ee45e'}]",090300,2,[],[],龙华区,深圳云晨诊所,"114.023855,22.636329",13728722448;13823644496,[],B0H6RY7BHE
[],黄麻布路与同富路交叉口东北120米,[],广东省,[],"{'cost': [], 'rating': []}",[],深圳市,医疗保健服务;诊所;诊所,"[{'title': [], 'url': 'http://s-pic.oss-cn-beijing.aliyuncs.com/desensitize/deep/images/publish/3d2519d45ce1a2ee4319bd5720db79c6.jpg'}, {'title': [], 'url': 'http://s-pic.oss-cn-beijing.aliyuncs.com/desensitize/deep/images/publish/e4fb8361b7228c491c71101ee9181404.jpg'}]",090300,2,[],[],宝安区,深圳健德诊所,"113.866283,22.657636",[],[],B0FFL7Z2L4
[],天通工业园门口1栋101,[],广东省,[],"{'cost': [], 'rating': []}",[],深圳市,医疗保健服务;诊所;诊所,"[{'title': [], 'url': 'http://store.is.autonavi.com/showpic/ea82ad34a1682593e67271df99dac2f3'}, {'title': [], 'url': 'http://store.is.autonavi.com/showpic/f5cf90f629b2195b47289a6d652fc6ee'}, {'title': [], 'url': 'http://store.is.autonavi.com/showpic/4d53d808ab4bd69d8c0333b1aa149ee0'}]",090300,2,[],[],龙华区,深圳伟恒诊所,"114.002911,22.668376",15999698413,[],B0FFKKRTNN
[],龙新社区紫苑街71号,[],广东省,[],"{'cost': [], 'rating': []}",[],深圳市,医疗保健服务;诊所;诊所,"[{'title': [], 'url': 'http://store.is.autonavi.com/showpic/3ed920918e4c17e05255439a7de7ad64'}, {'title': [], 'url': 'http://s-pic.oss-cn-beijing.aliyuncs.com/desensitize/deep/images/publish/ca50901c5f81055d042400e4ecbc7433.jpg'}, {'title': [], 'url': 'http://store.is.autonavi.com/showpic/734ea344f474dbb763cd28a88cfc73a8'}]",090300,2,[],[],龙岗区,深圳惠捷诊所,"114.286290,22.730464",15012852996,[],B0FFKH6LOK
[],雪象商业街1035-27号,[],广东省,[],"{'cost': [], 'rating': []}",[],深圳市,医疗保健服务;诊所;诊所,"[{'title': [], 'url': 'http://store.is.autonavi.com/showpic/13d601e6f43b7c680ca95ba0402a949d'}, {'title': [], 'url': 'http://s-pic.oss-cn-beijing.aliyuncs.com/desensitize/deep/images/publish/d1ba1ed4f91976b4e2d1ace452ad2b97.jpg'}, {'title': [], 'url': 'http://store.is.autonavi.com/showpic/cd92d71b0b1f6486ca54a6ef7a2364b7'}]",090300,2,[],[],龙岗区,深圳日增诊所,"114.076817,22.652021",0755-89391898,[],B0FFK2V42O
B0FFFNVVOG,前海路大新新村北区160栋,[],广东省,[],"{'cost': [], 'rating': []}",[],深圳市,医疗保健服务;诊所;诊所,"[{'title': [], 'url': 'http://store.is.autonavi.com/showpic/95c289d0f7f617d96e61b63a9b611bce'}, {'title': [], 'url': 'http://store.is.autonavi.com/showpic/7ab9bbd428e098eb263c766d80453b52'}]",090300,2,[],202,南山区,深圳键华诊所,"113.916435,22.534010",13871602380,[],B0FFK11IR1
B0FFF9FKUV,赤尾村三坊34栋101(赤尾地铁站B口步行150米),[],广东省,[],"{'cost': [], 'rating': []}",[],深圳市,医疗保健服务;诊所;诊所,"[{'title': [], 'url': 'http://store.is.autonavi.com/showpic/db2f9eef018878690b4dab33000fd40d'}, {'title': [], 'url': 'http://s-pic.oss-cn-beijing.aliyuncs.com/desensitize/deep/images/publish/5c6ceac1dde14bad6cd7572bdc436b37.jpg'}, {'title': [], 'url': 'http://s-pic.oss-cn-beijing.aliyuncs.com/desensitize/deep/images/publish/c6d716c20e9eac15208577ecc847d821.jpg'}]",090300,2,[],202,福田区,深圳傅雷诊所,"114.085238,22.531581",0755-83611134,[],B0FFIHFJOC
B0FFGU09VY,黄贝岭中村68栋105,[],广东省,[],"{'cost': [], 'rating': []}",[],深圳市,医疗保健服务;诊所;诊所,"[{'title': [], 'url': 'http://s-pic.oss-cn-beijing.aliyuncs.com/desensitize/deep/images/publish/a16b81ff97506a4b5114e8bd02d44898.jpg'}, {'title': [], 'url': 'http://store.is.autonavi.com/showpic/9e0f527c702a8ad8a3b5223b153ac36b'}]",090300,2,[],202,罗湖区,深圳康德诊所,"114.141090,22.548533",13632699933,[],B0FFF477YH
[],裕林花园西北1门东北60米,[],广东省,[],"{'cost': [], 'rating': []}",[],深圳市,医疗保健服务;诊所;诊所,"[{'title': [], 'url': 'http://store.is.autonavi.com/showpic/3ab14c4c7ab2e8ef584184f297073fce'}]",090300,2,[],[],福田区,深圳安丽诊所,"114.041543,22.562612",[],[],B0K6XU316D
[],福永镇德芳路59号(怀德地铁站B1口步行310米),[],广东省,[],"{'cost': [], 'rating': []}",[],深圳市,医疗保健服务;诊所;诊所,"[{'title': [], 'url': 'http://s-pic.oss-cn-beijing.aliyuncs.com/desensitize/deep/images/publish/6169d3e46690e99ebe44befa8c1b77e5.jpg'}, {'title': [], 'url': 'http://s-pic.oss-cn-beijing.aliyuncs.com/desensitize/deep/images/publish/fbb443fd8483846173a77fa834e48d1e.jpg'}]",090300,2,[],[],宝安区,深圳淑霞诊所,"113.818537,22.668936",[],[],B0FFK9AY23
[],宽鸿诊所南侧,[],广东省,[],"{'cost': [], 'rating': []}",[],深圳市,医疗保健服务;诊所;诊所,"[{'title': [], 'url': 'http://store.is.autonavi.com/showpic/6a8798f0e3549e5149b57bb298867023'}, {'title': [], 'url': 'http://store.is.autonavi.com/showpic/ca4dba83d10d670cf61d53b687a2c7cd'}, {'title': [], 'url': 'http://s-pic.oss-cn-beijing.aliyuncs.com/desensitize/images/publish/82ce2dc78d43c630a3a4a939bae43c56.jpg'}]",090300,2,[],[],宝安区,杰文诊所,"113.846473,22.593628",13715285148;13798299751,[],B0JDBSD048
B0FFFTT8V5,龙岗区广东省龙岗区美食街北4巷4号,[],广东省,[],"{'cost': [], 'rating': []}",[],深圳市,公司企业;公司;公司,"[{'title': [], 'url': 'http://s-pic.oss-cn-beijing.aliyuncs.com/desensitize/deep/images/publish/3c5e7fafdeffe03f349fbd390327d351.jpg'}, {'title': [], 'url': 'http://store.is.autonavi.com/showpic/a689ff29c2a24119bdcf9ef25b0868a8'}, {'title': [], 'url': 'http://store.is.autonavi.com/showpic/16a6d87415315903c537fdabab8203ae'}]",170200,1,[],202,龙岗区,深圳杨明诊所,"114.062727,22.621687",18818780736,[],B0K6DZ8TK9
[],福城街道章阁社区樟亿路8-9号,[],广东省,[],"{'cost': [], 'rating': []}",[],深圳市,医疗保健服务;诊所;诊所,"[{'title': [], 'url': 'http://store.is.autonavi.com/showpic/798a7bb1a20a9a8294186ebab44aec4d'}, {'title': [], 'url': 'https://aos-comment.amap.com/B0JRYYC1RG/headerImg/9cd348db1c5781c7c909b00e02642ea9_2048_2048_80.jpg'}, {'title': [], 'url': 'http://store.is.autonavi.com/showpic/ccddd7f3095f17d8bf1c49648a697725'}]",090300,2,[],[],龙华区,深圳江元诊所,"114.016181,22.742240",[],[],B0JRYYC1RG
[],民治大道榕苑商铺108号,[],广东省,[],"{'cost': [], 'rating': []}",[],深圳市,医疗保健服务;诊所;诊所,"[{'title': [], 'url': 'http://store.is.autonavi.com/showpic/e6af13266d29c00250ebb80dbd062414'}, {'title': [], 'url': 'http://store.is.autonavi.com/showpic/92424c10dc83db198398e256caecbc64'}, {'title': [], 'url': 'http://store.is.autonavi.com/showpic/555b17883129e010683d8d5c6d599c86'}]",090300,2,[],[],龙华区,深圳丽苑诊所,"114.045461,22.607329",[],[],B0FFIRJA8Y
[],马田街道新庄社区大围路口1排10栋延昌路51号深圳青根诊所,[],广东省,[],"{'cost': [], 'rating': []}",[],深圳市,医疗保健服务;诊所;诊所,"[{'title': [], 'url': 'https://aos-comment.amap.com/B0JGDCJ6OW/headerImg/66b749a30f4e1d0284fac8a5e586432f_2048_2048_80.jpg'}, {'title': [], 'url': 'https://aos-comment.amap.com/B0JGDCJ6OW/headerImg/aad9c302a094233dffc2290454d648e5_2048_2048_80.jpg'}, {'title': [], 'url': 'http://store.is.autonavi.com/showpic/179e024efea011931d92a85e095e60ea'}]",090300,2,[],[],光明区,深圳青根诊所,"113.907023,22.759781",15857887990,[],B0JGDCJ6OW
B0FFFR88QQ,福城街道章阁社区塘前西区16号101、107(樟吉路财富大厦1层),[],广东省,[],"{'cost': [], 'rating': []}",[],深圳市,医疗保健服务;诊所;诊所,"[{'title': [], 'url': 'http://store.is.autonavi.com/showpic/6f32479ab32f3d6094623485f2bc48d8'}, {'title': [], 'url': 'http://s-pic.oss-cn-beijing.aliyuncs.com/desensitize/deep/images/publish/7524b2b49cf5cb3e0ad76f02cf50dca6.jpg'}, {'title': [], 'url': 'http://store.is.autonavi.com/showpic/7e5d2793496a44ce6a3d9ae5e478a448'}]",090300,2,[],202,龙华区,深圳三江诊所,"114.018124,22.740602",[],[],B0FFJEP47D
[],龙城街道盛平社区塘背坜二巷6号101,[],广东省,[],"{'cost': [], 'rating': []}",[],深圳市,医疗保健服务;诊所;诊所,"[{'title': [], 'url': 'http://store.is.autonavi.com/showpic/13713b3b783143bd6f94eaf3bceafb85'}, {'title': [], 'url': 'http://store.is.autonavi.com/showpic/6df447a7a8ad634f95374b9588428019'}, {'title': [], 'url': 'http://store.is.autonavi.com/showpic/1f8199a46b535e30652d048fff6d922d'}]",090300,2,[],[],龙岗区,深圳定波诊所,"114.257685,22.736573",13480991628;13530206989,[],B0FFLMBIGY
[],福田街道海滨社区金田南路1018-4号,[],广东省,[],"{'cost': [], 'rating': []}",[],深圳市,医疗保健服务;诊所;诊所,"[{'title': [], 'url': 'http://store.is.autonavi.com/showpic/bd9b72717693e89a84edd64572ac273a'}, {'title': [], 'url': 'http://store.is.autonavi.com/showpic/75bc0f945c82975668a2722f225c509d'}, {'title': [], 'url': 'http://store.is.autonavi.com/showpic/c00a4815b7eb39cf3b09b418ab147ee5'}]",090300,2,[],[],福田区,深圳康远诊所,"114.065681,22.521547",0755-82770520;13424366131,[],B0FFLIIE96
[],岗厦东四坊二号(岗厦地铁站A口步行210米),[],广东省,[],"{'cost': [], 'rating': []}",[],深圳市,医疗保健服务;诊所;诊所,"[{'title': [], 'url': 'http://store.is.autonavi.com/showpic/92b461b166c671f8d7f918385d3fe01c'}]",090300,2,[],[],福田区,深圳家康诊所,"114.069340,22.536311",19925435969,[],B0FFIY13IK
[],福海街道桥头社区杨侯庙一巷7号,[],广东省,[],"{'cost': [], 'rating': []}",[],深圳市,医疗保健服务;诊所;诊所,"[{'title': [], 'url': 'http://store.is.autonavi.com/showpic/0405e49b6c72fd9b0575e1bf326437d6'}]",090300,2,[],[],宝安区,深圳魏志强诊所,"113.806616,22.691966",[],[],B0J3BCXKH3
[],公明街道下村社区下村路35-1号101,[],广东省,[],"{'cost': [], 'rating': []}",[],深圳市,医疗保健服务;诊所;诊所,"[{'title': [], 'url': 'http://store.is.autonavi.com/showpic/e2df97afca0aa0fa786bc0a1eb76cdd0'}, {'title': [], 'url': 'https://aos-comment.amap.com/B0FFGGZJ99/headerImg/f21a94ba6488f1b9a9d852a23f03a9cc_2048_2048_80.jpg'}, {'title': [], 'url': 'http://store.is.autonavi.com/showpic/429e6f34b38ca80249ce68db3bff6101'}]",090300,2,[],[],光明区,深圳宋祖军诊所,"113.886560,22.789355",0755-33691165,[],B0HRRUX0H3
[],沙嘴村二坊85栋,[],广东省,[],"{'cost': [], 'rating': []}",[],深圳市,医疗保健服务;诊所;诊所,"[{'title': [], 'url': 'http://s-pic.oss-cn-beijing.aliyuncs.com/desensitize/deep/images/publish/d856136256ac32fd3fcee57fe3ef0f1c.jpg'}, {'title': [], 'url': 'http://s-pic.oss-cn-beijing.aliyuncs.com/desensitize/deep/images/publish/f0889ca328924b1cf09b17247f4287d7.jpg'}, {'title': [], 'url': 'http://s-pic.oss-cn-beijing.aliyuncs.com/desensitize/deep/images/publish/843d9f6459935a22e7fef34d580ab1fa.jpg'}]",090300,2,[],[],福田区,黄翠峰诊所,"114.038545,22.517419",18002502095,[],B0FFLE4ELD
[],布吉街道大坪路18号,[],广东省,[],"{'cost': [], 'rating': []}",[],深圳市,医疗保健服务;诊所;诊所,"[{'title': [], 'url': 'http://store.is.autonavi.com/showpic/b47536baa428d0b90800c88265644fcd'}, {'title': [], 'url': 'http://s-pic.oss-cn-beijing.aliyuncs.com/desensitize/deep/images/publish/c61b045c00e401dfd1bc31b069a8841f.jpg'}]",090300,2,[],[],龙岗区,廖少云诊所,"114.116548,22.603954",0755-28273181,[],B02F38K83K
[],翻身路121-1号(翻身地铁站C口步行110米),[],广东省,[],"{'cost': [], 'rating': []}",[],深圳市,医疗保健服务;医药保健销售店;药房,"[{'title': [], 'url': 'http://store.is.autonavi.com/showpic/3580f2e5313e58ac27509eb1dd92ba0e'}, {'title': [], 'url': 'http://s-pic.oss-cn-beijing.aliyuncs.com/desensitize/deep/images/publish/0abd6292d6ae46942583b7aa94d9b03b.jpg'}, {'title': [], 'url': 'http://s-pic.oss-cn-beijing.aliyuncs.com/desensitize/deep/images/publish/7aeffbf76bb94971fe9eb0d3e499b78f.jpg'}]",090601,1,[],[],宝安区,惠民药店诊所(翻身路店),"113.893780,22.560974",17816373729,[],B0HR646MUU
[],景田北一街与景田东路交叉口西20米,[],广东省,[],"{'cost': [], 'rating': []}",[],深圳市,医疗保健服务;诊所;诊所,"[{'title': [], 'url': 'http://store.is.autonavi.com/showpic/bebb9d004d24b80fce45099821f754df'}, {'title': [], 'url': 'http://store.is.autonavi.com/showpic/259c38b22e5c51a601cb58ba8c1102bb'}]",090300,2,[],[],福田区,华卫诊所,"114.043384,22.556498",[],[],B0HUACC0N4
[],共乐路与黄屋村路交叉口西160米,[],广东省,[],"{'cost': [], 'rating': []}",[],深圳市,医疗保健服务;诊所;诊所,"[{'title': [], 'url': 'http://store.is.autonavi.com/showpic/f6fbd7fc3b9faaf137587bd52de8236c'}, {'title': [], 'url': 'http://s-pic.oss-cn-beijing.aliyuncs.com/desensitize/deep/images/publish/eef39fb775467625032ed24cfe8d6035.jpg'}, {'title': [], 'url': 'http://store.is.autonavi.com/showpic/c8e603d4aaa2ab28ceea8fc5e5395bc2'}]",090300,2,[],[],宝安区,华利诊所,"113.872870,22.575674",[],[],B0HD6ZB9VT
[],邓氏花园南门旁,[],广东省,[],"{'cost': [], 'rating': []}",[],深圳市,医疗保健服务;诊所;诊所,"[{'title': [], 'url': 'http://store.is.autonavi.com/showpic/62b65146dd24a57d9e54ad2b129806f1'}]",090300,2,[],[],南山区,顺康诊所,"113.930843,22.507887",[],[],B0G23ABJP4
[],源盛路29号,[],广东省,[],"{'cost': [], 'rating': []}",[],深圳市,医疗保健服务;诊所;诊所,"[{'title': [], 'url': 'http://store.is.autonavi.com/showpic/dbacf684216141865138abeb7c9c9c0a'}]",090300,2,[],[],龙岗区,兰裕诊所,"114.289698,22.717311",0755-86009600;13590381875,[],B0FFJE697Z
[],排榜路75-5号,[],广东省,[],"{'cost': [], 'rating': []}",[],深圳市,医疗保健服务;诊所;诊所,"[{'title': [], 'url': 'http://store.is.autonavi.com/showpic/5066153e53fec9559ce0b31061feaf59'}, {'title': [], 'url': 'http://store.is.autonavi.com/showpic/ba747c22a37495b3de565e5d1e8a91a7'}]",090300,2,[],[],龙岗区,康逸诊所,"114.197628,22.654097",[],[],B0JDTR8N5V
[],丰南苑大酒店东南门旁,[],广东省,[],"{'cost': [], 'rating': []}",[],深圳市,医疗保健服务;诊所;诊所,"[{'title': [], 'url': 'http://store.is.autonavi.com/showpic/20f3c59724cf22e72776a107a1c5b6bd'}]",090300,2,[],[],龙华区,守成诊所,"114.088178,22.701318",[],[],B0GK772UU6
[],布李路与新龙路交叉口南120米,[],广东省,[],"{'cost': [], 'rating': []}",[],深圳市,医疗保健服务;专科医院;妇科医院|医疗保健服务;诊所;诊所,"[{'title': [], 'url': 'http://store.is.autonavi.com/showpic/57bc84efaf43df2042c634ba9b4122c1'}, {'title': [], 'url': 'http://store.is.autonavi.com/showpic/bff05041ec2a62da3154a72edfd35123'}, {'title': [], 'url': 'http://store.is.autonavi.com/showpic/67460263f7e6fcab5ed995546d0e05e2'}]",090209|090300,2,[],[],龙岗区,深圳杨明兰诊所,"114.119300,22.611398",13005447788,[],B0FFM7ISMU
[],沙头街道沙尾社区沙尾西村328号,[],广东省,[],"{'cost': [], 'rating': []}",[],深圳市,医疗保健服务;医疗保健服务场所;医疗保健服务场所,"[{'title': [], 'url': 'http://store.is.autonavi.com/showpic/c691a4e3af1d2547da8e07616817c42c'}]",090000,0,[],[],福田区,同康诊所,"114.040998,22.519379",18671650428,[],B0JR2UJL4B
[],白石厦社区裕华园西15-3,[],广东省,[],"{'cost': [], 'rating': []}",[],深圳市,医疗保健服务;诊所;诊所,"[{'title': [], 'url': 'http://store.is.autonavi.com/showpic/3857c306d80a08367f90884036ed7ca4'}, {'title': [], 'url': 'http://store.is.autonavi.com/showpic/7c06bd806f0dc6d45ce156da6464e472'}, {'title': [], 'url': 'http://store.is.autonavi.com/showpic/14e48b1120d20d6f30b58d0f0beed199'}]",090300,2,[],[],宝安区,常氏诊所,"113.823958,22.672536",13728793438,[],B0J1LMNXEX
[],航城街道黄麻布工业街31号103,[],广东省,[],"{'cost': [], 'rating': []}",[],深圳市,医疗保健服务;诊所;诊所,"[{'title': [], 'url': 'http://store.is.autonavi.com/showpic/88ffb0a5fff2fc6d66baade1e393a5ff'}]",090300,2,[],[],宝安区,丰康诊所,"113.864890,22.663453",13662280455,[],B0FFIK1LYB
[],艺园路107号,[],广东省,[],"{'cost': [], 'rating': []}",[],深圳市,医疗保健服务;诊所;诊所,"[{'title': [], 'url': 'http://store.is.autonavi.com/showpic/cda58f153f1caa1605cdd6ee43622dd5'}, {'title': [], 'url': 'http://store.is.autonavi.com/showpic/5628a475a3102670a366ac96'}, {'title': [], 'url': 'http://store.is.autonavi.com/showpic/8a5f9d6ed82ea2e6e147e47f257fc3f4'}]",090300,2,[],[],南山区,伟德诊所,"113.927664,22.548055",0755-26441990,[],B02F37U1ZA
[],吓岗一村银威路38号,[],广东省,[],"{'cost': [], 'rating': []}",[],深圳市,医疗保健服务;诊所;诊所,"[{'title': [], 'url': 'http://store.is.autonavi.com/showpic/9d7fe9755f8f4518abef7d05b86aa93d'}, {'title': [], 'url': 'http://s-pic.oss-cn-beijing.aliyuncs.com/desensitize/deep/images/publish/c79885d8d3874fb4ddd877652a1f359b.jpg'}, {'title': [], 'url': 'http://store.is.autonavi.com/showpic/f6e992ac12c92922107aafcaa196de52'}]",090300,2,[],[],龙岗区,南联诊所,"114.265943,22.718577",18098999946,[],B0FFKRJJFU
[],光雅园一巷与光雅园五巷交叉口西北180米,[],广东省,[],"{'cost': [], 'rating': []}",[],深圳市,医疗保健服务;诊所;诊所,"[{'title': [], 'url': 'http://store.is.autonavi.com/showpic/5a9748ae49938f0c3e1623f2b83440ec'}]",090300,2,[],[],龙岗区,深圳逸康诊所,"114.064551,22.618902",18727861475,[],B0KDCBLG3M
[],福永街道福永社区一队七巷1号,[],广东省,[],"{'cost': [], 'rating': []}",[],深圳市,医疗保健服务;诊所;诊所,"[{'title': [], 'url': 'http://store.is.autonavi.com/showpic/aba85e152d974489a251c368fe9fe809'}, {'title': [], 'url': 'http://store.is.autonavi.com/showpic/777dcb5a97484893ab5b8f7d3d3b8d29'}, {'title': [], 'url': 'http://store.is.autonavi.com/showpic/a0823149d3ded3e59d41cc9974f10c79'}]",090300,2,[],[],宝安区,深圳新福诊所,"113.810882,22.671970",0755-23128733;15999662001,[],B0FFIL8TZF
[],沙井街道步涌社区村前大道81号,[],广东省,[],"{'cost': [], 'rating': []}",[],深圳市,医疗保健服务;诊所;诊所,"[{'title': [], 'url': 'http://store.is.autonavi.com/showpic/237c89f11e6aaafbed3db36048707060'}, {'title': [], 'url': 'http://store.is.autonavi.com/showpic/8a22e05d61469ef323c4cdd746b23a9b'}, {'title': [], 'url': 'http://s-pic.oss-cn-beijing.aliyuncs.com/desensitize/deep/images/publish/d1be873070248fc6f04d0797ea701cb6.jpg'}]",090300,2,[],[],宝安区,深圳王召诊所,"113.813829,22.754971",13922818511,[],B0FFKPVRC6
[],油松综合市场19-1,[],广东省,[],"{'cost': [], 'rating': []}",[],深圳市,医疗保健服务;诊所;诊所,"[{'title': [], 'url': 'http://store.is.autonavi.com/showpic/209233363f2086d7fdfcef58ee1a8fa4'}, {'title': [], 'url': 'http://s-pic.oss-cn-beijing.aliyuncs.com/desensitize/deep/images/publish/3225dc158710a0aba93a4ffe947eed71.jpg'}, {'title': [], 'url': 'http://store.is.autonavi.com/showpic/55ba137ba310989dd8c131ef'}]",090300,2,[],[],龙华区,深圳松如诊所,"114.044237,22.637827",13714076708,[],B02F38SWJ3
B0FFH0YJ87,龙华街道金龙华广场2号A26,[],广东省,[],"{'cost': [], 'rating': []}",[],深圳市,医疗保健服务;诊所;诊所,"[{'title': [], 'url': 'http://s-pic.oss-cn-beijing.aliyuncs.com/desensitize/deep/images/publish/ac43ffa059e8a96890c41ebaa19b45a6.jpg'}, {'title': [], 'url': 'http://s-pic.oss-cn-beijing.aliyuncs.com/desensitize/deep/images/publish/58ef45d4cb257aeed33559ad4c0625c2.jpg'}, {'title': [], 'url': 'http://store.is.autonavi.com/showpic/b35a9fe3d1a6ae4854de9d74ed29f0ea'}]",090300,2,[],202,龙华区,深圳陈小芳诊所,"114.017565,22.662274",18676225710,[],B0FFLDM24S
[],五和大道与长康路交叉口北180米,[],广东省,[],"{'cost': [], 'rating': []}",[],深圳市,医疗保健服务;诊所;诊所,"[{'title': [], 'url': 'http://store.is.autonavi.com/showpic/12e81ff283ee2a02c4194c1ab122aa7e'}, {'title': [], 'url': 'http://s-pic.oss-cn-beijing.aliyuncs.com/desensitize/images/publish/c867ef6d453a9057ad640d390be431d7.jpg'}]",090300,2,[],[],龙华区,深圳科科诊所,"114.077069,22.688315",13316567990,[],B0FFKAVVC6
[],爱尚路4-29(爱联地铁站出入口步行350米),[],广东省,[],"{'cost': [], 'rating': []}",[],深圳市,医疗保健服务;诊所;诊所,"[{'title': [], 'url': 'http://store.is.autonavi.com/showpic/7c1c9759fe6c1e997ad754726da4b5e1'}, {'title': [], 'url': 'http://store.is.autonavi.com/showpic/3709a7ce0455fd90016177d20cc8f199'}, {'title': [], 'url': 'https://aos-comment.amap.com/B0I6CULP65/headerImg/c4abbc4eecedb5c36ab10408113a426f_2048_2048_80.jpg'}]",090300,2,[],[],龙岗区,深圳天竹和堂中医诊所,"114.232426,22.699442",[],[],B0I6CULP65
B02F38JL4D,油松路158-5,[],广东省,[],"{'cost': [], 'rating': []}",[],深圳市,医疗保健服务;诊所;诊所,"[{'title': [], 'url': 'http://store.is.autonavi.com/showpic/5c9f1c93dc43d5e22be78725c39d8658'}, {'title': [], 'url': 'http://store.is.autonavi.com/showpic/e5da7d0b0433456d783e50a46d7e0de6'}]",090300,2,[],202,龙华区,深圳发康诊所,"114.047023,22.646164",18671650428,[],B0FFLHYYPU
B0FFF4H699,龙城街道黄阁坑社区大运路荣超新成大厦120号(商业推广名荣超金融大厦),[],广东省,[],"{'cost': [], 'rating': []}",[],深圳市,医疗保健服务;诊所;诊所,"[{'title': [], 'url': 'http://store.is.autonavi.com/showpic/f16c3e7898bb5b2708c9f52ee43a8dcd'}, {'title': [], 'url': 'http://store.is.autonavi.com/showpic/aa9c8b8360214e3aec14b768759d5c48'}, {'title': [], 'url': 'http://store.is.autonavi.com/showpic/2b50dd8c9285de2f4672916a27339e41'}]",090300,2,[],202,龙岗区,深圳明道中医(综合)诊所,"114.215235,22.705139",18923408803,[],B0J0YMKFZP
[],梅林路154-35号(梅景地铁站C口步行60米),[],广东省,[],"{'cost': [], 'rating': []}",[],深圳市,医疗保健服务;诊所;诊所,"[{'title': [], 'url': 'http://store.is.autonavi.com/showpic/ccec5768df3ef313e632a102797c81b2'}, {'title': [], 'url': 'http://store.is.autonavi.com/showpic/a94002f2f062356fb47fcb39c40e0b47'}, {'title': [], 'url': 'http://s-pic.oss-cn-beijing.aliyuncs.com/desensitize/deep/images/publish/14655885e2dadde11c16fea8784a2b2a.jpg'}]",090300,2,[],[],福田区,正曲中医诊所,"114.037577,22.561934",0755-88609525,[],B0H6YZ89TC
[],共和工业路与宝安大道交叉口东北150米固戍红湾新村三区三巷号,[],广东省,[],"{'cost': [], 'rating': []}",[],深圳市,医疗保健服务;诊所;诊所,"[{'title': [], 'url': 'http://store.is.autonavi.com/showpic/87778a10ad39a15f87ff2f3dfcc9819e'}, {'title': [], 'url': 'http://store.is.autonavi.com/showpic/cff87d7d5e410ea3e82c84f03f9219e7'}, {'title': [], 'url': 'http://s-pic.oss-cn-beijing.aliyuncs.com/desensitize/deep/images/publish/5999278d8cf71ae47801bccae7cc5478.jpg'}]",090300,2,[],[],宝安区,深圳健福堂诊所,"113.852721,22.593254",15118114781,[],B0FFJ3JUTG
[],福祥街140号,[],广东省,[],"{'cost': [], 'rating': []}",[],深圳市,医疗保健服务;诊所;诊所,"[{'title': [], 'url': 'http://store.is.autonavi.com/showpic/47c11e56f999f80e4c66b900d97c0cfc'}, {'title': [], 'url': 'http://store.is.autonavi.com/showpic/263ccac57fa363ad84e0eccf6bf437a2'}]",090300,2,[],[],福田区,深圳郭静华诊所,"114.079277,22.535030",0755-83333367,[],B02F309VK7
[],鹤洲路与鹤洲八路交叉口北40米,[],广东省,[],"{'cost': [], 'rating': []}",[],深圳市,医疗保健服务;诊所;诊所,"[{'title': [], 'url': 'http://store.is.autonavi.com/showpic/b8f400571705e4f40268484eb5dbc851'}]",090300,2,[],[],宝安区,深圳鹤州一诊所,"113.861522,22.627122",[],[],B0J3M5IOKI
[],西田路110-2号,[],广东省,[],"{'cost': [], 'rating': []}",[],深圳市,医疗保健服务;诊所;诊所,"[{'title': [], 'url': 'http://store.is.autonavi.com/showpic/e87709d97705ade9dc456edc05cf8cf4'}, {'title': [], 'url': 'http://store.is.autonavi.com/showpic/aed82bc74e1791cbe903d0d5c2751923'}, {'title': [], 'url': 'http://store.is.autonavi.com/showpic/6514670754a301e130ac95fb3ae59ed8'}]",090300,2,[],[],光明区,深圳陈兰红诊所,"113.906320,22.807321",[],[],B0I0U62Y6S
[],鹤洲路与鹤洲八路交叉口北40米,[],广东省,[],"{'cost': [], 'rating': []}",[],深圳市,医疗保健服务;诊所;诊所,"[{'title': [], 'url': 'http://store.is.autonavi.com/showpic/b8f400571705e4f40268484eb5dbc851'}]",090300,2,[],[],宝安区,深圳鹤州一诊所,"113.861522,22.627122",[],[],B0J3M5IOKI
[],西田路110-2号,[],广东省,[],"{'cost': [], 'rating': []}",[],深圳市,医疗保健服务;诊所;诊所,"[{'title': [], 'url': 'http://store.is.autonavi.com/showpic/e87709d97705ade9dc456edc05cf8cf4'}, {'title': [], 'url': 'http://store.is.autonavi.com/showpic/aed82bc74e1791cbe903d0d5c2751923'}, {'title': [], 'url': 'http://store.is.autonavi.com/showpic/6514670754a301e130ac95fb3ae59ed8'}]",090300,2,[],[],光明区,深圳陈兰红诊所,"113.906320,22.807321",[],[],B0I0U62Y6S
[],燕罗街道燕川社区塘尾新村一巷8号红湖路84号,[],广东省,[],"{'cost': [], 'rating': []}",[],深圳市,医疗保健服务;诊所;诊所,"[{'title': [], 'url': 'http://store.is.autonavi.com/showpic/44504b3cacbd6b5c164c2517cde0f153'}, {'title': [], 'url': 'http://store.is.autonavi.com/showpic/757de2dd5f30b4da83e71af83ad704eb'}, {'title': [], 'url': 'http://store.is.autonavi.com/showpic/6da74e6e9ed78638d4bffeea7aa69408'}]",090300,2,[],[],宝安区,深圳济邦诊所,"113.864198,22.805358",18688739260,[],B0K615OCOE
B0FFHK7HRV,中心路3019号君尚3019 F4层,[],广东省,[],"{'cost': [], 'rating': []}",[],深圳市,医疗保健服务;诊所;诊所,"[{'title': [], 'url': 'http://store.is.autonavi.com/showpic/d8c75283da5ebfcb16749ad822d06bf9'}]",090300,2,[],202,南山区,深圳星和诊所,"113.940801,22.506532",[],[],B0JRPLTMIO
[],华霆路204-206,[],广东省,[],"{'cost': [], 'rating': []}",[],深圳市,医疗保健服务;诊所;诊所,"[{'title': [], 'url': 'http://store.is.autonavi.com/showpic/173469fa0259524cce43e6739ecdddef'}, {'title': [], 'url': 'http://s-pic.oss-cn-beijing.aliyuncs.com/desensitize/deep/images/publish/a009a0954867c8f14fac2de9e284fbcf.jpg'}, {'title': [], 'url': 'http://s-pic.oss-cn-beijing.aliyuncs.com/desensitize/deep/images/publish/8a30d7fe36f6d6a62fb07114ca389db0.jpg'}]",090300,2,[],[],龙华区,深圳一康诊所,"113.999269,22.684574",[],[],B0I3RAVC01
[],西丽街道新光路63-2号,[],广东省,[],"{'cost': [], 'rating': []}",[],深圳市,医疗保健服务;诊所;诊所,"[{'title': [], 'url': 'https://aos-comment.amap.com/B0I33HT52S/headerImg/d04cd5572a000e9c43fc0ceba2fc9c35_2048_2048_80.jpg'}, {'title': [], 'url': 'http://store.is.autonavi.com/showpic/871d08e0226c98c93a0d3a7b39e93161'}, {'title': [], 'url': 'http://store.is.autonavi.com/showpic/a00526527ebc4d2303deda6c06889944'}]",090300,2,[],[],南山区,深圳杏德诊所,"113.951886,22.575949",13823196632,[],B0I33HT52S
[],沙井辛居路2号,[],广东省,[],"{'cost': [], 'rating': []}",[],深圳市,医疗保健服务;诊所;诊所,"[{'title': [], 'url': 'https://aos-comment.amap.com/B0FFJGYOVB/headerImg/1d15b32a88ff0fbce911315f97b7992f_2048_2048_80.jpg'}, {'title': [], 'url': 'http://store.is.autonavi.com/showpic/5d650448709301ef7ab572aa5740154b'}]",090300,2,[],[],宝安区,深圳何琼诊所,"113.811601,22.737686",13590449075,[],B0FFJGYOVB
[],福海街道新田社区凤塘大道11-1号,[],广东省,[],"{'cost': [], 'rating': []}",[],深圳市,医疗保健服务;诊所;诊所,"[{'title': [], 'url': 'http://store.is.autonavi.com/showpic/d42eb4f6914d47750aad8197d2ee304b'}, {'title': [], 'url': 'http://store.is.autonavi.com/showpic/4d5212ad53b6c779fb85444ebe728a20'}]",090300,2,[],[],宝安区,深圳庆扬诊所,"113.831409,22.693711",[],[],B0JRZL3MMI
[],沙井万丰村万安路232号,[],广东省,[],"{'cost': [], 'rating': []}",[],深圳市,医疗保健服务;诊所;诊所,"[{'title': [], 'url': 'http://store.is.autonavi.com/showpic/b6c17526e454741426a1a0a8b43b9e94'}, {'title': [], 'url': 'http://store.is.autonavi.com/showpic/947db5e60f9a11f870764cc435b0893a'}]",090300,2,[],[],宝安区,深圳星源诊所,"113.824018,22.725077",[],[],B0IGYZAKLJ
[],间头新村南门旁(固戍地铁站F口步行270米),[],广东省,[],"{'cost': [], 'rating': []}",[],深圳市,医疗保健服务;诊所;诊所,"[{'title': [], 'url': 'http://store.is.autonavi.com/showpic/32c295675d7b70d01f0cc66620644d25'}]",090300,2,[],[],宝安区,深圳仁医诊所,"113.844713,22.599937",[],[],B0IGG918O2
[],公明街道集美路38号105,[],广东省,[],"{'cost': [], 'rating': []}",[],深圳市,医疗保健服务;诊所;诊所,"[{'title': [], 'url': 'http://store.is.autonavi.com/showpic/f99e717684586528245069d5253ffb8a'}, {'title': [], 'url': 'http://store.is.autonavi.com/showpic/5c639ee89f17d3845d09e3713d646b08'}]",090300,2,[],[],光明区,深圳一通中医诊所,"113.891981,22.783987",15338702380,[],B0IK47SDZ7
[],裕安一路3016-84号,[],广东省,[],"{'cost': [], 'rating': []}",[],深圳市,医疗保健服务;诊所;诊所,"[{'title': [], 'url': 'http://store.is.autonavi.com/showpic/8d3af0f0fde2b926c54cb35bbb77d24b'}]",090300,2,[],[],宝安区,圣达诊所,"113.887877,22.559200",13113867542,[],B0JKL73ZD2
[],园山街道保安社区简背路54号,[],广东省,[],"{'cost': [], 'rating': []}",[],深圳市,医疗保健服务;诊所;诊所,"[{'title': [], 'url': 'http://store.is.autonavi.com/showpic/26cc1a210d6c477a8d397c9f0fde7bb3'}, {'title': [], 'url': 'http://store.is.autonavi.com/showpic/0864b38bd43845b1891ecfc64f378e18'}, {'title': [], 'url': 'http://store.is.autonavi.com/showpic/2fcc37f8f3e1ba3c5da08015f8385ac9'}]",090300,2,[],[],龙岗区,简龙诊所,"114.245275,22.663301",13802205792,[],B0FFJYKKOP
[],尚景社区城园路1号(尚景地铁站A口步行330米),[],广东省,[],"{'cost': [], 'rating': []}",[],深圳市,医疗保健服务;诊所;诊所,"[{'title': [], 'url': 'https://aos-comment.amap.com/B0JDKD5U8C/headerImg/d5b83b6fa2ebf56467cbe893c171faa2_2048_2048_80.jpg'}, {'title': [], 'url': 'http://store.is.autonavi.com/showpic/7024a61606149a63a90720bcf1978143'}, {'title': [], 'url': 'http://s-pic.oss-cn-beijing.aliyuncs.com/desensitize/deep/images/publish/35d0b17a1c86937b67b24ad260ab9aea.jpg'}]",090300,2,[],[],龙岗区,颐生福中医诊所,"114.243421,22.727095",0755-84526229,[],B0JDKD5U8C
[],龙岭路66号,[],广东省,[],"{'cost': [], 'rating': []}",[],深圳市,医疗保健服务;诊所;诊所,"[{'title': [], 'url': 'http://store.is.autonavi.com/showpic/8fe6090c6607c7061a8a3167049c43af'}, {'title': [], 'url': 'http://store.is.autonavi.com/showpic/c01910b393caeaa2af77b240e662229d'}, {'title': [], 'url': 'http://s-pic.oss-cn-beijing.aliyuncs.com/desensitize/images/publish/e9388f87cd4e734718ef4c5f24638de9.jpg'}]",090300,2,[],[],龙岗区,深圳德心诊所,"114.114196,22.605057",15814632931,[],B0KR4HGXZS
[],上沙东村路与上沙东村二十一巷交叉口东南20米,[],广东省,[],"{'cost': [], 'rating': []}",[],深圳市,医疗保健服务;诊所;诊所,"[{'title': [], 'url': 'http://store.is.autonavi.com/showpic/5e6ff80c90d6811725889d6f60dbd040'}]",090300,2,[],[],福田区,深圳智恒诊所,"114.032996,22.520166",[],[],B0KG5N46GE
[],沙头街道下沙社区下沙村五坊公司楼3栋102号,[],广东省,[],"{'cost': [], 'rating': []}",[],深圳市,医疗保健服务;诊所;诊所|医疗保健服务;专科医院;专科医院,"[{'title': [], 'url': 'http://store.is.autonavi.com/showpic/ca2d53d83d8e2501d80b2f0e5333ed5e'}, {'title': [], 'url': 'http://store.is.autonavi.com/showpic/ffac96cd181f110594d5b46ace599ae9'}]",090300|090200,2,[],[],福田区,深圳福嘉诊所,"114.027626,22.525154",[],[],B0I6GSG0BZ
[],登高邨西北门旁(晒布地铁站B口步行80米),[],广东省,[],"{'cost': [], 'rating': []}",[],深圳市,医疗保健服务;专科医院;口腔医院,"[{'title': [], 'url': 'http://store.is.autonavi.com/showpic/7f1ca1c8acabe98267b42042f7cc9987'}, {'title': [], 'url': 'http://s-pic.oss-cn-beijing.aliyuncs.com/desensitize/deep/images/publish/d171d8f34d43a570987f6f74f446bfb7.jpg'}]",090202,2,[],[],罗湖区,深圳永正诊所,"114.123864,22.550623",0755-82233686,[],B0I2YUVLT1
[],东环二路57-向北140米,[],广东省,[],"{'cost': [], 'rating': []}",[],深圳市,医疗保健服务;诊所;诊所,"[{'title': [], 'url': 'http://store.is.autonavi.com/showpic/eb31d0355491d30110df26dcd5d61747'}, {'title': [], 'url': 'http://store.is.autonavi.com/showpic/3adc6a3695f42d2a5a839e959dfee6c6'}]",090300,2,[],[],龙华区,深圳吴迪诊所,"114.051525,22.642505",[],[],B0HUKM6EE8
[],金碧路42号,[],广东省,[],"{'cost': [], 'rating': []}",[],深圳市,医疗保健服务;诊所;诊所,"[{'title': [], 'url': 'http://store.is.autonavi.com/showpic/4c582ce74561fb08df4a19b85a45f61e'}, {'title': [], 'url': 'http://store.is.autonavi.com/showpic/6b3ca7e24aad25dae24047eea8a095fc'}]",090300,2,[],[],坪山区,深圳锦云诊所,"114.333962,22.688761",0755-28466680,[],B0HU5RQSZ2
[],金碧路42号,[],广东省,[],"{'cost': [], 'rating': []}",[],深圳市,医疗保健服务;诊所;诊所,"[{'title': [], 'url': 'http://store.is.autonavi.com/showpic/4c582ce74561fb08df4a19b85a45f61e'}, {'title': [], 'url': 'http://store.is.autonavi.com/showpic/6b3ca7e24aad25dae24047eea8a095fc'}]",090300,2,[],[],坪山区,深圳锦云诊所,"114.333962,22.688761",0755-28466680,[],B0HU5RQSZ2
[],航城街道黄田社区兰花路西五巷6A101,[],广东省,[],"{'cost': [], 'rating': []}",[],深圳市,医疗保健服务;诊所;诊所,"[{'title': [], 'url': 'http://store.is.autonavi.com/showpic/21a5dd0c7ed0a79af2adaa6b3dcfd6ff'}]",090300,2,[],[],宝安区,深圳君诚诊所,"113.845018,22.628048",[],[],B0FFLGJZB9
[],上合路31区水口花园(上川地铁站J口步行470米),[],广东省,[],"{'cost': [], 'rating': []}",[],深圳市,医疗保健服务;诊所;诊所,"[{'title': [], 'url': 'http://store.is.autonavi.com/showpic/70f8f2bca583b9f63900c15737ac42b5'}]",090300,2,[],[],宝安区,深圳华瑞诊所,"113.900502,22.575563",[],[],B0FFK2TUPR
[],园湖路48号,[],广东省,[],"{'cost': [], 'rating': []}",[],深圳市,医疗保健服务;诊所;诊所,"[{'title': [], 'url': 'http://store.is.autonavi.com/showpic/14be4a6e8629dae30adce916118d353b'}]",090300,2,[],[],龙岗区,深圳冠桥诊所,"114.238643,22.678731",[],[],B0FFJ7UQ7I
[],歩涌社区共和大道28号,[],广东省,[],"{'cost': [], 'rating': []}",[],深圳市,医疗保健服务;诊所;诊所,"[{'title': [], 'url': 'http://store.is.autonavi.com/showpic/bad22fe41cb80153aa29d5341c4f079d'}]",090300,2,[],[],宝安区,深圳安德诊所,"113.807719,22.751854",[],[],B0FFJ0MRDY
[],龙华街道龙园社区和平西路青年城邦园1栋街铺136-137号,[],广东省,[],"{'cost': [], 'rating': []}",[],深圳市,医疗保健服务;诊所;诊所,"[{'title': [], 'url': 'http://s-pic.oss-cn-beijing.aliyuncs.com/desensitize/deep/images/publish/e987a897461df05623b12e14ef79795f.jpg'}, {'title': [], 'url': 'http://store.is.autonavi.com/showpic/f48485343b3057c584915a749d5aa0e5'}, {'title': [], 'url': 'http://store.is.autonavi.com/showpic/22b62aec73a0e7658ae4bde89f88dfdd'}]",090300,2,[],[],龙华区,妙正堂中医诊所(龙华地铁站店),"114.021629,22.651389",18123689609,[],B0H37UBQMT
[],长吉路55-1号,[],广东省,[],"{'cost': [], 'rating': []}",[],深圳市,医疗保健服务;诊所;诊所,"[{'title': [], 'url': 'http://store.is.autonavi.com/showpic/8480f8b2ad3e777ff8b2cfddbf356e3f'}, {'title': [], 'url': 'http://store.is.autonavi.com/showpic/7e631fa0e7c8ef684918d9165a8c8dc3'}, {'title': [], 'url': 'http://store.is.autonavi.com/showpic/8fbcce8b689116d88f175a0cdb100d46'}]",090300,2,[],[],龙岗区,深圳张仙宝诊所,"114.116623,22.611094",[],[],B02F38KTR3
B02F38JO9M,和一一路和阁大厦,[],广东省,[],"{'cost': [], 'rating': []}",[],深圳市,医疗保健服务;诊所;诊所,"[{'title': [], 'url': 'http://store.is.autonavi.com/showpic/803e242a8fe9b6966ec0c85e4968f81f'}]",090300,2,[],202,宝安区,深圳夏云诊所,"113.789762,22.715086",18948729616,[],B0HK3DJUZF
[],德馨街北头村,[],广东省,[],"{'cost': [], 'rating': []}",[],深圳市,医疗保健服务;诊所;诊所,"[{'title': [], 'url': 'http://store.is.autonavi.com/showpic/474e93fc532f2636b591b43138cb5b8b'}]",090300,2,[],[],南山区,深圳红卫诊所,"113.916371,22.519773",[],[],B0HAJD59GN
[],岗厦东一街岗厦村(岗厦地铁站A口步行460米),[],广东省,[],"{'cost': [], 'rating': []}",[],深圳市,医疗保健服务;诊所;诊所,"[{'title': [], 'url': 'http://store.is.autonavi.com/showpic/ad32af3305415f35022aaad35b2c6bad'}]",090300,2,[],[],福田区,深圳华文诊所,"114.070515,22.537596",[],[],B0FFLNNPYU
[],民主村三间仔街17-1,[],广东省,[],"{'cost': [], 'rating': []}",[],深圳市,医疗保健服务;诊所;诊所,"[{'title': [], 'url': 'http://store.is.autonavi.com/showpic/18a17a261a070d37f3322dcd95feac43'}]",090300,2,[],[],宝安区,深圳成强诊所,"113.784612,22.728251",15768407584,[],B0FFL7QREP
[],梅华支路与梅丽路交叉口西南约40米,[],广东省,[],"{'cost': [], 'rating': []}",[],深圳市,医疗保健服务;诊所;诊所,"[{'title': [], 'url': 'http://store.is.autonavi.com/showpic/bbcbcb48890656119845b11f7b4b03ac'}]",090300,2,[],[],福田区,桂方诊所,"114.041547,22.562591",[],[],B0I6PSCP91
[],横岗镇六约大和路1号,[],广东省,[],"{'cost': [], 'rating': []}",[],深圳市,医疗保健服务;诊所;诊所,"[{'title': [], 'url': 'http://s-pic.oss-cn-beijing.aliyuncs.com/desensitize/deep/images/publish/ed68117835e2b4887fcb92578269f926.jpg'}, {'title': [], 'url': 'http://store.is.autonavi.com/showpic/5caf7f85f70b783a588b1cc181a8b9da'}]",090300,2,[],[],龙岗区,深圳李双明西医内科诊所,"114.191612,22.632479",0755-28663668,[],B0FFFTPVPI
[],深圳龙澜中医诊所西南侧,[],广东省,[],"{'cost': [], 'rating': []}",[],深圳市,医疗保健服务;诊所;诊所,"[{'title': [], 'url': 'http://store.is.autonavi.com/showpic/f35647294c9a22e60ef55e17bd1138c5'}]",090300,2,[],[],龙华区,深圳龙润诊所,"114.016781,22.727500",[],[],B0JAUYSI9R
[],桂花路106-3号,[],广东省,[],"{'cost': [], 'rating': []}",[],深圳市,医疗保健服务;诊所;诊所,"[{'title': [], 'url': 'http://store.is.autonavi.com/showpic/8081da370e0b2472546da4af590a7af8'}, {'title': [], 'url': 'http://store.is.autonavi.com/showpic/4e1a905f53b77d03b10e02b0f8201258'}, {'title': [], 'url': 'http://store.is.autonavi.com/showpic/3add2131b3c4976c1849c731a4c4ab72'}]",090300,2,[],[],龙岗区,深圳厦村诊所,"114.164893,22.610109",18823344278,[],B0FFM7BWF5
[],四联路156号,[],广东省,[],"{'cost': [], 'rating': []}",[],深圳市,医疗保健服务;诊所;诊所|医疗保健服务;专科医院;专科医院,"[{'title': [], 'url': 'http://store.is.autonavi.com/showpic/c4cc1d393b8254a34340d9a45a060db8'}, {'title': [], 'url': 'http://store.is.autonavi.com/showpic/db35c4604944b79d0621c7c5b125019a'}, {'title': [], 'url': 'http://store.is.autonavi.com/showpic/3ab2b35cd35900256c3a1b638afa6799'}]",090300|090200,2,[],[],龙岗区,张进升诊所,"114.200061,22.650184",13410266161,[],B0FFLIRLY4
[],赤石岗小区448号一楼,[],广东省,[],"{'cost': [], 'rating': []}",[],深圳市,医疗保健服务;诊所;诊所,"[{'title': [], 'url': 'http://store.is.autonavi.com/showpic/86d489c79ba017c38fa01814ca376eb7'}, {'title': [], 'url': 'http://store.is.autonavi.com/showpic/33df17193649872ee9fd7197a44fadf1'}, {'title': [], 'url': 'http://s-pic.oss-cn-beijing.aliyuncs.com/desensitize/deep/images/publish/5bf523ffb01f80b50b69515704215872.jpg'}]",090300,2,[],[],龙岗区,深圳刘贵锋诊所,"114.295629,22.726338",13662620928,[],B0FFFZRR3T
[],井湾村三巷12-1号,[],广东省,[],"{'cost': [], 'rating': []}",[],深圳市,医疗保健服务;专科医院;专科医院|医疗保健服务;诊所;诊所,"[{'title': [], 'url': 'http://s-pic.oss-cn-beijing.aliyuncs.com/desensitize/deep/images/publish/56155986c566996f653ac1048e864a35.jpg'}, {'title': [], 'url': 'https://aos-comment.amap.com/B02F38PEZO/headerImg/eec5f901c86fc4eccbc1ba9f639c5a42_2048_2048_80.jpg'}, {'title': [], 'url': 'http://s-pic.oss-cn-beijing.aliyuncs.com/desensitize/deep/images/publish/4b30377cf46153f71098f1ebc0fc3eb2.jpg'}]",090200|090300,2,[],[],宝安区,深圳古从全诊所,"113.838828,22.592240",15915258335,[],B02F38PEZO
[],车公庙泰然四路118号泰康轩二楼,[],广东省,[],"{'cost': [], 'rating': '4.7'}",[],深圳市,医疗保健服务;诊所;诊所,"[{'title': [], 'url': 'https://aos-comment.amap.com/B02F38SYQV/headerImg/aa41242469f9d5a5f544124cedb239f5_2048_2048_80.jpg'}, {'title': [], 'url': 'https://aos-comment.amap.com/B02F38SYQV/headerImg/2ba17bc738f1ff38df090250a50dfd5b_2048_2048_80.jpg'}, {'title': [], 'url': 'http://store.is.autonavi.com/showpic/1c0364602ed35740872357078476b6d0'}]",090300,2,[],[],福田区,深圳任医生中医(综合)诊所,"114.025638,22.533624",0755-85583978,[],B02F38SYQV
[],梅龙大道二区113栋,[],广东省,[],"{'cost': [], 'rating': []}",[],深圳市,医疗保健服务;诊所;诊所,"[{'title': [], 'url': 'http://store.is.autonavi.com/showpic/47d89397b562c3e2d29e9e9e46e500dc'}]",090300,2,[],[],龙华区,中医内科诊所,"114.035437,22.617612",[],[],B0FFGHR06N
[],坂田街道坂田社区长坑路东四巷1号,[],广东省,[],"{'cost': [], 'rating': []}",[],深圳市,医疗保健服务;诊所;诊所,"[{'title': [], 'url': 'http://store.is.autonavi.com/showpic/9719ce84a41e8c52d058d4204b3759af'}, {'title': [], 'url': 'http://s-pic.oss-cn-beijing.aliyuncs.com/desensitize/deep/images/publish/6b9c8f8a189670e499fe62c88fa1aca8.jpg'}, {'title': [], 'url': 'http://store.is.autonavi.com/showpic/066257967e8a196550b919e15625039a'}]",090300,2,[],[],龙岗区,深圳鑫惠康诊所,"114.063266,22.631568",15946931682;18128877150,[],B0J0VA09FK
B02F37UBO6,国际科技大厦2205(华强路地铁站C口步行60米),[],广东省,[],"{'cost': [], 'rating': []}",[],深圳市,医疗保健服务;诊所;诊所,"[{'title': [], 'url': 'http://store.is.autonavi.com/showpic/0f7208b0d19346e685b7ba7bd0812fdf'}, {'title': [], 'url': 'http://store.is.autonavi.com/showpic/c779c220382d34a2d261bf78cab79f5d'}]",090300,2,[],202,福田区,深圳鸣鹿中医诊所,"114.083451,22.539654",[],[],B0GKYRLO3W
[],新安街道文汇社区宝民一路鸿景园286-36号,[],广东省,[],"{'cost': [], 'rating': []}",[],深圳市,医疗保健服务;诊所;诊所,"[{'title': [], 'url': 'http://store.is.autonavi.com/showpic/4a845bc0cb4bbb08b5c214511fe6fd2d'}, {'title': [], 'url': 'http://store.is.autonavi.com/showpic/47af98fa77b153d19f2aa8fa4e60e9eb'}, {'title': [], 'url': 'http://store.is.autonavi.com/showpic/35d682507d03ff19422cf45b77307c57'}]",090300,2,[],[],宝安区,深圳振德堂诊所,"113.889708,22.574428",[],[],B0JDR5ILPN
[],航城街道三围社区三围北三巷15-2号,[],广东省,[],"{'cost': [], 'rating': []}",[],深圳市,医疗保健服务;诊所;诊所,"[{'title': [], 'url': 'http://store.is.autonavi.com/showpic/39f36280ad9f9fe3c847dd83d71a9d7a'}]",090300,2,[],[],宝安区,深华中医(综合)诊所,"113.842320,22.614274",13714808408,[],B0GK0AAE2K
[],莲塘七巷73号(莲塘地铁站D口步行200米),[],广东省,[],"{'cost': [], 'rating': []}",[],深圳市,医疗保健服务;诊所;诊所,"[{'title': [], 'url': 'http://store.is.autonavi.com/showpic/a7910bb733651850916955b48778fd14'}, {'title': [], 'url': 'http://store.is.autonavi.com/showpic/55624aec8cea12d5addef10f1526340d'}, {'title': [], 'url': 'http://store.is.autonavi.com/showpic/89bddcebac8f0b2460d1ac8bf4d13a0b'}]",090300,2,[],[],罗湖区,付国安诊所,"114.172764,22.563599",[],[],B0FFK8WX09
[],同心路85-1号,[],广东省,[],"{'cost': [], 'rating': []}",[],深圳市,医疗保健服务;诊所;诊所,"[{'title': [], 'url': 'http://store.is.autonavi.com/showpic/4553d9437154ef39c9034cc184a16d32'}]",090300,2,[],[],龙岗区,赵娜诊所,"114.318836,22.722388",[],[],B0FFK0N6AX
[],民乐一区61栋,[],广东省,[],"{'cost': [], 'rating': []}",[],深圳市,医疗保健服务;诊所;诊所,"[{'title': [], 'url': 'http://store.is.autonavi.com/showpic/b4291d2dd003d3b8023e91ec9fba1e76'}]",090300,2,[],[],龙华区,深圳康众诊所,"114.053938,22.598986",[],[],B0J1OAGQBX
[],坂雪岗大道4001-5号,[],广东省,[],"{'cost': [], 'rating': []}",[],深圳市,医疗保健服务;诊所;诊所,"[{'title': [], 'url': 'http://store.is.autonavi.com/showpic/e8d30f596bc970dbb10d7dbbb448f113'}, {'title': [], 'url': 'http://store.is.autonavi.com/showpic/1175b0f4475e02a5e8f63d13bab6c337'}, {'title': [], 'url': 'http://store.is.autonavi.com/showpic/7347d5b4539ebd28eed9b9526ccc263b'}]",090300,2,[],[],龙岗区,深圳惠兰诊所,"114.065843,22.645251",[],[],B0I11Z87ME
[],西丽街道西丽社区新源工业厂区23栋新光路121-3,[],广东省,[],"{'cost': [], 'rating': []}",[],深圳市,医疗保健服务;诊所;诊所,"[{'title': [], 'url': 'http://s-pic.oss-cn-beijing.aliyuncs.com/desensitize/deep/images/publish/b3affda2b921c7d167491c1523c65a32.jpg'}, {'title': [], 'url': 'http://s-pic.oss-cn-beijing.aliyuncs.com/desensitize/deep/images/publish/95064f627cc969d3f6546b8a1fe77fb6.jpg'}, {'title': [], 'url': 'http://store.is.autonavi.com/showpic/d97a311e3203e9e8bff879144da28820'}]",090300,2,[],[],南山区,深圳连康诊所,"113.952796,22.576991",[],[],B0I0ZSAUVS
[],民乐工业区内,[],广东省,[],"{'cost': [], 'rating': []}",[],深圳市,医疗保健服务;诊所;诊所,"[{'title': [], 'url': 'http://s-pic.oss-cn-beijing.aliyuncs.com/desensitize/images/publish/cf582127e8128acc07d2734592d211fe.jpg'}, {'title': [], 'url': 'http://store.is.autonavi.com/showpic/d03b51976b9d8914d4604a71cc765c5b'}]",090300,2,[],[],龙华区,深圳佳心诊所,"114.059984,22.601343",[],[],B0HD9513YU
[],裕和南路与新村路交叉口东南40米,[],广东省,[],"{'cost': [], 'rating': []}",[],深圳市,医疗保健服务;诊所;诊所,"[{'title': [], 'url': 'http://store.is.autonavi.com/showpic/d21af90c84389ebf6fc078604f01ece0'}]",090300,2,[],[],龙岗区,深圳众胜诊所,"114.133352,22.693823",[],[],B0GRD5IIAY
[],大浪街道浪口社区9区143号102,[],广东省,[],"{'cost': [], 'rating': []}",[],深圳市,医疗保健服务;诊所;诊所,"[{'title': [], 'url': 'http://store.is.autonavi.com/showpic/fe18b4941c880e7ecd1fda7ffcd27506'}, {'title': [], 'url': 'http://store.is.autonavi.com/showpic/0588c876e7457a262bc49e7584d525b4'}]",090300,2,[],[],龙华区,深圳瀚阳诊所,"114.006302,22.676720",13973971380,[],B0G3OZAUJA
[],大磡商业街与王京坑路交叉口东北140米,[],广东省,[],"{'cost': [], 'rating': []}",[],深圳市,医疗保健服务;诊所;诊所,"[{'title': [], 'url': 'http://s-pic.oss-cn-beijing.aliyuncs.com/desensitize/images/publish/61670213.jpg?x-oss-process=image/watermark,image_d2F0ZXJtYXJrLmpwZw'}]",090300,2,[],[],南山区,深圳连丰诊所,"113.976227,22.621049",[],[],B0FFM7HORR
[],吉祥路346号,[],广东省,[],"{'cost': [], 'rating': []}",[],深圳市,医疗保健服务;诊所;诊所,"[{'title': [], 'url': 'http://store.is.autonavi.com/showpic/4b0c24ad0f9cbfa697c58b0c00e0de3f'}, {'title': [], 'url': 'http://store.is.autonavi.com/showpic/46c3179bb21122a68805efeeb4cf73c6'}, {'title': [], 'url': 'http://store.is.autonavi.com/showpic/ad96e842732ce5ff1bd0fa02c2e18d1c'}]",090300,2,[],[],龙岗区,深圳李敏诊所,"114.238836,22.717499",[],[],B0FFKIVUXM
[],福永街道兴围兴业路一街110号,[],广东省,[],"{'cost': [], 'rating': []}",[],深圳市,医疗保健服务;诊所;诊所,"[{'title': [], 'url': 'http://store.is.autonavi.com/showpic/6972a6e2aa75ac3fb011e8aa089622ea'}, {'title': [], 'url': 'http://store.is.autonavi.com/showpic/be9f222e8c951ecbb5aebf6c3dc4a75e'}, {'title': [], 'url': 'http://store.is.autonavi.com/showpic/3ac43051679264d9b90c2777d3ed64fd'}]",090300,2,[],[],宝安区,深圳宝瑞诊所,"113.830316,22.638404",[],[],B0FFJRUWTT
[],红星社区西坊一巷6号,[],广东省,[],"{'cost': [], 'rating': []}",[],深圳市,医疗保健服务;诊所;诊所,"[{'title': [], 'url': 'http://store.is.autonavi.com/showpic/e5c2b35bdf419ecac160b1a0f9f1e873'}]",090300,2,[],[],宝安区,深圳松康诊所,"113.840870,22.757653",13129571889,[],B0FFJD9AMQ
[],大浪永乐路鸿盛御景,[],广东省,[],"{'cost': [], 'rating': []}",[],深圳市,医疗保健服务;诊所;诊所,"[{'title': [], 'url': 'http://store.is.autonavi.com/showpic/adc418b66faee6448ce0dc116b34ea5f'}]",090300,2,[],[],龙华区,深圳凯滨诊所,"113.997235,22.694472",[],[],B0FFGSM8TY
[],岐龙一巷13-1-2,[],广东省,[],"{'cost': [], 'rating': []}",[],深圳市,医疗保健服务;诊所;诊所,"[{'title': [], 'url': 'http://store.is.autonavi.com/showpic/23eacb1115ea7932edef9358560f6785'}, {'title': [], 'url': 'http://store.is.autonavi.com/showpic/d4d3933e600a653db9453d8458feb296'}]",090300,2,[],[],龙岗区,深圳志益诊所,"114.107533,22.691080",18098934199,[],B0FFG1X1LB
[],南庄新村三巷2号,[],广东省,[],"{'cost': [], 'rating': []}",[],深圳市,医疗保健服务;诊所;诊所,"[{'title': [], 'url': 'http://store.is.autonavi.com/showpic/5e744049c60d4e19961ebfe2d2879ef7'}, {'title': [], 'url': 'http://store.is.autonavi.com/showpic/51cf9181f10f4b447b2b62e296e4f6da'}]",090300,2,[],[],光明区,深圳大伟诊所,"113.910148,22.772309",[],[],B0FFFRL837
[],华联社区墩背市场南区2号1楼,[],广东省,[],"{'cost': [], 'rating': []}",[],深圳市,医疗保健服务;诊所;诊所,"[{'title': [], 'url': 'https://aos-comment.amap.com/B0JD47JMKK/headerImg/9046e1e84451f31de79ee7e7ba670a08_2048_2048_80.jpg'}, {'title': [], 'url': 'https://aos-comment.amap.com/B0JD47JMKK/headerImg/232231df9e17d4bae47f341837583f94_2048_2048_80.jpg'}, {'title': [], 'url': 'https://aos-comment.amap.com/B0JD47JMKK/headerImg/357f0124a82a1504c9db29eb7e4f40a1_2048_2048_80.jpg'}]",090300,2,[],[],龙华区,深圳忠盛诊所,"114.016014,22.671434",[],[],B0JD47JMKK
[],观湖街道新田社区,[],广东省,[],"{'cost': [], 'rating': []}",[],深圳市,医疗保健服务;诊所;诊所,"[{'title': [], 'url': 'http://store.is.autonavi.com/showpic/4df3cab44f85657b73cb6440c91776f9'}]",090300,2,[],[],龙华区,深圳众爱诊所,"114.082863,22.703873",13424285106,[],B0GRTLH617
[],聚英一街与礼耕路交叉口西40米,[],广东省,[],"{'cost': [], 'rating': []}",[],深圳市,医疗保健服务;诊所;诊所,"[{'title': [], 'url': 'http://store.is.autonavi.com/showpic/cc5872844d6b5412ce7ebf65e801ae79'}]",090300,2,[],[],龙岗区,深圳聚英诊所,"114.186267,22.631189",[],[],B0GKS5LYSJ
[],上沙东村14巷,[],广东省,[],"{'cost': [], 'rating': []}",[],深圳市,医疗保健服务;诊所;诊所,"[{'title': [], 'url': 'http://store.is.autonavi.com/showpic/37f66b20c0f17a5fb8c326d9e1bef611'}, {'title': [], 'url': 'http://store.is.autonavi.com/showpic/6da7dd98971e7650ca0a5990ea53e8bd'}, {'title': [], 'url': 'http://store.is.autonavi.com/showpic/75730baed6dd632b3ab2a82e71a693ce'}]",090300,2,[],[],福田区,深圳唐唐诊所,"114.032880,22.521765",13410619166;13428664073,[],B0KDKHLYAG
[],布吉街道新龙路37号,[],广东省,[],"{'cost': [], 'rating': []}",[],深圳市,医疗保健服务;诊所;诊所,"[{'title': [], 'url': 'https://aos-comment.amap.com/B0JDJZDKVN/headerImg/45d3b580eb28a1c99d76e188e8116235_2048_2048_80.jpg'}, {'title': [], 'url': 'https://aos-comment.amap.com/B0JDJZDKVN/headerImg/9637a2652ecd8828a94df9d8425dc04d_2048_2048_80.jpg'}, {'title': [], 'url': 'https://aos-comment.amap.com/B0JDJZDKVN/headerImg/ab7022faa18be2ca6b06e98c083d19c5_2048_2048_80.jpg'}]",090300,2,[],[],龙岗区,深圳杨斌诊所,"114.116996,22.611720",[],[],B0JDJZDKVN
[],簕竹角,[],广东省,[],"{'cost': [], 'rating': '4.0'}",[],深圳市,生活服务;洗衣店;洗衣店,"[{'title': [], 'url': 'http://store.is.autonavi.com/showpic/0766f73d91ba56fa04a72f078033d723'}, {'title': [], 'url': 'http://store.is.autonavi.com/showpic/19122a4bc8d2346c1783b3627d16f817'}]",071500,1,[],[],宝安区,深圳福新诊所,"113.863437,22.657699",18926780171;18926790171,[],B0I1OHDSLN
[],承翰·慢城147号,[],广东省,[],"{'cost': [], 'rating': []}",[],深圳市,医疗保健服务;诊所;诊所,"[{'title': [], 'url': 'http://store.is.autonavi.com/showpic/73b262b3a09b8504d7ebb8f33fd6fb27'}, {'title': [], 'url': 'http://store.is.autonavi.com/showpic/a6ad4ef77e5661f32c4be71c20df9e45'}, {'title': [], 'url': 'http://store.is.autonavi.com/showpic/d690f241915f81fdfb79aaeb482d5559'}]",090300,2,[],[],龙岗区,深圳桂清诊所,"114.132639,22.623649",0755-84187239;13148754312,[],B0GKOY5XBG
B02F38TEBI,益田路6013号江苏大厦A座3503,[],广东省,[],"{'cost': [], 'rating': []}",[],深圳市,医疗保健服务;诊所;诊所,[],090300,2,[],202,福田区,深圳福棠诊所,"114.055575,22.545677",[],[],B0G3LDG8LH
[],广东省深圳市福田区皇岗新村140,[],广东省,[],"{'cost': [], 'rating': []}",[],深圳市,医疗保健服务;诊所;诊所,"[{'title': [], 'url': 'http://s-pic.oss-cn-beijing.aliyuncs.com/desensitize/deep/images/publish/0faddc3509f46a6d429925f6a8a3f520.jpg'}, {'title': [], 'url': 'http://store.is.autonavi.com/showpic/167d9cad87b1c314269b6f425f739a62'}]",090300,2,[],[],福田区,深圳康裕诊所,"114.059743,22.522866",0755-83835666,[],B0FFM55PJR
[],前海路泛海拉菲花园2期商铺110号,[],广东省,[],"{'cost': [], 'rating': []}",[],深圳市,医疗保健服务;诊所;诊所,"[{'title': [], 'url': 'http://store.is.autonavi.com/showpic/2b8476f0f540794549eacf58794f4cdc'}, {'title': [], 'url': 'http://store.is.autonavi.com/showpic/e0188142c612ce84cc2bb69c365a982c'}, {'title': [], 'url': 'http://store.is.autonavi.com/showpic/f00de0ff76ddc7e609dbb6a0c0981c2f'}]",090300,2,[],[],南山区,深圳和爱诊所,"113.892906,22.496062",13006670828,[],B0FFM2MHW1
[],南洞三区38-40号,[],广东省,[],"{'cost': [], 'rating': []}",[],深圳市,医疗保健服务;诊所;诊所,"[{'title': [], 'url': 'http://store.is.autonavi.com/showpic/27fcce8070f04bebcc67f7d9b8a03213'}, {'title': [], 'url': 'http://s-pic.oss-cn-beijing.aliyuncs.com/desensitize/deep/images/publish/08cdf8f8ccc2e92fc44121068701b3fd.jpg'}]",090300,2,[],[],宝安区,深圳弘仁诊所,"113.842801,22.712997",0755-23016509;13544188469,[],B0FFLGPFG9
[],大浪南路210号,[],广东省,[],"{'cost': [], 'rating': []}",[],深圳市,医疗保健服务;诊所;诊所,"[{'title': [], 'url': 'http://store.is.autonavi.com/showpic/c2a75b7095d2974fb37c6b04d6140e11'}, {'title': [], 'url': 'http://store.is.autonavi.com/showpic/ed0461a3a9c913e9d3341858fa5af0f2'}]",090300,2,[],[],龙华区,深圳凤华诊所,"114.017842,22.669370",[],[],B0FFKG05D9
B0FFHXDJ10,丹梓西路辅路招商花园18栋B座S1907号商铺,[],广东省,[],"{'cost': [], 'rating': []}",[],深圳市,医疗保健服务;诊所;诊所,"[{'title': [], 'url': 'http://store.is.autonavi.com/showpic/48b61ceee2ae2f53a70449a69e72dcc0'}]",090300,2,[],202,坪山区,深圳万春诊所,"114.343744,22.708848",[],[],B0FFK8UXTE
[],玉河北路与公明德兴路交叉口北140米,[],广东省,[],"{'cost': [], 'rating': []}",[],深圳市,医疗保健服务;诊所;诊所,"[{'title': [], 'url': 'http://store.is.autonavi.com/showpic/8a6364a0bd6ef59116f3c835e673f711'}, {'title': [], 'url': 'http://s-pic.oss-cn-beijing.aliyuncs.com/desensitize/deep/images/publish/d0a43b4da32375e7544c76b66ddf305f.jpg'}]",090300,2,[],[],光明区,深圳春云诊所,"113.899489,22.718973",[],[],B0FFIYHDBQ
[],南昌二队西十巷运昌路9号楼,[],广东省,[],"{'cost': [], 'rating': []}",[],深圳市,医疗保健服务;诊所;诊所,"[{'title': [], 'url': 'http://store.is.autonavi.com/showpic/de684bdc1022b9516da91bc0609bd93e'}, {'title': [], 'url': 'http://store.is.autonavi.com/showpic/ca83b2b4d213203bbf241fed9118d404'}, {'title': [], 'url': 'http://store.is.autonavi.com/showpic/2c9231e365b74744b86b0bc2f83e232d'}]",090300,2,[],[],宝安区,深圳敬伟诊所,"113.839755,22.601147",18038105516,[],B0FFIXSZR3
[],西乡街道渔业社区轻铁西花园十一巷三号,[],广东省,[],"{'cost': [], 'rating': []}",[],深圳市,医疗保健服务;诊所;诊所,"[{'title': [], 'url': 'http://store.is.autonavi.com/showpic/29ea2bfaa868445f14047c07395da723'}, {'title': [], 'url': 'http://store.is.autonavi.com/showpic/b49e6c1ae36d4ed92ec8bce4484a5039'}]",090300,2,[],[],宝安区,深圳徐仁堂诊所,"113.867743,22.569129",13713889428,[],B0J6AZWAG2
[],莲花路1116号附121号,[],广东省,[],"{'cost': [], 'rating': []}",[],深圳市,医疗保健服务;诊所;诊所,"[{'title': [], 'url': 'http://store.is.autonavi.com/showpic/b5aafff123f6385ad6dd1342b17030d7'}, {'title': [], 'url': 'http://store.is.autonavi.com/showpic/a6517a38016b0ed29573a548c82acfe1'}, {'title': [], 'url': 'http://store.is.autonavi.com/showpic/174d74e235d9329f833a82300cf239a8'}]",090300,2,[],[],福田区,深圳何成龙诊所,"114.051717,22.558601",[],[],B0HK159IT8
[],清水河街道草埔西社区鹤围路168号鹤围村33栋101,[],广东省,[],"{'cost': [], 'rating': []}",[],深圳市,医疗保健服务;诊所;诊所,"[{'title': [], 'url': 'http://store.is.autonavi.com/showpic/32ff4c15027c0a83a9177912b501fbee'}, {'title': [], 'url': 'http://store.is.autonavi.com/showpic/31579f14c3b6593bbb7594a43cb49f74'}, {'title': [], 'url': 'http://store.is.autonavi.com/showpic/9f37a353d72845a8cde2479a18a61491'}]",090300,2,[],[],罗湖区,深圳徐煦诊所,"114.111120,22.585414",0755-22651756;13632578982,[],B0FFFTT7AK
[],福保街道石厦北五街27号丽阳天下名苑6号商铺,[],广东省,[],"{'cost': [], 'rating': []}",[],深圳市,医疗保健服务;诊所;诊所,"[{'title': [], 'url': 'http://store.is.autonavi.com/showpic/27f15ed1414fe186d729782931dd446f'}, {'title': [], 'url': 'http://s-pic.oss-cn-beijing.aliyuncs.com/desensitize/deep/images/publish/c80a1c59264795fd42f147ff3e2bcaa8.jpg'}]",090300,2,[],[],福田区,深圳胡军喜中医(综合)诊所,"114.051184,22.525465",0755-83812329;13692165181,[],B0FFKH88ER
[],新湖街道办事处圳美社区新围20栋一楼,[],广东省,[],"{'cost': [], 'rating': []}",[],深圳市,医疗保健服务;诊所;诊所,"[{'title': [], 'url': 'http://store.is.autonavi.com/showpic/9fdc7e69994639b90751dc8fa3e0b645'}, {'title': [], 'url': 'http://store.is.autonavi.com/showpic/3016123edeb76dde6081260148ad454d'}, {'title': [], 'url': 'http://store.is.autonavi.com/showpic/ec3dbd27a142ae8f30a0af9aaedf15fe'}]",090300,2,[],[],光明区,宁杰诊所,"113.947902,22.788380",18926446830,[],B0FFJFGA43
B02F38TEBI,益田路6013号江苏大厦A座F33层,[],广东省,[],"{'cost': [], 'rating': []}",[],深圳市,医疗保健服务;诊所;诊所,"[{'title': [], 'url': 'http://store.is.autonavi.com/showpic/3af5fd11165c142759585ffd2cdc72f8'}, {'title': [], 'url': 'https://aos-comment.amap.com/B0I3TRHFWQ/headerImg/e1e2ada65dc78b9c6b7baa18bf940b2a_2048_2048_80.jpg'}, {'title': [], 'url': 'https://aos-comment.amap.com/B0I3TRHFWQ/headerImg/38c34b0d930e137761526c6d476d3594_2048_2048_80.jpg'}]",090300,2,[],202,福田区,深圳高乐诊所,"114.055728,22.546129",[],[],B0I3TRHFWQ
[],益田路7019号(红荔路少年宫),[],广东省,[],"{'cost': [], 'rating': []}",[],深圳市,医疗保健服务;专科医院;专科医院,"[{'title': [], 'url': 'http://store.is.autonavi.com/showpic/d65d854de247875b282c7188d65ed6f9'}, {'title': [], 'url': 'http://store.is.autonavi.com/showpic/7866271fa2b66977c6a5ff4c89adbf32'}, {'title': [], 'url': 'http://store.is.autonavi.com/showpic/8ae2b171d929cc672aff6081ea7678cb'}]",090200,2,[],[],福田区,深圳市儿童医院,"114.053925,22.547396",0755-83936101,[],B02F3006F6
[],东门北路1017号,[],广东省,[],"{'cost': [], 'rating': []}",[],深圳市,医疗保健服务;综合医院;三级甲等医院,"[{'title': [], 'url': 'http://store.is.autonavi.com/showpic/1c508853ef44118bf2a54d4872ee1fd0'}, {'title': '内景图', 'url': 'http://store.is.autonavi.com/showpic/1e9d3c6a94a78b77e8b9ff6b018e9e80'}, {'title': [], 'url': 'http://store.is.autonavi.com/showpic/c6d87a105a28c41a2faa2d3e92c974b0'}]",090101,2,[],[],罗湖区,深圳市人民医院,"114.128030,22.557525",0755-25533018,[],B02F37W9ER
B02F37W9ER,东门北路1017号(翠竹地铁站D口步行230米),[],广东省,[],"{'cost': [], 'rating': []}",[],深圳市,医疗保健服务;综合医院;三级甲等医院,[],090101,2,[],317,罗湖区,深圳市人民医院第二门诊部,"114.127626,22.556620",[],[],B0JBZSG9ZX
[],布澜路29号,[],广东省,[],"{'cost': [], 'rating': []}",[],深圳市,医疗保健服务;综合医院;三级甲等医院,"[{'title': [], 'url': 'http://store.is.autonavi.com/showpic/92b2be9b661d508ee82371d5128fec73'}, {'title': '内景图', 'url': 'http://store.is.autonavi.com/showpic/0c764c22c625c60e607ec0970f50db08'}, {'title': '外景图', 'url': 'http://store.is.autonavi.com/showpic/0fb298d9418eafee3ca9a7cff46d6f1c'}]",090101,2,[],[],龙岗区,深圳市第三人民医院,"114.128750,22.635393",0755-61222333,[],B02F38JF90
[],玉律路56号,[],广东省,[],"{'cost': [], 'rating': []}",[],深圳市,医疗保健服务;专科医院;专科医院,"[{'title': [], 'url': 'https://aos-comment.amap.com/B0FFI9PKZE/comment/f97a5aa2159c08fe64baec5cb76b9362_2048_2048_80.jpg'}, {'title': [], 'url': 'http://store.is.autonavi.com/showpic/7a96e5a4569bfd29f896c921087b4f96'}, {'title': [], 'url': 'https://aos-comment.amap.com/B0FFI9PKZE/comment/e9fe14720068df482b581295f07984fa_2048_2048_80.jpg'}]",090200,2,[],[],宝安区,深圳市宝安区妇幼保健院,"113.876734,22.561977",0755-27863999;0755-86571621,[],B0FFI9PKZE
[],龙华街道景龙建设路38号,[],广东省,[],"{'cost': [], 'rating': []}",[],深圳市,医疗保健服务;综合医院;三级甲等医院,"[{'title': '内景图', 'url': 'http://store.is.autonavi.com/showpic/54912f4337de547e939d0d1fe7b85299'}, {'title': '内景图', 'url': 'http://store.is.autonavi.com/showpic/5d3d002b2dba4f1ef71236a67b8887c9'}, {'title': [], 'url': 'http://store.is.autonavi.com/showpic/7c6dbbdc9438d9339cd6482e459a684c'}]",090101,2,[],[],龙华区,深圳市龙华区人民医院,"114.032620,22.655543",0755-27741585;0755-29572571,[],B02F38WSN9
[],福强路3012号,[],广东省,[],"{'cost': [], 'rating': []}",[],深圳市,医疗保健服务;专科医院;专科医院|医疗保健服务;综合医院;三级甲等医院,"[{'title': '外景图', 'url': 'http://store.is.autonavi.com/showpic/7c806570cf751abbe0f8597cb276d220'}, {'title': [], 'url': 'https://aos-comment.amap.com/B02F37S1FD/comment/df3b7e6fe92f586b3db1d12a5714ca37_2048_2048_80.jpg'}, {'title': [], 'url': 'https://aos-comment.amap.com/B02F37S1FD/comment/e6b1673067955d8c44b2ddbd57e1a7ee_2048_2048_80.jpg'}]",090200|090101,2,[],[],福田区,深圳市妇幼保健院(福强院区),"114.048727,22.518468",0755-82889999,[],B02F37S1FD
[],新安街道宝城龙井二路118号,[],广东省,[],"{'cost': [], 'rating': []}",[],深圳市,医疗保健服务;综合医院;三级甲等医院,"[{'title': [], 'url': 'http://store.is.autonavi.com/showpic/547aa4cd47b670f53af20d058e2ac1ad'}, {'title': '外景图', 'url': 'http://store.is.autonavi.com/showpic/a77b27d64a622989b5e2330a69e40427'}, {'title': '内景图', 'url': 'http://store.is.autonavi.com/showpic/c29ab61e676844a1ea6db25d5ba0828b'}]",090101,2,[],[],宝安区,深圳市宝安人民医院,"113.914854,22.562217",0755-27788311,[],B02F302E7B
[],爱龙路6号(回龙埔地铁站B口步行290米),[],广东省,[],"{'cost': [], 'rating': []}",[],深圳市,医疗保健服务;专科医院;专科医院|医疗保健服务;综合医院;三级甲等医院,"[{'title': [], 'url': 'https://aos-comment.amap.com/B02F37SEBE/comment/35700f73330c916ce5ba9f23f71d4d9f_2048_2048_80.jpg'}, {'title': [], 'url': 'https://aos-comment.amap.com/B02F37SEBE/comment/f19f4632652466038f0d4ca7ca89228f_2048_2048_80.jpg'}, {'title': [], 'url': 'https://aos-comment.amap.com/B02F37SEBE/comment/9a188e88f9a82e35ea46307f527df8c9_2048_2048_80.jpg'}]",090200|090101,2,[],[],龙岗区,深圳市龙岗区妇幼保健院,"114.234828,22.728069",0755-28933003,[],B02F37SEBE
B02F38PFIW,深南东路2097号,[],广东省,[],"{'cost': [], 'rating': []}",[],深圳市,医疗保健服务;专科医院;专科医院,"[{'title': [], 'url': 'https://aos-comment.amap.com/B02F37W5P3/comment/17877b813006555f2318e9aa7e6d8456_2048_2048_80.jpg'}, {'title': [], 'url': 'https://aos-comment.amap.com/B02F37W5P3/comment/27b34c4cd262f86e7cb6a937b9632dcb_2048_2048_80.jpg'}, {'title': [], 'url': 'https://aos-comment.amap.com/B02F37W5P3/comment/a6c9c1ccaef3e523a1bd8417d057519b_2048_2048_80.jpg'}]",090200,2,[],202,罗湖区,深圳远东妇产医院,"114.123855,22.543511",18138296408,[],B02F37W5P3
[],泽田路18号,[],广东省,[],"{'cost': [], 'rating': []}",[],深圳市,医疗保健服务;专科医院;眼科医院|医疗保健服务;综合医院;三级甲等医院,"[{'title': [], 'url': 'http://store.is.autonavi.com/showpic/8794eca88d137a771bb5c00c33fe74be'}, {'title': '外景图', 'url': 'http://store.is.autonavi.com/showpic/75e3d588fc5ee66b2a53b81693deadc9'}, {'title': [], 'url': 'https://aos-comment.amap.com/B0FFK1XPKB/headerImg/content_media_external_images_media_4909072_1656899677299_61c4acc8.jpg'}]",090203|090101,2,[],[],福田区,深圳市眼科医院,"114.014466,22.545914",0755-23959510;0755-23959600,[],B02F37UD0K
[],大浪街道华旺路68号,[],广东省,[],"{'cost': [], 'rating': []}",[],深圳市,医疗保健服务;专科医院;专科医院,"[{'title': [], 'url': 'http://store.is.autonavi.com/showpic/46315f9b4e07d9e52e7762330b371e73'}, {'title': [], 'url': 'http://store.is.autonavi.com/showpic/93e261e09dfc43a1ef450c92e59bfdf2'}, {'title': [], 'url': 'https://aos-comment.amap.com/B02F38S9PB/comment/content_media_external_images_media_3957714.jpg'}]",090200,2,[],[],龙华区,龙华区妇幼保健院,"113.992870,22.671729",0755-29821199,[],B02F38S9PB
[],红荔路2004号(通新岭地铁站D口步行170米),[],广东省,[],"{'cost': [], 'rating': []}",[],深圳市,医疗保健服务;专科医院;专科医院,"[{'title': [], 'url': 'http://store.is.autonavi.com/showpic/15dec55534a38e00978b1cd6b4e0a93d'}, {'title': [], 'url': 'http://s-pic.oss-cn-beijing.aliyuncs.com/desensitize/deep/images/publish/c671b3abac0adedded59607292379072.jpg'}, {'title': [], 'url': 'http://store.is.autonavi.com/showpic/a82294d7128a23253d8a9c66431c22c0'}]",090200,2,[],[],福田区,深圳市妇幼保健院(红荔院区),"114.094216,22.549673",[],[],B02F30537D
[],圳园路628号,[],广东省,[],"{'cost': [], 'rating': []}",[],深圳市,医疗保健服务;综合医院;三级甲等医院,"[{'title': [], 'url': 'https://aos-comment.amap.com/B0FFH04ESU/headerImg/c428d6c6abbb1bb55532c7a53404d8a2_2048_2048_80.jpg'}, {'title': [], 'url': 'http://aos-cdn-image.amap.com/sns/ugccomment/27c31174-23a9-4ddb-b4c1-3e3766eec6bb.jpg'}, {'title': [], 'url': 'http://store.is.autonavi.com/showpic/0c9b8ed5194c8e17393937c1e2da7e54'}]",090101,2,[],[],光明区,中山大学附属第七医院,"113.954565,22.787789",0755-81206913;0755-81206916,[],B0FFH04ESU
[],华强北街道福强社区深南中路2044号建材服务楼3栋整栋建材食堂2栋1层1号,[],广东省,[],"{'cost': [], 'rating': '4.9'}",[],深圳市,医疗保健服务;专科医院;整形美容,"[{'title': [], 'url': 'http://store.is.autonavi.com/showpic/ca4ea1be392c18fbb090db9ea330e47c'}, {'title': [], 'url': 'https://aos-comment.amap.com/B02F37WNHB/comment/73d7eda74412df859b906d381286f761_2048_2048_80.jpg'}, {'title': [], 'url': 'https://aos-comment.amap.com/B02F37WNHB/comment/30139c2c3106e63870d429cee4216251_2048_2048_80.jpg'}]",090201,2,[],[],福田区,深圳美莱医疗美容医院,"114.090429,22.541285",18588210675,[],B02F37WNHB
[],马田街道松白路4253号,[],广东省,[],"{'cost': [], 'rating': []}",[],深圳市,医疗保健服务;综合医院;三级甲等医院,"[{'title': [], 'url': 'http://store.is.autonavi.com/showpic/aa8c88227e20ec408d1fce1ba9be706c'}, {'title': [], 'url': 'http://store.is.autonavi.com/showpic/3b2c73e7e79bbf0d3ff2ec2c6020895d'}, {'title': [], 'url': 'https://aos-comment.amap.com/B0FFGLQ1X5/comment/2a945eafa9edb442b085191d4bd1524b_2048_2048_80.jpg'}]",090101,2,[],[],光明区,深圳市光明区人民医院(西院区),"113.901804,22.763517",0755-27548735,[],B0FFGLQ1X5
B0JB162H97,华强北街道华航社区深南中路3024号航空大厦1021栋1-1-A2,[],广东省,[],"{'cost': [], 'rating': []}",[],深圳市,医疗保健服务;专科医院;整形美容,"[{'title': [], 'url': 'http://store.is.autonavi.com/showpic/97de237d0eb48746eb6b9071a1709b78'}, {'title': [], 'url': 'https://aos-comment.amap.com/B0FFIS0N8G/comment/806a6a9f8664df1a28198079f3888b3a_2048_2048_80.jpg'}, {'title': [], 'url': 'http://store.is.autonavi.com/showpic/c079ba341e9077d751a5157ca33d7935'}]",090201,2,[],202,福田区,深圳艺星医疗美容医院,"114.082331,22.540833",15221109443,[],B0FFIS0N8G
[],广深路西乡段233号,[],广东省,[],"{'cost': [], 'rating': []}",[],深圳市,医疗保健服务;综合医院;综合医院,"[{'title': [], 'url': 'http://store.is.autonavi.com/showpic/a6333763a5a48946dabde73f93f1005a'}, {'title': [], 'url': 'http://store.is.autonavi.com/showpic/5715daad7ac63a0cf2e9194e'}, {'title': [], 'url': 'http://store.is.autonavi.com/showpic/732cf3bd23710f7c696b1fb619b03c70'}]",090100,2,[],[],宝安区,宝安中心医院,"113.880095,22.580001",0755-27956611;0755-27956811,[],B0FFFPLLBI
[],龙华街道玉翠社区龙观东路101号,[],广东省,[],"{'cost': [], 'rating': []}",[],深圳市,医疗保健服务;综合医院;三级甲等医院,"[{'title': [], 'url': 'http://store.is.autonavi.com/showpic/7ff3555dcce7cd10bb6ee9272b39e535'}, {'title': [], 'url': 'http://store.is.autonavi.com/showpic/39c4aad259faddffaa810d61e9057b80'}, {'title': [], 'url': 'https://aos-comment.amap.com/B02F30A6UW/comment/f0e1a10c5b37c2fa776db80304e07731_2048_2048_80.jpg'}]",090101,2,[],[],龙华区,深圳市人民医院龙华分院,"114.023788,22.665041",0755-27745118;0755-27745918,[],B02F30A6UW
[],新沙路528号,[],广东省,[],"{'cost': [], 'rating': []}",[],深圳市,医疗保健服务;综合医院;三级甲等医院,"[{'title': [], 'url': 'http://store.is.autonavi.com/showpic/1d3b629689d10e84dae6a07c4bc645d0'}, {'title': [], 'url': 'https://aos-comment.amap.com/B0FFMAXV9S/headerImg/3b49885d32b728bbcb8df0d42398aa24_2048_2048_80.jpg'}, {'title': [], 'url': 'https://aos-comment.amap.com/B0FFMAXV9S/comment/cd2fab6b8b41babd09b2763fff17d447_2048_2048_80.jpg'}]",090101,2,[],[],宝安区,深圳市中西医结合医院,"113.805327,22.732787",0755-27722241,[],B0FFMAXV9S
[],金田路1019号,[],广东省,[],"{'cost': [], 'rating': []}",[],深圳市,医疗保健服务;专科医院;专科医院,"[{'title': [], 'url': 'https://aos-comment.amap.com/B02F38IO8B/comment/7b27cd0dd087631e608202d47c2f694f_2048_2048_80.jpg'}, {'title': [], 'url': 'https://aos-comment.amap.com/B02F38IO8B/comment/10a1272e1e47cb02b68319c5e32c0a45_2048_2048_80.jpg'}, {'title': [], 'url': 'http://store.is.autonavi.com/showpic/55b0dc1aa31039d93d3b884d'}]",090200,2,[],[],福田区,深圳市福田妇幼保健院,"114.064373,22.522800",0755-83823120,[],B02F38IO8B
B0FFFW2FHP,滨河大道辅道与泰然九路交叉口西80米,[],广东省,[],"{'cost': [], 'rating': []}",[],深圳市,医疗保健服务;专科医院;眼科医院,"[{'title': [], 'url': 'http://store.is.autonavi.com/showpic/ea86e30e41dea3f3787f5c278b054aa4'}, {'title': [], 'url': 'https://aos-comment.amap.com/B02F38MTEA/comment/fde19044b7614a2642f07b4d6c8c9b16_2048_2048_80.jpg'}, {'title': [], 'url': 'http://store.is.autonavi.com/showpic/f1a204cbd6bcc81fe0fa0a33e34e07d3'}]",090203,2,[],202,福田区,深圳希玛林顺潮眼科医院,"114.024128,22.529727",17704036704,[],B02F38MTEA
[],人民北路2083号(晒布地铁站D3口步行380米),[],广东省,[],"{'cost': [], 'rating': '4.3'}",[],深圳市,生活服务;美容美发店;美容美发店,"[{'title': [], 'url': 'https://aos-comment.amap.com/B02F37TXYK/comment/bc116f2a25ff03a1adc47a10e3c4e37b_2048_2048_80.jpg'}, {'title': [], 'url': 'https://aos-comment.amap.com/B02F37TXYK/comment/6f558b7caa3b8f464eb4f731abec19d9_2048_2048_80.jpg'}, {'title': [], 'url': 'https://aos-comment.amap.com/B02F37TXYK/comment/4e2cec2088db6d46b63983b6b3ffcd81_2048_2048_80.jpg'}]",071100,1,[],[],罗湖区,深圳非凡医疗美容医院,"114.119515,22.547304",0755-82281088;0755-88833222;13923424153,[],B02F37TXYK
[],布吉街道南三社区吉政路25号布吉中海医院整套23号,[],广东省,[],"{'cost': [], 'rating': []}",[],深圳市,医疗保健服务;专科医院;专科医院,"[{'title': [], 'url': 'https://aos-comment.amap.com/B02F30AI4R/comment/2a6accf76a5bc0bf26b273cb7eeaa891_2048_2048_80.jpg'}, {'title': [], 'url': 'http://store.is.autonavi.com/showpic/92f96aa3d8a5c0a531a374e91df7d36e'}, {'title': [], 'url': 'https://aos-comment.amap.com/B02F30AI4R/comment/85dbf52f282f4b831c4ff6883bd8866a_2048_2048_80.jpg'}]",090200,2,[],[],龙岗区,深圳中海医院,"114.126354,22.606645",18038168710,[],B02F30AI4R
[],福强路1001号,[],广东省,[],"{'cost': [], 'rating': []}",[],深圳市,医疗保健服务;专科医院;专科医院,"[{'title': [], 'url': 'https://aos-comment.amap.com/B02F37VYMG/headerImg/38a50f38ff5b9f4d2e21e5ea85e62ea2_2048_2048_80.jpg'}, {'title': [], 'url': 'http://store.is.autonavi.com/showpic/9bbbbcbc10187710515a932c0aad4161'}, {'title': [], 'url': 'https://aos-comment.amap.com/B02F37VYMG/comment/021c77376782bf540d54e9e86a073174_2048_2048_80.jpg'}]",090200,2,[],[],福田区,深圳中山妇产医院,"114.069027,22.528157",18818583895,[],B02F37VYMG
B02F37VVND,宝安南路1048号河南外贸大厦,[],广东省,[],"{'cost': [], 'rating': '4.0'}",[],深圳市,医疗保健服务;专科医院;整形美容,"[{'title': [], 'url': 'https://aos-comment.amap.com/B0FFIS2IOL/comment/a4079b840062dc7143416637731468ce_2048_2048_80.jpg'}, {'title': [], 'url': 'http://s-pic.oss-cn-beijing.aliyuncs.com/desensitize/deep/images/publish/96bd439e7c0f5680ae7da70a226ff3d1.jpg'}, {'title': [], 'url': 'https://aos-comment.amap.com/B0FFIS2IOL/comment/b70dbf2d242f760f0df9a93389542322_2048_2048_80.jpg'}]",090201,2,[],320,罗湖区,深圳阳光医疗美容医院,"114.111888,22.540280",18825225107,[],B0FFIS2IOL
[],滨河大道2048号(华强南地铁站A口步行150米),[],广东省,[],"{'cost': [], 'rating': []}",[],深圳市,医疗保健服务;专科医院;眼科医院,"[{'title': [], 'url': 'http://store.is.autonavi.com/showpic/bd687b5968fe3f523f6e0aea7b133fd6'}, {'title': [], 'url': 'http://store.is.autonavi.com/showpic/7aaa458c1602ff2362af92fbd8dac1ce'}, {'title': [], 'url': 'https://aos-comment.amap.com/B02F38RCE8/comment/b5a3de2c8ec2ad266f6b7cf5dd16cc85_2048_2048_80.jpg'}]",090203,2,[],[],福田区,深圳爱尔眼科医院(总院),"114.087587,22.535209",0755-23809666;18998936311;4006609120,[],B02F38RCE8
[],南山大道1122号,[],广东省,[],"{'cost': [], 'rating': '4.6'}",[],深圳市,医疗保健服务;专科医院;整形美容,"[{'title': [], 'url': 'https://aos-comment.amap.com/B0JAZSRZSP/comment/1c3e4b6022cf8f81e75dbb950ec1dc89_2048_2048_80.jpg'}, {'title': [], 'url': 'http://s-pic.oss-cn-beijing.aliyuncs.com/desensitize/deep/images/publish/0a7ca175d110a88ef700b944b714ede9.jpg'}, {'title': [], 'url': 'http://s-pic.oss-cn-beijing.aliyuncs.com/desensitize/deep/images/publish/dd04b358acc3e86c4f6e3d10f3a69ff1.jpg'}]",090201,2,[],[],南山区,深圳鹏爱医疗美容医院,"113.923232,22.521607",18682239726,[],B0IU65QUKT
[],龙城街道吉祥社区龙岗大道3012-3018号101(A栋B栋C栋),[],广东省,[],"{'cost': [], 'rating': []}",[],深圳市,医疗保健服务;专科医院;妇科医院,"[{'title': [], 'url': 'https://aos-comment.amap.com/B02F38RCDS/comment/e0ccfc3e0fb1a25086f07d5cc866fd13_2048_2048_80.jpg'}, {'title': [], 'url': 'https://aos-comment.amap.com/B02F38RCDS/comment/4dc9908207b98f61ae6bb2d04542f31d_2048_2048_80.jpg'}, {'title': [], 'url': 'https://aos-comment.amap.com/B02F38RCDS/comment/470ef12b3ee1669bca196f27a1f1f42f_2048_2048_80.jpg'}]",090209,2,[],[],龙岗区,深圳港龙医院,"114.245662,22.709805",13528843471,[],B02F38RCDS
[],龙华街道玉翠社区东环二路356号101,[],广东省,[],"{'cost': [], 'rating': []}",[],深圳市,医疗保健服务;综合医院;综合医院,"[{'title': [], 'url': 'http://store.is.autonavi.com/showpic/cfc63b58003be0705e795de9a39acead'}, {'title': [], 'url': 'https://aos-comment.amap.com/B02F37VMWI/comment/f4c8e7474616ee55b0bfcd3aea905aa5_2048_2048_80.jpg'}, {'title': [], 'url': 'http://store.is.autonavi.com/showpic/28aff4aaa0eb64fb62cfa1ba384c428b'}]",090100,2,[],[],龙华区,深圳首康医院,"114.024925,22.666689",19924506091,[],B02F37VMWI
[],民治街道上塘路10号,[],广东省,[],"{'cost': [], 'rating': []}",[],深圳市,医疗保健服务;综合医院;综合医院,"[{'title': [], 'url': 'http://store.is.autonavi.com/showpic/2962ec38c8583c7559fdbf217bb55a51'}, {'title': [], 'url': 'http://store.is.autonavi.com/showpic/2d97130162b455deeb3cc076d6237a1f'}, {'title': [], 'url': 'http://store.is.autonavi.com/showpic/f8eb6ac2f41d5d1995e52b9dc3a08ed2'}]",090100,2,[],[],龙华区,深圳仁合医院,"114.021870,22.634964",0755-21013333,[],B0FFIQBSS6
[],龙岗街道南联社区碧新路(龙岗段)2001号101整栋,[],广东省,[],"{'cost': [], 'rating': []}",[],深圳市,医疗保健服务;专科医院;眼科医院,"[{'title': [], 'url': 'https://aos-comment.amap.com/B0FFKL4PBW/comment/5bac105bbc908ba1607309a45234f482_2048_2048_80.jpg'}, {'title': [], 'url': 'https://aos-comment.amap.com/B0FFKL4PBW/comment/2264c269d2401bd0bc010d6881235f19_2048_2048_80.jpg'}, {'title': [], 'url': 'http://s-pic.oss-cn-beijing.aliyuncs.com/desensitize/deep/images/publish/a5742809bdc10a25527ff4b0e07d71c1.jpg'}]",090203,2,[],[],龙岗区,深东爱尔眼科医院(龙岗总院),"114.269210,22.709081",0755-89610888,[],B0FFKL4PBW
[],南湖街道新南社区东门南路2006号宝丰大厦1层1号,[],广东省,[],"{'cost': [], 'rating': '3.4'}",[],深圳市,医疗保健服务;专科医院;整形美容,"[{'title': [], 'url': 'http://store.is.autonavi.com/showpic/24c9971254b1835b115e8d0ce88f5301'}, {'title': [], 'url': 'https://aos-comment.amap.com/B02F37W5SU/comment/462f6887ae581f1a2002768f634779c9_2048_2048_80.jpg'}, {'title': [], 'url': 'https://aos-comment.amap.com/B02F37W5SU/comment/ce18738e19527a7756be9e2cf7203390_2048_2048_80.jpg'}]",090201,2,[],[],罗湖区,深圳富华医疗美容医院,"114.125351,22.539595",13316588492;18948325937,[],B02F37W5SU
[],太白路2013号(太安地铁站E口步行390米),[],广东省,[],"{'cost': [], 'rating': []}",[],深圳市,医疗保健服务;专科医院;专科医院,"[{'title': [], 'url': 'http://store.is.autonavi.com/showpic/365b35d713fcef26cfe504f0748df77c'}, {'title': [], 'url': 'http://s-pic.oss-cn-beijing.aliyuncs.com/desensitize/deep/images/publish/ba0348c7c11f745af0f23364f85bde79.jpg'}, {'title': [], 'url': 'http://s-pic.oss-cn-beijing.aliyuncs.com/desensitize/deep/images/publish/4724f23b521781b55836f98841fc4a2a.jpg'}]",090200,2,[],[],罗湖区,深圳市罗湖区妇幼保健院(太白路),"114.136659,22.576369",0755-25510706,[],B02F37VD7C
[],龙田街道龙田南路6号,[],广东省,[],"{'cost': [], 'rating': []}",[],深圳市,医疗保健服务;专科医院;妇科医院,"[{'title': [], 'url': 'http://store.is.autonavi.com/showpic/05129d3e69daff11183193684256ee80'}, {'title': [], 'url': 'http://s-pic.oss-cn-beijing.aliyuncs.com/desensitize/deep/images/publish/cc88daad3a55cfd659fef60bbd2d8a1c.jpg'}, {'title': [], 'url': 'https://aos-comment.amap.com/B02F37SCFM/comment/27703aeea7feed1c56713839b719d1ec_2048_2048_80.jpg'}]",090209,2,[],[],坪山区,深圳市坪山区妇幼保健院,"114.369225,22.746719",0755-84134902;0755-84136633,[],B02F37SCFM
[],布龙路552号(坂田地铁站D口步行370米),[],广东省,[],"{'cost': [], 'rating': []}",[],深圳市,医疗保健服务;综合医院;综合医院,"[{'title': [], 'url': 'https://aos-comment.amap.com/B02F30AIXD/comment/3d8d852f304a754d664fae6fa0cc31fc_2048_2048_80.jpg'}, {'title': [], 'url': 'http://store.is.autonavi.com/showpic/d55f1a7d323f7a9e0b495fcd9d7f3480'}, {'title': [], 'url': 'https://aos-comment.amap.com/B02F30AIXD/comment/2956957de893a780ba43ceccac8a4aaa_2048_2048_80.jpg'}]",090100,2,[],[],龙岗区,深圳坂田医院,"114.067169,22.627935",0755-89504000;0755-89504999,[],B02F30AIXD
[],福永街道白石厦社区白石厦路1号101(1-7层)2号1-6层90210-17层,[],广东省,[],"{'cost': [], 'rating': []}",[],深圳市,医疗保健服务;综合医院;综合医院,"[{'title': [], 'url': 'http://store.is.autonavi.com/showpic/4e70cc02d990877c66da7a1491827630'}, {'title': [], 'url': 'http://store.is.autonavi.com/showpic/9e6ab2ad7b6818927cfd59eccb2d0c4e'}, {'title': [], 'url': 'http://s-pic.oss-cn-beijing.aliyuncs.com/desensitize/deep/images/publish/6fb3d8454afb1d0871d614ed00de525a.jpg'}]",090100,2,[],[],宝安区,深圳永福医院,"113.827822,22.674936",0755-27335555,[],B02F38JGTX
[],福田街道深南大道2001号嘉麟豪庭,[],广东省,[],"{'cost': [], 'rating': '4.4'}",[],深圳市,医疗保健服务;专科医院;整形美容,"[{'title': [], 'url': 'http://store.is.autonavi.com/showpic/f77fb192ebd156499c09859c8b15719e'}, {'title': [], 'url': 'https://aos-comment.amap.com/B0JB9HVGAV/comment/5d4967531da61e9439d66f4954d6424f_2048_2048_80.jpg'}, {'title': [], 'url': 'https://aos-comment.amap.com/B0JB9HVGAV/comment/03ff315e7347f50b26c10bf445af81e7_2048_2048_80.jpg'}]",090201,2,[],[],福田区,深圳米兰柏羽医疗美容医院,"114.066405,22.539054",18100280587,[],B0JB9HVGAV
[],龙华街道三联社区和平路5赛龙豪轩BC栋204号201B202C,[],广东省,[],"{'cost': [], 'rating': []}",[],深圳市,医疗保健服务;专科医院;口腔医院,"[{'title': [], 'url': 'http://store.is.autonavi.com/showpic/0cfe050ce54a57c10272ba09e78de61d'}, {'title': [], 'url': 'http://store.is.autonavi.com/showpic/986793163b6a0b89078f1575e23ef2de'}, {'title': [], 'url': 'https://comment-oss-online.oss-cn-wulanchabu.aliyuncs.com/B0FFL7IS3B/comment/content_media_external_images_media_944522_1654483465529_4f10a4b8.jpg'}]",090202,2,[],[],龙华区,麦芽口腔医院,"114.027556,22.656069",18576797732,[],B0FFL7IS3B
[],桂园北路70号,[],广东省,[],"{'cost': [], 'rating': []}",[],深圳市,医疗保健服务;专科医院;口腔医院,"[{'title': [], 'url': 'http://store.is.autonavi.com/showpic/7553ae4ac91d31a52c8efd41909990c0'}, {'title': [], 'url': 'https://aos-comment.amap.com/B0FFKKZWF0/comment/b0eaf23757a14b54010b33a76196327c_2048_2048_80.jpg'}, {'title': [], 'url': 'https://aos-comment.amap.com/B0FFKKZWF0/headerImg/39e3c72253ede0da3a2a18900959be15_2048_2048_80.jpg'}]",090202,2,[],[],罗湖区,深圳市口腔医院,"114.113927,22.553315",[],[],B0FFKKZWF0
[],龙岗街道鹏达路69号69-2号69-3号-5号,[],广东省,[],"{'cost': [], 'rating': []}",[],深圳市,医疗保健服务;综合医院;综合医院,"[{'title': [], 'url': 'http://store.is.autonavi.com/showpic/026c42596829a22bb708558bd8edddc9'}, {'title': [], 'url': 'https://aos-comment.amap.com/B02F38ZQCJ/comment/1fa77a800b91ca079cb5ef0e1c78d6ff_2048_2048_80.jpg'}, {'title': [], 'url': 'http://store.is.autonavi.com/showpic/5f9064d5fed055293aea69094e062545'}]",090100,2,[],[],龙岗区,深圳慈海医院,"114.265780,22.714561",19925269415,[],B02F38ZQCJ
B02F30A88N,笋岗街道笋西社区宝安北路2088号深业物流大厦101(负11-20层),[],广东省,[],"{'cost': [], 'rating': []}",[],深圳市,医疗保健服务;综合医院;综合医院,"[{'title': [], 'url': 'https://aos-comment.amap.com/B0JG3AW8XT/headerImg/aeaa889fbdc9ccaf292435f765a9e5c1_2048_2048_80.jpg'}, {'title': [], 'url': 'http://store.is.autonavi.com/showpic/55f569732f4eee06a279b3848917a23b'}, {'title': [], 'url': 'http://s-pic.oss-cn-beijing.aliyuncs.com/desensitize/deep/images/publish/b5af03f08286e7151dfe23a2990593da.jpg'}]",090100,2,[],202,罗湖区,深圳博爱曙光医院,"114.109679,22.562168",18682366857,[],B0JG3AW8XT
[],莲花街道康欣社区莲花路2032-1号汇邦大厦一层四-八层十一层十二层,[],广东省,[],"{'cost': [], 'rating': []}",[],深圳市,医疗保健服务;专科医院;眼科医院,"[{'title': [], 'url': 'http://store.is.autonavi.com/showpic/623aae354355afca0b90c7f0c4b26770'}, {'title': [], 'url': 'http://store.is.autonavi.com/showpic/ad4e6120e87aec1369c27844166ca4ed'}, {'title': [], 'url': 'http://store.is.autonavi.com/showpic/41716627d8246914b95cdff144913708'}]",090203,2,[],[],福田区,深圳华厦眼科医院,"114.041706,22.554134",18126285937,[],B0FFGNH9H5
[],南山大道1153号天源大厦,[],广东省,[],"{'cost': [], 'rating': []}",[],深圳市,医疗保健服务;专科医院;口腔医院,"[{'title': [], 'url': 'http://store.is.autonavi.com/showpic/03f659345979fa46b5ee49d500f74193'}, {'title': [], 'url': 'http://store.is.autonavi.com/showpic/986793163b6a0b89078f1575e23ef2de'}, {'title': [], 'url': 'http://store.is.autonavi.com/showpic/4ab1b3e32ca6e94fc3552d73e8c8d592'}]",090202,2,[],[],南山区,麦芽口腔品牌连锁(南山机构),"113.922529,22.521753",0755-82228777;18576797732,[],B0FFI6UUPP
[],桂园街道红桂路1018号武汉大厦1-8层,[],广东省,[],"{'cost': [], 'rating': []}",[],深圳市,医疗保健服务;专科医院;专科医院,"[{'title': [], 'url': 'https://aos-comment.amap.com/B02F37WL02/headerImg/392876ac7518745c53dba99326185675_2048_2048_80.jpg'}, {'title': [], 'url': 'https://aos-comment.amap.com/B02F37WL02/comment/01e42cefc0ff38f0a680fc3c0fa85387_2048_2048_80.jpg'}, {'title': [], 'url': 'https://aos-comment.amap.com/B02F37WL02/comment/1b64987b81af8b50070d64d6005100f5_2048_2048_80.jpg'}]",090200,2,[],[],罗湖区,深圳怡康妇产医院,"114.111449,22.550932",18902483385,[],B02F37WL02
[],梅林街道梅观路5号深新大厦一二层,[],广东省,[],"{'cost': [], 'rating': '4.0'}",[],深圳市,医疗保健服务;医疗保健服务场所;医疗保健服务场所,"[{'title': [], 'url': 'http://store.is.autonavi.com/showpic/5a395e0ee3614cdaa0500188f463265f'}, {'title': [], 'url': 'http://store.is.autonavi.com/showpic/6727bf41e0a30b1689434ccf3686eafc'}, {'title': [], 'url': 'http://store.is.autonavi.com/showpic/6b75d32f273919d4cde49211f11a79e4'}]",090000,1,[],[],福田区,雍禾植发门诊部(深圳总院),"114.071684,22.570364",15680073762,[],B0FFJCTRYW
[],坂田街道吉华路525号,[],广东省,[],"{'cost': '200.00', 'rating': '4.9'}",[],深圳市,医疗保健服务;专科医院;专科医院,"[{'title': [], 'url': 'https://aos-comment.amap.com/B02F30AGX3/comment/f3f5029a45b9a36ff1d02d27acb5c2ad_2048_2048_80.jpg'}, {'title': [], 'url': 'http://store.is.autonavi.com/showpic/816551267c3625d665d35a71a658882e'}, {'title': [], 'url': 'http://store.is.autonavi.com/showpic/4e02099475f1dc296d0c7571cc5b39cc'}]",090200,2,[],[],龙岗区,深圳远东龙岗妇产医院,"114.071329,22.639539",0755-23678999,[],B02F30AGX3
[],锦盛财富广场,[],广东省,[],"{'cost': [], 'rating': []}",[],深圳市,医疗保健服务;专科医院;口腔医院,"[{'title': [], 'url': 'http://store.is.autonavi.com/showpic/916ec0c305be7d3f8bedb950dc211b24'}, {'title': [], 'url': 'https://aos-comment.amap.com/B0IUFUYJIK/comment/43bb73c0a2b26593da2805b707c8e989_2048_2048_80.jpg'}, {'title': [], 'url': 'https://aos-comment.amap.com/B0IUFUYJIK/comment/4bb814996f14ee62e73ef018e9dd7302_2048_2048_80.jpg'}]",090202,2,[],[],宝安区,深圳尔睦口腔医院,"113.817536,22.712824",0755-23723194,[],B0IUFUYJIK
[],观澜街道松元围120号(长湖地铁站D口步行150米),[],广东省,[],"{'cost': [], 'rating': []}",[],深圳市,医疗保健服务;综合医院;综合医院,"[{'title': [], 'url': 'http://store.is.autonavi.com/showpic/200858d0ebd7c156cd8bf07c6f7758ce'}, {'title': [], 'url': 'http://s-pic.oss-cn-beijing.aliyuncs.com/desensitize/deep/images/publish/fc4c18be5727d1060ca24b8284132a48.jpg'}, {'title': [], 'url': 'http://store.is.autonavi.com/showpic/03923af4824445a972902c6108ee1708'}]",090100,2,[],[],龙华区,深圳伟光医院,"114.043004,22.710786",13380342120,[],B02F30AB1D
[],宝安大道3180号,[],广东省,[],"{'cost': [], 'rating': []}",[],深圳市,医疗保健服务;专科医院;口腔医院,"[{'title': [], 'url': 'http://store.is.autonavi.com/showpic/23f550c72694d28518b310db74980b42'}, {'title': [], 'url': 'http://store.is.autonavi.com/showpic/e94cfc92cbe8f4ad3b2173ad29c6f016'}, {'title': [], 'url': 'http://store.is.autonavi.com/showpic/840fe82d032693ea232d48e94e4a4350'}]",090202,2,[],[],宝安区,深圳宝城口腔医院,"113.872260,22.574808",0755-22225661,[],B0FFK8S6I5
[],东纵路143号,[],广东省,[],"{'cost': [], 'rating': []}",[],深圳市,医疗保健服务;专科医院;口腔医院,"[{'title': [], 'url': 'http://store.is.autonavi.com/showpic/70d6c310dfa8df66c350a68f972b3dd8'}, {'title': [], 'url': 'https://aos-comment.amap.com/B0FFLMDO3U/comment/dee03f37c0332039f22c7040cdedb9b9_2048_2048_80.jpg'}, {'title': [], 'url': 'http://store.is.autonavi.com/showpic/23b50f6796f606a5af50d011148b853c'}]",090202,2,[],[],坪山区,南方医科大学深圳口腔医院(坪山),"114.364405,22.685856",[],[],B0FFLMDO3U
B02F37UK47,福强路3030号福田体育公园体育馆5号门,[],广东省,[],"{'cost': [], 'rating': []}",[],深圳市,医疗保健服务;诊所;诊所,"[{'title': [], 'url': 'http://store.is.autonavi.com/showpic/022b0e1763ece889073a1cf85424ac58'}, {'title': [], 'url': 'http://store.is.autonavi.com/showpic/361cde52aadeb8e4da588e0cf2ec21d5'}, {'title': [], 'url': 'http://store.is.autonavi.com/showpic/e2e809ea81a483b99746ee302ae22fe6'}]",090300,2,[],202,福田区,深圳运动康复门诊部,"114.036687,22.524550",0755-88892120,[],B0FFG9KZWJ
[],南湖街道罗湖桥社区人民南路2069号国际商业大厦北座嘉宾路二层A号,[],广东省,[],"{'cost': [], 'rating': []}",[],深圳市,医疗保健服务;专科医院;口腔医院,"[{'title': [], 'url': 'http://store.is.autonavi.com/showpic/819d6813ed8a8279c7883ff7226ee1ac'}, {'title': [], 'url': 'http://store.is.autonavi.com/showpic/fd5d11cd1c0c465cd082d3f43b7ed65c'}, {'title': [], 'url': 'http://store.is.autonavi.com/showpic/ef334b485aa225012adddd34449cc27c'}]",090202,2,[],[],罗湖区,格伦菲尔口腔国贸总院,"114.118320,22.539418",13008835269,[],B0KGX7QVK9
[],南山街道南海大道2289号深圳美澳口腔·种植修复中心,[],广东省,[],"{'cost': [], 'rating': []}",[],深圳市,医疗保健服务;专科医院;口腔医院,"[{'title': [], 'url': 'http://store.is.autonavi.com/showpic/80d670c4b63f9a77805370f65911fb92'}, {'title': [], 'url': 'https://aos-comment.amap.com/B0FFJXXZC8/comment/05f41adedf61557e54cb53aeb9e2061d_2048_2048_80.jpg'}, {'title': [], 'url': 'https://aos-comment.amap.com/B0FFJXXZC8/comment/9e09e69787fd5b101eb0ace9f8709860_2048_2048_80.jpg'}]",090202,2,[],[],南山区,深圳美澳口腔·种植修复中心,"113.928384,22.519648",18928465368,[],B0FFJXXZC8
B02F30A89U,南湖街道建设路罗湖火车站大楼C区1-2楼北侧4-8楼,[],广东省,[],"{'cost': [], 'rating': []}",[],深圳市,医疗保健服务;专科医院;口腔医院,"[{'title': [], 'url': 'http://store.is.autonavi.com/showpic/9d5c93b99be3bf051a9152b2e433eccd'}, {'title': [], 'url': 'http://store.is.autonavi.com/showpic/e2c42e60cd247385dbd69575be9eef46'}, {'title': [], 'url': 'http://store.is.autonavi.com/showpic/74254edd8f269b77b9ba29e6cfaee104'}]",090202,2,[],202,罗湖区,深圳爱康健口腔医院,"114.117585,22.532863",0755-61302631,[],B02F38TEYX
[],翠竹街道水贝社区文锦北路1118号鹏大厦1层二层三层,[],广东省,[],"{'cost': [], 'rating': '4.5'}",[],深圳市,医疗保健服务;专科医院;整形美容,"[{'title': [], 'url': 'http://store.is.autonavi.com/showpic/9a7b350b72443dae1450864a073aff97'}, {'title': [], 'url': 'http://store.is.autonavi.com/showpic/6c7fd04aab46bad2dcbe9bde73e10ec0'}, {'title': [], 'url': 'http://store.is.autonavi.com/showpic/abb935166bb182c89f70ba35d8c3e250'}]",090201,2,[],[],罗湖区,深圳婳美医疗美容医院,"114.123347,22.566204",18665867235,[],B0I1K7Y96G
[],沿河南路1015号,[],广东省,[],"{'cost': [], 'rating': []}",[],深圳市,医疗保健服务;专科医院;专科医院,"[{'title': [], 'url': 'https://aos-comment.amap.com/B02F37WKXT/comment/0fd33424db4255ce66eff7be554350aa_2048_2048_80.jpg'}, {'title': [], 'url': 'http://s-pic.oss-cn-beijing.aliyuncs.com/desensitize/deep/images/publish/ec769cb7a787d87339d29bef614c3bd3.jpg'}, {'title': [], 'url': 'https://aos-comment.amap.com/B02F37WKXT/comment/4ca9f3398485aa8ab3ce5a3d864d21f8_2048_2048_80.jpg'}]",090200,2,[],[],罗湖区,深圳远大肛肠医院,"114.121158,22.534802",13751007735,[],B02F37WKXT
B02F30A468,南新路23号满维大厦,[],广东省,[],"{'cost': [], 'rating': []}",[],深圳市,医疗保健服务;专科医院;专科医院,"[{'title': [], 'url': 'https://aos-comment.amap.com/B0FFLI3SEM/comment/5b0cace157f30161e3777fdf401d5021_2048_2048_80.jpg'}, {'title': [], 'url': 'https://aos-comment.amap.com/B0FFLI3SEM/comment/621c89af5a68196b8bd2fdd0aa12954e_2048_2048_80.jpg'}, {'title': [], 'url': 'https://aos-comment.amap.com/B0FFLI3SEM/comment/6ee6bf78c55cadf31b3ba1687b0b2585_2048_2048_80.jpg'}]",090200,2,[],202,南山区,深圳肤康皮肤病专科门诊部,"113.916669,22.516008",15367973915,[],B0FFLI3SEM
[],龙华街道玉翠社区清泉北路龙日科技大厦1号楼101-1层整层-5层整层,[],广东省,[],"{'cost': [], 'rating': []}",[],深圳市,医疗保健服务;专科医院;眼科医院,"[{'title': [], 'url': 'http://store.is.autonavi.com/showpic/a8ada7136ffbad6c05b444b3ddb9d1b3'}, {'title': [], 'url': 'https://aos-comment.amap.com/B0JD4CL2P2/comment/c5c42b58329b9c057d8febb92b12bd43_2048_2048_80.jpg'}, {'title': [], 'url': 'https://aos-comment.amap.com/B0JD4CL2P2/comment/6d69a0556f2ffa0b62ad69d2cbe4800a_2048_2048_80.jpg'}]",090203,2,[],[],龙华区,深圳深北爱尔眼科医院,"114.028277,22.670819",0755-29735666;18123623167;18123657037,[],B0JD4CL2P2
B02F300372,笋岗东路3013号长虹大厦1-4楼,[],广东省,[],"{'cost': [], 'rating': '4.8'}",[],深圳市,医疗保健服务;综合医院;综合医院,"[{'title': [], 'url': 'http://store.is.autonavi.com/showpic/7b147b366fb676923c36291393518196'}, {'title': '产品图', 'url': 'http://store.is.autonavi.com/showpic/26f777b637dbfb2b6e401082234008a5'}, {'title': [], 'url': 'http://store.is.autonavi.com/showpic/909e6229ea831514e4ad4cd424868a3a'}]",090100,2,[],202,罗湖区,深圳鹏程医院,"114.107705,22.555319",13360518957,[],B0FFF3528Z
[],福星路12号物质楼东座2楼2013楼3014楼4016楼6017楼7018楼801房,[],广东省,[],"{'cost': [], 'rating': '4.3'}",[],深圳市,医疗保健服务;专科医院;整形美容,"[{'title': [], 'url': 'http://store.is.autonavi.com/showpic/4cd47df881e83520ed44a6e4d2fd981f'}, {'title': [], 'url': 'http://store.is.autonavi.com/showpic/0994334f05fb5dbb4848cdedb95cc3b0'}, {'title': [], 'url': 'http://store.is.autonavi.com/showpic/4f071ed0f077ecd5373880ba0c8e3355'}]",090201,2,[],[],福田区,深圳军科医疗美容门诊部,"114.082239,22.535062",18948745469,[],B0FFGK72RC
B0FFGFBCBF,福田街道福民社区福强路1031号福民大厦201,[],广东省,[],"{'cost': [], 'rating': []}",[],深圳市,医疗保健服务;医疗保健服务场所;医疗保健服务场所,"[{'title': [], 'url': 'https://aos-comment.amap.com/B0J0LSQO21/comment/15cc1ada7d124f291953bc1bb237658d_2048_2048_80.jpg'}, {'title': [], 'url': 'http://store.is.autonavi.com/showpic/1300f26ceb2f80b8e67bfe249b943930'}, {'title': [], 'url': 'https://aos-comment.amap.com/B0J0LSQO21/comment/1e961a4fea8dcf19321a741bda333d09_2048_2048_80.jpg'}]",090000,1,[],202,福田区,深圳福民乐莎莎口腔门诊部,"114.068703,22.522815",18588954725,[],B0J0LSQO21
[],沙井街道沙井社区新沙路565号一层转角E号铺位及三楼整层四楼,[],广东省,[],"{'cost': [], 'rating': []}",[],深圳市,医疗保健服务;专科医院;口腔医院,"[{'title': [], 'url': 'http://store.is.autonavi.com/showpic/05ef06b3dae74e5d69ee14c2fcc948d6'}, {'title': [], 'url': 'http://store.is.autonavi.com/showpic/63a210dbbf4ef5f2704695a7de63742c'}, {'title': [], 'url': 'https://aos-comment.amap.com/B0FFKC4PKG/comment/e041bff3521e08bd5bb9c8ec8a4e0dec_2048_2048_80.jpg'}]",090202,2,[],[],宝安区,格伦菲尔口腔(宝安沙井店),"113.812797,22.732523",13008835269,[],B0FFKC4PKG
[],西乡街道前进二路103号,[],广东省,[],"{'cost': [], 'rating': []}",[],深圳市,医疗保健服务;专科医院;专科医院,"[{'title': [], 'url': 'http://aos-cdn-image.amap.com/sns/ugccomment/ee126fa8-127e-44ce-9bb9-61bb31258e21.jpg'}, {'title': [], 'url': 'https://aos-comment.amap.com/B0FFJ4M4YY/comment/bb1597bdf60d0f0fe8bf5ea74c362477_2048_2048_80.jpg'}, {'title': [], 'url': 'https://aos-comment.amap.com/B0FFJ4M4YY/comment/2abef51491b1e993a51966c5daee41b5_2048_2048_80.jpg'}]",090200,2,[],[],宝安区,深圳天元中医肛肠医院,"113.879222,22.593419",19537969350,[],B0FFJ4M4YY
[],福海街道新和社区永福路华丽工业园第10栋一楼部分二至五楼,[],广东省,[],"{'cost': [], 'rating': []}",[],深圳市,医疗保健服务;专科医院;眼科医院,"[{'title': [], 'url': 'http://store.is.autonavi.com/showpic/b0cdcdb8d4800c50bbcd7ed1891998f6'}, {'title': [], 'url': 'https://aos-comment.amap.com/B0HAPCUOY8/headerImg/e870bada9c4d9a05a0898ac6f8bd289e_2048_2048_80.jpg'}, {'title': [], 'url': 'https://aos-comment.amap.com/B0HAPCUOY8/headerImg/3bb4f581b5a9559ce9efe4d5f2c23b14_2048_2048_80.jpg'}]",090203,2,[],[],宝安区,深西爱尔眼科医院(宝安总院),"113.802616,22.672518",0755-85268666,[],B0HAPCUOY8
[],龙华街道三联社区福茂新村H5H6栋1.2.3层H7栋二楼,[],广东省,[],"{'cost': [], 'rating': []}",[],深圳市,医疗保健服务;专科医院;口腔医院,"[{'title': [], 'url': 'http://store.is.autonavi.com/showpic/05ef06b3dae74e5d69ee14c2fcc948d6'}, {'title': [], 'url': 'http://store.is.autonavi.com/showpic/63a210dbbf4ef5f2704695a7de63742c'}, {'title': [], 'url': 'http://store.is.autonavi.com/showpic/e3f72b038396ba36348797b3e5ec4a58'}]",090202,2,[],[],龙华区,格伦菲尔口腔(龙华清湖总院),"114.035116,22.662070",13008835269,[],B0G3SCWA59
[],建设路1092号广东省深圳牙科医疗中心,[],广东省,[],"{'cost': [], 'rating': []}",[],深圳市,医疗保健服务;专科医院;口腔医院,"[{'title': [], 'url': 'http://store.is.autonavi.com/showpic/ba42811cf957b39586049822cc9dc6b4'}, {'title': [], 'url': 'http://store.is.autonavi.com/showpic/3dc81afb46cb789527053f39e4d79379'}, {'title': [], 'url': 'http://store.is.autonavi.com/showpic/18f9324e6c502ef07902818c246341ee'}]",090202,2,[],[],罗湖区,南方医科大学深圳口腔医院,"114.116885,22.537731",[],[],B0FFI7X3FU
B02F37TZ5E,东门街道东门中路江南大厦首层101号铺,[],广东省,[],"{'cost': [], 'rating': '3.4'}",[],深圳市,医疗保健服务;专科医院;口腔医院,"[{'title': [], 'url': 'https://aos-comment.amap.com/B0FFK29FSS/comment/5b1035ed44d325006016c9da30e0f37f_2048_2048_80.jpg'}, {'title': [], 'url': 'http://s-pic.oss-cn-beijing.aliyuncs.com/desensitize/deep/images/publish/ebd405a20be15c316d8ce32e52ac2f7f.jpg'}, {'title': [], 'url': 'https://aos-comment.amap.com/B0FFK29FSS/comment/54044f59142a4f5723a1c184eef62e11_2048_2048_80.jpg'}]",090202,2,[],202,罗湖区,格伦菲尔口腔(江南大厦店),"114.121862,22.546298",13008835269,[],B0FFK29FSS
B02F37WGBR,海城路235号泰逸大厦F3层,[],广东省,[],"{'cost': [], 'rating': '3.6'}",[],深圳市,医疗保健服务;专科医院;口腔医院,"[{'title': [], 'url': 'http://store.is.autonavi.com/showpic/05ef06b3dae74e5d69ee14c2fcc948d6'}, {'title': [], 'url': 'http://store.is.autonavi.com/showpic/63a210dbbf4ef5f2704695a7de63742c'}, {'title': [], 'url': 'http://store.is.autonavi.com/showpic/e3f72b038396ba36348797b3e5ec4a58'}]",090202,2,[],202,宝安区,格伦菲尔口腔(宝安坪洲店),"113.868199,22.564970",13008835269,[],B0IGMD5NQQ
[],南新路2030-14号,[],广东省,[],"{'cost': [], 'rating': []}",[],深圳市,医疗保健服务;综合医院;卫生院,"[{'title': [], 'url': 'https://aos-comment.amap.com/B0FFGBIEFN/headerImg/eecf80da1f35eee926e5defb369456fc_2048_2048_80.jpg'}, {'title': [], 'url': 'http://store.is.autonavi.com/showpic/f89dd4ff36d1855e979e319ee2cbb251'}, {'title': [], 'url': 'https://aos-comment.amap.com/B0FFGBIEFN/headerImg/0a70acb9fd5b4cefcfb71a38c6acfd87_2048_2048_80.jpg'}]",090102,2,[],[],南山区,深圳市南山区医疗集团总部田厦社区健康服务中心,"113.918869,22.529015",0755-26460646,[],B0FFGBIEFN
B0FFG2CPRA,粤海街道海德一道88号中洲控股金融中心A座第5层,[],广东省,[],"{'cost': [], 'rating': []}",[],深圳市,医疗保健服务;专科医院;口腔医院,"[{'title': [], 'url': 'http://store.is.autonavi.com/showpic/6c24ee90e337d87b0dba34190cc153ad'}, {'title': [], 'url': 'http://store.is.autonavi.com/showpic/bf6781552b19ebb53836d8973c71b093'}, {'title': [], 'url': 'http://store.is.autonavi.com/showpic/d7f0e3364c9fe6b7f55303483d9075f7'}]",090202,2,[],202,南山区,正夫口腔中洲旗舰店,"113.933261,22.517484",13392184225,[],B0FFIMCJNF
B0FFH0POX4,龙岗大道4001号万汇大厦1-3楼,[],广东省,[],"{'cost': [], 'rating': []}",[],深圳市,医疗保健服务;专科医院;口腔医院,"[{'title': [], 'url': 'http://store.is.autonavi.com/showpic/4a5bf89f1ae4db5afdf8dac98642e666'}, {'title': [], 'url': 'https://aos-comment.amap.com/B0FFIC7XEG/comment/a370b949073653f73376fac92492028b_2048_2048_80.jpg'}, {'title': [], 'url': 'https://aos-comment.amap.com/B0FFIC7XEG/comment/a38f98a68668ca4797453cb0509f88e3_2048_2048_80.jpg'}]",090202,2,[],202,龙岗区,深圳铭德口腔·种植矫正中心(龙岗总院),"114.254099,22.717788",18025422847,[],B0FFIC7XEG
[],深南东路3046号(老街地铁站B口步行150米),[],广东省,[],"{'cost': [], 'rating': []}",[],深圳市,医疗保健服务;综合医院;综合医院,"[{'title': '外景图', 'url': 'http://store.is.autonavi.com/showpic/7132b9b689914125e66262ca0f93e78d'}, {'title': '外景图', 'url': 'http://store.is.autonavi.com/showpic/960d1eda9cb8e7c00fbbec911a87a418'}, {'title': [], 'url': 'http://s-pic.oss-cn-beijing.aliyuncs.com/desensitize/deep/images/publish/48b3bf120d40aa9f1600b3d58337fccf.jpg'}]",090100,2,[],[],罗湖区,深圳市人民医院第一门诊部,"114.116201,22.543157",0755-82197733,[],B02F305H0D
B02F37WJGH,横岗街道志盛社区茂盛路1号志健时代广场5C-007-114,[],广东省,[],"{'cost': [], 'rating': []}",[],深圳市,医疗保健服务;专科医院;口腔医院,"[{'title': [], 'url': 'http://store.is.autonavi.com/showpic/63a210dbbf4ef5f2704695a7de63742c'}, {'title': [], 'url': 'https://aos-comment.amap.com/B0I60N7GTS/comment/de53b81335558169625c35a13f3e5415_2048_2048_80.jpg'}, {'title': [], 'url': 'https://aos-comment.amap.com/B0I60N7GTS/comment/547eb732f05995dca2db5924cc872a07_2048_2048_80.jpg'}]",090202,2,[],201,龙岗区,格伦菲尔口腔(横岗旗舰店),"114.205242,22.646763",13008835269,[],B0I60N7GTS
B0FFG1X0TY,龙华街道三联社区金銮国际商务大厦3期A栋201,[],广东省,[],"{'cost': [], 'rating': []}",[],深圳市,医疗保健服务;专科医院;口腔医院,"[{'title': [], 'url': 'http://store.is.autonavi.com/showpic/911018e71f6acea087a2b7be2dfb23da'}, {'title': [], 'url': 'http://store.is.autonavi.com/showpic/7b7cdd6f39c0f70f60a2c963a65dfcae'}, {'title': [], 'url': 'http://store.is.autonavi.com/showpic/6dc79ac0f1c0df24973c5f66e83c2c00'}]",090202,2,[],202,龙华区,深圳德贝美口腔门诊部,"114.035276,22.663886",0755-28092885,[],B0H6F52W3X
B0FFF2N3HW,泰然八路深业泰然大厦B座2楼,[],广东省,[],"{'cost': [], 'rating': []}",[],深圳市,医疗保健服务;诊所;诊所,"[{'title': [], 'url': 'http://store.is.autonavi.com/showpic/79c53e8ad80b4d5ca8678681290dd5c8'}, {'title': [], 'url': 'http://s-pic.oss-cn-beijing.aliyuncs.com/desensitize/deep/images/publish/fddcdb31c27b71fb86ea5f436efaf27f.jpg'}, {'title': [], 'url': 'http://store.is.autonavi.com/showpic/9b8158d46e75dc713ec91cf2a6c63d0f'}]",090300,2,[],202,福田区,木棉花门诊部(深圳福田分院),"114.022345,22.530110",0755-82794564,[],B0G1NC4ODI
[],布吉街道国展社区湖南路百合星城二期B栋商铺一楼百鸽路361号,[],广东省,[],"{'cost': [], 'rating': []}",[],深圳市,医疗保健服务;专科医院;口腔医院,"[{'title': [], 'url': 'http://store.is.autonavi.com/showpic/05ef06b3dae74e5d69ee14c2fcc948d6'}, {'title': [], 'url': 'http://store.is.autonavi.com/showpic/63a210dbbf4ef5f2704695a7de63742c'}, {'title': [], 'url': 'https://aos-comment.amap.com/B0FFGZXFOJ/comment/b8bf7028dfce9d7a93b2353646a28844_2048_2048_80.jpg'}]",090202,2,[],[],龙岗区,格伦菲尔口腔(百合星城二期店),"114.122200,22.597244",13008835269,[],B0FFGZXFOJ
B0I375S4L7,马田街道合水口社区松白路4545号大仟里b区负一楼148-150号,[],广东省,[],"{'cost': [], 'rating': []}",[],深圳市,医疗保健服务;专科医院;口腔医院,"[{'title': [], 'url': 'http://store.is.autonavi.com/showpic/bb34040284ff4f06ae09149b6dbc0f22'}, {'title': [], 'url': 'http://store.is.autonavi.com/showpic/49ba89cea9301a1ef8f6e1c74c072c9f'}, {'title': [], 'url': 'http://store.is.autonavi.com/showpic/0acc725075124877bd0326a905121eaf'}]",090202,2,[],202,光明区,麦芽口腔品牌连锁(光明机构),"113.896320,22.774526",18576797732,[],B0IK9ZWJTX
[],民治街道民新社区民治大道141号鑫茂花园A5栋115-116,[],广东省,[],"{'cost': [], 'rating': []}",[],深圳市,医疗保健服务;专科医院;口腔医院,"[{'title': [], 'url': 'http://store.is.autonavi.com/showpic/05ef06b3dae74e5d69ee14c2fcc948d6'}, {'title': [], 'url': 'http://store.is.autonavi.com/showpic/63a210dbbf4ef5f2704695a7de63742c'}, {'title': [], 'url': 'https://aos-comment.amap.com/B0FFH0INJA/comment/6180dfcc04b7b0b89f1f24e99e45eb4c_2048_2048_80.jpg'}]",090202,2,[],[],龙华区,格伦菲尔口腔(民治天虹店),"114.043926,22.610844",0755-29000958;18922824170,[],B0FFH0INJA
[],新安街道广深路159号深圳春天阳光医院,[],广东省,[],"{'cost': [], 'rating': '4.9'}",[],深圳市,医疗保健服务;专科医院;整形美容,"[{'title': [], 'url': 'https://aos-comment.amap.com/B02F37UU3Y/comment/76b489a520ea164761dd0ea7c2ca5891_2048_2048_80.jpg'}, {'title': [], 'url': 'http://store.is.autonavi.com/showpic/fe531c87a0d80b00cfd2408075256fa6'}, {'title': [], 'url': 'https://aos-comment.amap.com/B02F37UU3Y/comment/99bb75912c587e77f46d5cdeb990cf62_2048_2048_80.jpg'}]",090201,2,[],[],宝安区,深圳春天阳光医院,"113.902141,22.558976",13632987467,[],B02F37UU3Y
B0FFF4J6G0,布吉街道长龙社区德兴城1栋,[],广东省,[],"{'cost': [], 'rating': []}",[],深圳市,医疗保健服务;专科医院;口腔医院,"[{'title': [], 'url': 'http://store.is.autonavi.com/showpic/5b704c156639737bde007c46f7e76938'}, {'title': [], 'url': 'http://store.is.autonavi.com/showpic/2dc0dc005eb8e107d884099b5c59b2ae'}, {'title': [], 'url': 'http://store.is.autonavi.com/showpic/be2e832bdcedcf52fc66271320068e28'}]",090202,2,[],202,龙岗区,深圳吉华登特口腔门诊部(龙岗分院),"114.111610,22.612634",18682102176,[],B0FFKW4UEV
[],新安街道海富社区46区洪福雅苑(翻身地铁站C口旁),[],广东省,[],"{'cost': [], 'rating': []}",[],深圳市,医疗保健服务;专科医院;口腔医院,"[{'title': [], 'url': 'http://store.is.autonavi.com/showpic/05ef06b3dae74e5d69ee14c2fcc948d6'}, {'title': [], 'url': 'https://aos-comment.amap.com/B0I0XZC3VE/comment/1ab4880d3eeaa6b03e2698285148cdb3_2048_2048_80.jpg'}, {'title': [], 'url': 'http://store.is.autonavi.com/showpic/63a210dbbf4ef5f2704695a7de63742c'}]",090202,2,[],[],宝安区,格伦菲尔口腔(宝安总院),"113.893208,22.560102",13008835269,[],B0I0XZC3VE
B0HU2MTVWV,沙井街道壆岗社区新沙路412号2层一3层,[],广东省,[],"{'cost': [], 'rating': []}",[],深圳市,医疗保健服务;专科医院;口腔医院,"[{'title': [], 'url': 'https://aos-comment.amap.com/B0HDYXTDO9/comment/3b622ebfb11145a863bb3adeebac7821_2048_2048_80.jpg'}, {'title': [], 'url': 'https://aos-comment.amap.com/B0HDYXTDO9/comment/2bad6821233bc271bee732330704a3d6_2048_2048_80.jpg'}, {'title': [], 'url': 'https://aos-comment.amap.com/B0HDYXTDO9/comment/327a7565d6cd02ad42de0fad379a8a4d_2048_2048_80.jpg'}]",090202,2,[],202,宝安区,尔睦口腔(荟城店),"113.817891,22.732412",0755-23723194,[],B0HDYXTDO9
B02F38P63J,四达大厦一楼(南油地铁站F1口步行170米),[],广东省,[],"{'cost': [], 'rating': []}",[],深圳市,医疗保健服务;专科医院;口腔医院,"[{'title': [], 'url': 'http://store.is.autonavi.com/showpic/05ef06b3dae74e5d69ee14c2fcc948d6'}, {'title': [], 'url': 'http://store.is.autonavi.com/showpic/e3f72b038396ba36348797b3e5ec4a58'}, {'title': [], 'url': 'https://aos-comment.amap.com/B0FFKPSNM6/comment/77ec117ec949547121d5780be61ec607_2048_2048_80.jpg'}]",090202,2,[],202,南山区,格伦菲尔口腔(南山南油店),"113.925306,22.510104",13008835269,[],B0FFKPSNM6
B02F37UBO6,福田街道福南社区深南中路3007号国际科技大厦504,[],广东省,[],"{'cost': [], 'rating': []}",[],深圳市,医疗保健服务;专科医院;口腔医院,"[{'title': [], 'url': 'http://store.is.autonavi.com/showpic/d44df1828cad720fde1712356bb996ec'}, {'title': [], 'url': 'http://store.is.autonavi.com/showpic/8758ecdbdbf21d2917b8f52f0e120284'}, {'title': [], 'url': 'http://store.is.autonavi.com/showpic/6c24ee90e337d87b0dba34190cc153ad'}]",090202,2,[],202,福田区,正夫口腔(华强北旗舰店),"114.083641,22.539847",13392184225,[],B0FFJ9DN7D
B02F38J6XC,海园一路1号香港大学深圳医院内,[],广东省,[],"{'cost': [], 'rating': []}",[],深圳市,医疗保健服务;综合医院;三级甲等医院,"[{'title': [], 'url': 'https://aos-comment.amap.com/B02F38UJD2/comment/30a1158a640d4033dd257d73c91ec1cb_2048_2048_80.jpg'}, {'title': [], 'url': 'https://aos-comment.amap.com/B02F38UJD2/comment/951880dc88b659c1ed85c0ab6da7c946_2048_2048_80.jpg'}, {'title': [], 'url': 'https://aos-comment.amap.com/B02F38UJD2/comment/0155e04b64bc45537b72ee5f842e1f3c_2048_2048_80.jpg'}]",090101,2,[],317,福田区,香港大学深圳医院门诊部,"113.995173,22.525687",[],[],B02F38UJD2
B0FFH1D2CD,坂田街道坂田社区吉华路999号坂田商业广场401-1,[],广东省,[],"{'cost': [], 'rating': []}",[],深圳市,医疗保健服务;专科医院;口腔医院,"[{'title': [], 'url': 'https://aos-comment.amap.com/B0J1PA2H0X/comment/e34c83bcd299e6f8e0b3720ba05ee556_2048_2048_80.jpg'}, {'title': [], 'url': 'https://aos-comment.amap.com/B0J1PA2H0X/comment/f7d9152db9da53800cd4e0546c6bc1d9_2048_2048_80.jpg'}, {'title': [], 'url': 'https://aos-comment.amap.com/B0J1PA2H0X/comment/752394cfa1fb3780e6df9e2fc9326e70_2048_2048_80.jpg'}]",090202,2,[],202,龙岗区,格伦菲尔口腔(龙岗坂田店),"114.062056,22.633755",13008835269,[],B0J1PA2H0X
[],莲花街道莲花路北景田路东金色家园一期裙楼208A,[],广东省,[],"{'cost': [], 'rating': '3.7'}",[],深圳市,医疗保健服务;专科医院;整形美容,"[{'title': [], 'url': 'http://store.is.autonavi.com/showpic/7a6c42d17cccd0470aa9de8fed82d12e'}, {'title': [], 'url': 'http://store.is.autonavi.com/showpic/2d55cb7db7575a8df2ad96652d13e75b'}, {'title': [], 'url': 'https://aos-comment.amap.com/B02F38J1LK/comment/6d736b35c61e90c2bd71a1a5f8bbea24_2048_2048_80.jpg'}]",090201,2,[],[],福田区,深圳广和整形,"114.044087,22.553812",18823761283,[],B02F38J1LK
[],解放路3017号时珍大厦4楼,[],广东省,[],"{'cost': [], 'rating': []}",[],深圳市,医疗保健服务;综合医院;综合医院,"[{'title': [], 'url': 'http://store.is.autonavi.com/showpic/881fa29030757bd3408749fea27c368b'}, {'title': [], 'url': 'http://store.is.autonavi.com/showpic/a350485d53a638906770ed085a0464c0'}, {'title': [], 'url': 'http://store.is.autonavi.com/showpic/197c3c2e37770caf93e3875df2a1218d'}]",090100,2,[],[],罗湖区,深圳市中医院一门诊,"114.112359,22.543776",0755-25586558,[],B0G2M10ZT6
B0JG5SY1T9,福田街道岗厦社区福华路322号文蔚大厦102及2楼,[],广东省,[],"{'cost': [], 'rating': '4.3'}",[],深圳市,医疗保健服务;专科医院;口腔医院,"[{'title': [], 'url': 'http://store.is.autonavi.com/showpic/05ef06b3dae74e5d69ee14c2fcc948d6'}, {'title': [], 'url': 'http://store.is.autonavi.com/showpic/63a210dbbf4ef5f2704695a7de63742c'}, {'title': [], 'url': 'https://aos-comment.amap.com/B0FFIPW0LP/comment/26b9e395c90bacccd718feddadd6be65_2048_2048_80.jpg'}]",090202,2,[],202,福田区,格伦菲尔口腔(文蔚大厦店),"114.069459,22.535186",13008835269,[],B0FFIPW0LP
[],南头街道大汪社区桃园路10号新桃园大厦1-14层,[],广东省,[],"{'cost': [], 'rating': []}",[],深圳市,医疗保健服务;专科医院;眼科医院,"[{'title': [], 'url': 'http://store.is.autonavi.com/showpic/8a6d92781670ba0193b3e53a949f96bd'}, {'title': [], 'url': 'https://aos-comment.amap.com/B0KDYURIT2/comment/c7d557cbb67a590e5ab02c4fcb324b30_2048_2048_80.jpg'}, {'title': [], 'url': 'https://aos-comment.amap.com/B0KDYURIT2/comment/fa463778385311b7cd85de1ae37969a9_2048_2048_80.jpg'}]",090203,2,[],[],南山区,深圳普瑞眼科医院,"113.925339,22.532997",18033077797,[],B0KDYURIT2
B02F305RDY,深南中路2050号华南电力大厦F2层,[],广东省,[],"{'cost': [], 'rating': []}",[],深圳市,医疗保健服务;专科医院;口腔医院,"[{'title': [], 'url': 'http://store.is.autonavi.com/showpic/0ad4e86be06d2d0b8c6f76f8750fd005'}, {'title': [], 'url': 'http://store.is.autonavi.com/showpic/58558f9b9ee3052f48375c48dde1413b'}, {'title': [], 'url': 'http://store.is.autonavi.com/showpic/720521e2a41a6a88d718d5577256415f'}]",090202,2,[],202,福田区,深圳美莱口腔门诊部,"114.090040,22.540775",13266809998;17722581083,[],B0FFHDMF4S
B0FFK7VLVF,华夏路北侧华明苑A栋1-3层,[],广东省,[],"{'cost': [], 'rating': []}",[],深圳市,医疗保健服务;专科医院;专科医院,"[{'title': [], 'url': 'http://store.is.autonavi.com/showpic/38672167f83733d0ffeca85151f37b5c'}]",090200,2,[],202,光明区,深圳市光明区妇幼保健院门诊部,"113.935851,22.760537",[],[],B0FFK3KJRS
B02F37UEDJ,粤海街道华彩天成居商场三楼,[],广东省,[],"{'cost': [], 'rating': '4.8'}",[],深圳市,医疗保健服务;专科医院;整形美容,"[{'title': [], 'url': 'http://store.is.autonavi.com/showpic/4eacda08d4c6b3c6a5195bd37ca069d1'}, {'title': [], 'url': 'http://store.is.autonavi.com/showpic/e52d9adac2b9e73a58f1ff8c384940e1'}, {'title': [], 'url': 'http://s-pic.oss-cn-beijing.aliyuncs.com/desensitize/deep/images/publish/26dbbfeaa3b4cebe9457a77adf3d1d70.jpg'}]",090201,2,[],202,南山区,深圳联合丽格医疗美容门诊部,"113.930185,22.518671",0755-89891818,[],B0FFHGMRSC
B02F30A0J2,沙头街道天安社区深南大道6019号金润大厦三层301-,[],广东省,[],"{'cost': [], 'rating': []}",[],深圳市,医疗保健服务;专科医院;口腔医院,"[{'title': [], 'url': 'http://store.is.autonavi.com/showpic/89e79c7a0f9131754b8124455bb3592d'}, {'title': [], 'url': 'http://store.is.autonavi.com/showpic/234d9109c7a78893e92e1178cf8969b2'}, {'title': [], 'url': 'https://aos-comment.amap.com/B0J2UMRYBU/comment/f1f570887e5d7ee2d2b36155e0f1fefe_2048_2048_80.jpg'}]",090202,2,[],202,福田区,格伦菲尔口腔国际部(车公庙店),"114.024466,22.534941",13008835269,[],B0J2UMRYBU
B0FFG3WV9I,南湖街道和平社区深南东路4003号世界金融中心A105,[],广东省,[],"{'cost': [], 'rating': '0.2'}",[],深圳市,医疗保健服务;专科医院;整形美容,"[{'title': [], 'url': 'http://store.is.autonavi.com/showpic/544ceaed7da1d2c5577fe6bd224dad75'}, {'title': [], 'url': 'http://store.is.autonavi.com/showpic/9b7436b3fdd38aa17ca5d86629733e31'}, {'title': [], 'url': 'http://store.is.autonavi.com/showpic/01f787eb24f38bc01f9fe93b7646d961'}]",090201,2,[],202,罗湖区,深圳青逸医疗美容门诊部,"114.114756,22.541836",13048875683,[],B0IG5RLRQQ
[],民治街道红山社区汇龙湾花园3栋148-149-1149-2202,[],广东省,[],"{'cost': [], 'rating': []}",[],深圳市,医疗保健服务;专科医院;口腔医院,"[{'title': [], 'url': 'http://store.is.autonavi.com/showpic/a2101e6d178e4292f2ea940fa545cf63'}, {'title': [], 'url': 'https://aos-comment.amap.com/B0KG2SS2E8/comment/b4aedb4699b350f66df6c673bef08319_2048_2048_80.jpg'}, {'title': [], 'url': 'https://aos-comment.amap.com/B0KG2SS2E8/comment/00f54e048387e198b4aa107110c91a9a_2048_2048_80.jpg'}]",090202,2,[],[],龙华区,深圳格伦菲尔口腔医院,"114.028757,22.621411",13008835269,[],B0KG2SS2E8
B0FFG2CPRA,海德一道88号中洲控股金融中心A栋16A,[],广东省,[],"{'cost': [], 'rating': []}",[],深圳市,医疗保健服务;专科医院;眼科医院,"[{'title': [], 'url': 'http://store.is.autonavi.com/showpic/1cc9e3c4d4f34efaaf9b3955afc9e3c7'}, {'title': [], 'url': 'http://store.is.autonavi.com/showpic/21ce0d0d0b1ee46e9e14644af42769c8'}, {'title': [], 'url': 'http://store.is.autonavi.com/showpic/b32b6f652b25168445b8e15da7da1cfa'}]",090203,2,[],202,南山区,深圳悦瞳眼科,"113.933406,22.517585",4000302262,[],B0HUK788B1
B02F37TWCN,华强北街道深南中路2002号中核大厦5楼,[],广东省,[],"{'cost': [], 'rating': []}",[],深圳市,医疗保健服务;专科医院;妇科医院,"[{'title': [], 'url': 'http://store.is.autonavi.com/showpic/7ef35f260a4a3356b43728a4d69f3242'}, {'title': [], 'url': 'http://store.is.autonavi.com/showpic/52fe8f9cb94bac3e4a2c113d605e843f'}, {'title': [], 'url': 'https://aos-comment.amap.com/B0IU9AX8NQ/comment/e1b49691a43c43d4778acdcad73e9689_2048_2048_80.jpg'}]",090209,2,[],202,福田区,木棉花门诊部(深圳科学馆分院),"114.095003,22.541296",[],[],B0IU9AX8NQ
[],"西乡街道龙珠社区富城路2-4号(原河山齿科,西乡大门旁)",[],广东省,[],"{'cost': [], 'rating': []}",[],深圳市,医疗保健服务;专科医院;口腔医院,"[{'title': [], 'url': 'http://store.is.autonavi.com/showpic/b68af9c310162540e3ec675fd53bb5da'}, {'title': [], 'url': 'http://store.is.autonavi.com/showpic/131779345459a58622c2c15bc7c25adb'}, {'title': [], 'url': 'http://store.is.autonavi.com/showpic/3275dca62fb01e5910a7b02773bf682c'}]",090202,2,[],[],宝安区,河山口腔连锁(宝安总店),"113.883512,22.576915",0755-85254177,[],B0FFFWXV0I
B0FFF52EUJ,民治街道民新社区民丰路鑫茂花园B区1栋201,[],广东省,[],"{'cost': [], 'rating': []}",[],深圳市,医疗保健服务;专科医院;口腔医院,"[{'title': [], 'url': 'http://store.is.autonavi.com/showpic/3be62bfb8f883958f1b40575d1327548'}, {'title': [], 'url': 'http://store.is.autonavi.com/showpic/527159b5b9594530f68199b2496af513'}, {'title': [], 'url': 'http://store.is.autonavi.com/showpic/ebf6a9a1a42359e3102a01253a8958ce'}]",090202,2,[],202,龙华区,深圳正恩口腔门诊部,"114.043352,22.611806",18123786995,[],B0FFL9M89I
B0FFF9W5YO,粤海街道高新科技园后海大道2388号怡化金融科技大厦3层01单元,[],广东省,[],"{'cost': '649.00', 'rating': '5.0'}",[],深圳市,医疗保健服务;专科医院;口腔医院,"[{'title': [], 'url': 'http://store.is.autonavi.com/showpic/d0af3c24d38fe4ee37cdb121668f363d'}, {'title': [], 'url': 'https://aos-comment.amap.com/default_poi/comment/986e981aa4c5386165958451ee46b623_2048_2048_80.jpg'}, {'title': [], 'url': 'http://store.is.autonavi.com/showpic/f8f63cb5311845bef5c09713d71b0ff3'}]",090202,2,[],202,南山区,深圳赛德阳光口腔门诊部,"113.935963,22.524419",0755-86568876,[],B0FFHPZ4N2
B02F3006F9,莲花路1120号北京大学深圳医院内,[],广东省,[],"{'cost': [], 'rating': []}",[],深圳市,医疗保健服务;综合医院;三级甲等医院,"[{'title': [], 'url': 'http://s-pic.oss-cn-beijing.aliyuncs.com/desensitize/deep/images/publish/7dbc8d71d955578e631aa3b17a236ca4.jpg'}, {'title': [], 'url': 'http://store.is.autonavi.com/showpic/0926ad50841d56a8ef4a9c10f538b4de'}, {'title': [], 'url': 'http://store.is.autonavi.com/showpic/21f15eb87a3240f2bd457e57d9f85a69'}]",090101,2,[],317,福田区,北京大学深圳医院门诊部,"114.049479,22.555688",[],[],B02F38PEEQ
[],新安街道灵芝园社区创业二路南侧都市翠海华苑1栋1061-2层,[],广东省,[],"{'cost': [], 'rating': []}",[],深圳市,医疗保健服务;专科医院;眼科医院,"[{'title': [], 'url': 'http://store.is.autonavi.com/showpic/88a6dc6ea8a1bf31c4ae16803799fe72'}, {'title': [], 'url': 'http://store.is.autonavi.com/showpic/8a3d09f6ecc8d4295686e768f677e002'}, {'title': [], 'url': 'https://aos-comment.amap.com/B0FFKFWICB/comment/fba7d53c729d99890376d7a034f67d89_2048_2048_80.jpg'}]",090203,2,[],[],宝安区,深圳希玛眼科医院(宝安店),"113.905485,22.569472",18100295954,[],B0FFKFWICB
[],西乡街道固兴社区万象新天商务楼A座,[],广东省,[],"{'cost': [], 'rating': '3.0'}",[],深圳市,医疗保健服务;专科医院;口腔医院,"[{'title': [], 'url': 'http://store.is.autonavi.com/showpic/2ba60c00247a06a1ae81ed2fc72251c4'}, {'title': [], 'url': 'http://store.is.autonavi.com/showpic/189bd835303160adad0d77a976fbc630'}, {'title': [], 'url': 'http://store.is.autonavi.com/showpic/237708d380271cef982fdf8c1b153886'}]",090202,2,[],[],宝安区,河山口腔连锁(固戍店),"113.847938,22.601728",0755-85254177,[],B0H1Z77UWJ
[],东门中路2088号温莎广场2F-8号,[],广东省,[],"{'cost': [], 'rating': []}",[],深圳市,医疗保健服务;专科医院;口腔医院,"[{'title': [], 'url': 'http://store.is.autonavi.com/showpic/2275388d5cb7a566f99989d552f89e1b'}, {'title': [], 'url': 'http://store.is.autonavi.com/showpic/6c24ee90e337d87b0dba34190cc153ad'}, {'title': [], 'url': 'http://store.is.autonavi.com/showpic/bf6781552b19ebb53836d8973c71b093'}]",090202,2,[],[],罗湖区,正夫口腔(东门旗舰店),"114.123237,22.549282",13392184225,[],B0FFLPMVKJ
[],梅林街道上梅社区中康路23号东方富苑202-1,[],广东省,[],"{'cost': [], 'rating': []}",[],深圳市,医疗保健服务;专科医院;口腔医院,"[{'title': [], 'url': 'http://store.is.autonavi.com/showpic/a1e7cca9bc6053e5a3d8b27aaac78f6d'}, {'title': [], 'url': 'https://aos-comment.amap.com/B0FFKF69Q2/comment/76bc0971ea2dcf18028f047b4ae3708d_2048_2048_80.jpg'}, {'title': [], 'url': 'https://aos-comment.amap.com/B0FFKF69Q2/comment/c8010fde794533acb5036c21d283b3d5_2048_2048_80.jpg'}]",090202,2,[],[],福田区,友和口腔·正畸医学专科门诊部,"114.059019,22.565172",19925293471,[],B0FFKF69Q2
B02F38IP6U,工业大道西工业八路南路悠然居103,[],广东省,[],"{'cost': [], 'rating': []}",[],深圳市,医疗保健服务;专科医院;口腔医院,"[{'title': [], 'url': 'http://store.is.autonavi.com/showpic/ad7e14edd4c661004257deb035b3691c'}, {'title': [], 'url': 'http://store.is.autonavi.com/showpic/0750a5ac769ea8feb9e1fe774c3d3884'}, {'title': [], 'url': 'http://s-pic.oss-cn-beijing.aliyuncs.com/desensitize/deep/images/publish/76ce98c9ff122fa9e817767cf89401bb.jpg'}]",090202,2,[],202,南山区,希玛爱康健口腔(南山旗舰店),"113.921142,22.500247",0755-61302631,[],B02F38JJDO
[],怡景路1019号(地铁五号线怡景站B出口附近),[],广东省,[],"{'cost': [], 'rating': []}",[],深圳市,医疗保健服务;诊所;诊所|医疗保健服务;专科医院;专科医院,"[{'title': [], 'url': 'http://store.is.autonavi.com/showpic/4d1e1010c70893a5f0b4f840bb41feed'}, {'title': [], 'url': 'http://store.is.autonavi.com/showpic/6175b03ffef2e437a15326e8dac660a4'}, {'title': [], 'url': 'http://store.is.autonavi.com/showpic/9fbaea3c5d6e10f3fd345575cc209900'}]",090300|090200,2,[],[],罗湖区,深圳益尚白癜风门诊,"114.141592,22.553755",4006768656,[],B0FFH0RPAH
[],南光社区南海大道2287号海典居2275-C及裙楼二楼2035-2044号,[],广东省,[],"{'cost': [], 'rating': []}",[],深圳市,医疗保健服务;专科医院;口腔医院,"[{'title': [], 'url': 'http://store.is.autonavi.com/showpic/ad7e14edd4c661004257deb035b3691c'}, {'title': [], 'url': 'https://aos-comment.amap.com/B0FFIK5XO9/comment/fe80a4d2d77ff50bb233fbb74f335c51_2048_2048_80.jpg'}, {'title': [], 'url': 'http://store.is.autonavi.com/showpic/b3caaee6c30250bebd55d3e07e9ab2dc'}]",090202,2,[],[],南山区,希玛爱康健口腔(南山书城门诊),"113.927579,22.517742",0755-61302631,[],B0FFIK5XO9
[],新安街道上川社区35区黄金台小区10栋,[],广东省,[],"{'cost': [], 'rating': []}",[],深圳市,医疗保健服务;专科医院;妇科医院,"[{'title': [], 'url': 'http://store.is.autonavi.com/showpic/f5048ab4814316147db474e464d48177'}, {'title': [], 'url': 'http://store.is.autonavi.com/showpic/e4e157c71f25b95626c509d9a1ecc0b9'}, {'title': [], 'url': 'http://store.is.autonavi.com/showpic/897579c095f4902183fa4895f659fc12'}]",090209,2,[],[],宝安区,深圳宝生妇产医院,"113.895602,22.581012",13510729436,[],B02F38WXSX
[],龙城街道吉祥社区龙岗大道3012-3018号101(A栋整栋B栋C栋1-5楼),[],广东省,[],"{'cost': [], 'rating': []}",[],深圳市,生活服务;美容美发店;美容美发店,"[{'title': [], 'url': 'https://aos-comment.amap.com/B0GDFSV1WI/comment/3da1a3db9e2651adfc06a0b48868f8cd_2048_2048_80.jpg'}, {'title': [], 'url': 'https://aos-comment.amap.com/B0GDFSV1WI/comment/371b4eb5f89726d09e682525998d650f_2048_2048_80.jpg'}, {'title': [], 'url': 'https://aos-comment.amap.com/B0GDFSV1WI/comment/c2097f4a1651a099ba482e2230d23b30_2048_2048_80.jpg'}]",071100,1,[],[],龙岗区,深圳港龙医院(港龙医疗美容),"114.245611,22.709979",0755-89919161,[],B0GDFSV1WI
B0FFH35XS9,西丽街道丽城社区沙河西路1363号众冠西郡园201,[],广东省,[],"{'cost': [], 'rating': []}",[],深圳市,医疗保健服务;专科医院;口腔医院,"[{'title': [], 'url': 'http://store.is.autonavi.com/showpic/88ff84cc51a464b61ca7cf4253299974'}, {'title': [], 'url': 'http://store.is.autonavi.com/showpic/94879ca4480125464efae852ff95b7fb'}, {'title': [], 'url': 'http://store.is.autonavi.com/showpic/7faf7f685c8a115cd9550e3e0cc035fa'}]",090202,2,[],202,南山区,正夫口腔(西丽旗舰店),"113.955437,22.580122",13392184225,[],B0G3AZC6DV
[],粤海街道后海滨卓越维港名苑(南区)9-13栋裙楼1-04,[],广东省,[],"{'cost': [], 'rating': []}",[],深圳市,医疗保健服务;专科医院;整形美容,"[{'title': [], 'url': 'http://store.is.autonavi.com/showpic/2fc9c1e64a6c59a166d668260e554052'}, {'title': [], 'url': 'http://store.is.autonavi.com/showpic/cad85cf974abb374164657f2ba1741ab'}, {'title': [], 'url': 'http://store.is.autonavi.com/showpic/e35a7f3f7f8704c45f6d437d689e54ba'}]",090201,2,[],[],南山区,深圳蒳美迩医疗美容门诊部,"113.940952,22.495533",0755-25551115;15989541516,[],B0FFG9UOJS
B0FFHQNUOA,龙岗街道南联社区龙岗大道(龙岗段)6018号1栋201,[],广东省,[],"{'cost': [], 'rating': '4.2'}",[],深圳市,医疗保健服务;专科医院;口腔医院,"[{'title': [], 'url': 'https://aos-comment.amap.com/B0H3P75094/comment/08bd7066971eec693bb35bde2948201d_2048_2048_80.jpg'}, {'title': [], 'url': 'https://aos-comment.amap.com/B0H3P75094/comment/6860abb0db781f52bc7b8c1ed1aafd50_2048_2048_80.jpg'}, {'title': [], 'url': 'https://aos-comment.amap.com/B0H3P75094/comment/bd539038748cc04895a856bde6352de3_2048_2048_80.jpg'}]",090202,2,[],202,龙岗区,牙福口腔,"114.272042,22.725217",18126232736;18588286025,[],B0H3P75094
[],沙井街道沙二社区海欣花园B栋一单元二层,[],广东省,[],"{'cost': [], 'rating': []}",[],深圳市,医疗保健服务;专科医院;口腔医院,"[{'title': [], 'url': 'http://store.is.autonavi.com/showpic/647763dae844b60fe3af5d0a4aff508d'}, {'title': [], 'url': 'https://aos-comment.amap.com/B0HA663TNB/comment/7a0711cec51fd5230b6ff75a1defed92_2048_2048_80.jpg'}, {'title': [], 'url': 'https://aos-comment.amap.com/B0HA663TNB/comment/57b68325a1b2246cebf8ddcba658bb97_2048_2048_80.jpg'}]",090202,2,[],[],宝安区,尔睦口腔(海欣店),"113.794334,22.735941",0755-23723194,[],B0HA663TNB
B02F38J6XC,海园一路1号香港大学深圳医院内,[],广东省,[],"{'cost': [], 'rating': []}",[],深圳市,医疗保健服务;综合医院;三级甲等医院,"[{'title': [], 'url': 'http://store.is.autonavi.com/showpic/d8a51f6b2f5e86e26f380296a4bbcdc1'}]",090101,2,[],318,福田区,香港大学深圳医院急诊科,"113.995124,22.525517",[],[],B02F38U9JO
[],沙井街街道东塘社区环镇路51号明正楼二层,[],广东省,[],"{'cost': [], 'rating': []}",[],深圳市,医疗保健服务;专科医院;口腔医院,"[{'title': [], 'url': 'https://aos-comment.amap.com/B0JR6AMASP/comment/b44cb61dca9fdf6faff871ea68fa3590_2048_2048_80.jpg'}, {'title': [], 'url': 'https://aos-comment.amap.com/B0JR6AMASP/comment/1b13dd649381bb5e7a098e9dd6e277ca_2048_2048_80.jpg'}, {'title': [], 'url': 'http://store.is.autonavi.com/showpic/bf2a443b9cee0e12e380c000dc50cc01'}]",090202,2,[],[],宝安区,河山口腔连锁(新沙店),"113.812126,22.735094",0755-85254177,[],B0JR6AMASP
[],西乡街道宝安大道3220号,[],广东省,[],"{'cost': [], 'rating': []}",[],深圳市,医疗保健服务;专科医院;整形美容,"[{'title': [], 'url': 'https://aos-comment.amap.com/B0FFIZ3A54/comment/7ef7afbe8a3102adec98ee88560c14bc_2048_2048_80.jpg'}, {'title': [], 'url': 'https://aos-comment.amap.com/B0FFIZ3A54/comment/50c776750a584b94e5cab919525305d9_2048_2048_80.jpg'}, {'title': [], 'url': 'https://aos-comment.amap.com/B0FFIZ3A54/comment/188f21abd1021ca3fe0ec89420cb6d96_2048_2048_80.jpg'}]",090201,2,[],[],宝安区,深圳美加美医疗美容门诊部,"113.870908,22.575976",18128836180,[],B0FFIZ3A54
B02F37VFY4,龙城街道愉园社区宏福路37号宏兴苑10栋商铺龙福西路43号,[],广东省,[],"{'cost': [], 'rating': []}",[],深圳市,生活服务;生活服务场所;生活服务场所,"[{'title': [], 'url': 'http://store.is.autonavi.com/showpic/277f3525d018544203bec61ac881ab7f'}, {'title': [], 'url': 'https://aos-comment.amap.com/B0KANRYDXX/comment/3477570b6ed868515bf131334d441e45_2048_2048_80.jpg'}, {'title': [], 'url': 'http://store.is.autonavi.com/showpic/6c356a8ce1659deeba4ca1da272c4335'}]",070000,1,[],320,龙岗区,希奥口腔(瑞泰口腔门诊部),"114.235609,22.724688",18025369253,[],B0KANRYDXX
[],光彩新世纪二楼(南山地铁站D口旁),[],广东省,[],"{'cost': [], 'rating': []}",[],深圳市,医疗保健服务;诊所;诊所,"[{'title': [], 'url': 'http://store.is.autonavi.com/query_pic?id=st26c1e761-185e-46ba-bd00-024188390977&user=search&operate=original'}, {'title': [], 'url': 'http://store.is.autonavi.com/showpic/2bf8a11b44bda6bcf88fce3f61d7a403'}, {'title': [], 'url': 'http://s-pic.oss-cn-beijing.aliyuncs.com/desensitize/deep/images/publish/fac0b020c687cd8435b3d33cb6d28e52.jpg'}]",090300,2,[],[],南山区,慈铭纪元门诊部,"113.924276,22.523254",4000002251,[],B0FFFCVTX0
[],白石厦路86号,[],广东省,[],"{'cost': [], 'rating': []}",[],深圳市,医疗保健服务;专科医院;口腔医院,"[{'title': [], 'url': 'http://store.is.autonavi.com/showpic/8b8a0c99895cab972a96a763a6c0b0cb'}, {'title': [], 'url': 'http://store.is.autonavi.com/showpic/1d05a2c30baaf51b01021d819235d4a3'}, {'title': [], 'url': 'http://store.is.autonavi.com/showpic/4bc612ef269baddf441ca49536ef90a5'}]",090202,2,[],[],宝安区,河山口腔连锁(福永店),"113.826201,22.675266",0755-85254177,[],B0H65RNINC
B02F37UKVN,福田街道福山社区福华三路11号辛诚花园2栋904-909铺,[],广东省,[],"{'cost': [], 'rating': []}",[],深圳市,医疗保健服务;诊所;诊所,"[{'title': [], 'url': 'http://store.is.autonavi.com/showpic/91a5ee8487af7e1f81cdc0bff81a1bc7'}, {'title': [], 'url': 'http://store.is.autonavi.com/showpic/998b715bd6d41db1db515d6c1f5f46af'}, {'title': [], 'url': 'http://store.is.autonavi.com/showpic/0b0f3c8541ea61eb322421024ecc6003'}]",090300,2,[],320,福田区,深圳安仁堂门诊部,"114.066244,22.531083",0755-23480927;0755-82536334,[],B0FFLN49B8
B0FFG9LLRW,西乡街道新湖路圣淘沙骏园11栋商场301-B,[],广东省,[],"{'cost': [], 'rating': []}",[],深圳市,医疗保健服务;专科医院;口腔医院,"[{'title': [], 'url': 'http://store.is.autonavi.com/showpic/3631d549e0c7eda0304967d21c479245'}, {'title': [], 'url': 'https://aos-comment.amap.com/B0FFHGM3MA/comment/b22efff67eacf71ec1cb342e18557b19_2048_2048_80.jpg'}, {'title': [], 'url': 'https://aos-comment.amap.com/B0FFHGM3MA/comment/950417ee1f2c0ad1d13f0b88069976a1_2048_2048_80.jpg'}]",090202,2,[],202,宝安区,正夫口腔(宝安旗舰店),"113.863772,22.574022",13392184225,[],B0FFHGM3MA
B02F37VFMB,高新南一道6号TCL大厦F2层,[],广东省,[],"{'cost': [], 'rating': []}",[],深圳市,医疗保健服务;专科医院;眼科医院,"[{'title': [], 'url': 'http://store.is.autonavi.com/showpic/a1b5bce56806ad4fdb486eba5a10c16f'}, {'title': [], 'url': 'http://store.is.autonavi.com/showpic/022d943eaa2e0ba1339ef4e54fb2602e'}, {'title': [], 'url': 'http://store.is.autonavi.com/showpic/ff901d324193c972c4f649903300b549'}]",090203,2,[],202,南山区,深圳爱尔西柚眼科门诊部,"113.952799,22.539079",17727907108,[],B0H1AZ44VC
[],新安街裕安居二路125号-5,[],广东省,[],"{'cost': [], 'rating': []}",[],深圳市,医疗保健服务;专科医院;口腔医院,"[{'title': [], 'url': 'https://aos-comment.amap.com/B0HGVCPOLJ/comment/bee60b811152e6993d49535b32fad4a4_2048_2048_80.jpg'}, {'title': [], 'url': 'https://aos-comment.amap.com/B0HGVCPOLJ/comment/1ef43e6cd254959391bf8c0574b5169b_2048_2048_80.jpg'}, {'title': [], 'url': 'https://aos-comment.amap.com/B0HGVCPOLJ/comment/4a045c3f765e7f9cb9a15fa5fa836fec_2048_2048_80.jpg'}]",090202,2,[],[],宝安区,乐孚口腔连锁·种植矫正中心(裕安店),"113.905909,22.577065",18924611601,[],B0HGVCPOLJ
[],西乡街道桃园社区桃源居二区6栋111-113,[],广东省,[],"{'cost': [], 'rating': []}",[],深圳市,医疗保健服务;专科医院;口腔医院,"[{'title': [], 'url': 'http://store.is.autonavi.com/showpic/0b664eed3fb7931b93d3b64ce1624de1'}, {'title': [], 'url': 'http://store.is.autonavi.com/showpic/6c24ee90e337d87b0dba34190cc153ad'}, {'title': [], 'url': 'http://store.is.autonavi.com/showpic/bf6781552b19ebb53836d8973c71b093'}]",090202,2,[],[],宝安区,正夫口腔(宝安桃源居旗舰店),"113.860975,22.613415",13392184225,[],B0G1LH6QE3
B0FFF4GSPE,光明区光明街道光明社区新地中央办公楼八楼805806,[],广东省,[],"{'cost': [], 'rating': []}",[],深圳市,生活服务;生活服务场所;生活服务场所,"[{'title': [], 'url': 'http://store.is.autonavi.com/showpic/8d6e16e25630c8a4ba2d79bd4a5fe11d'}, {'title': [], 'url': 'http://store.is.autonavi.com/showpic/0bdadaf64777fdbbc85772e8ea4a5a10'}, {'title': [], 'url': 'https://aos-comment.amap.com/B0FFLPUN4X/comment/f59eca711f8ae6260c4b0da138216140_2048_2048_80.jpg'}]",070000,1,[],320,光明区,深圳牙力仕口腔诊所,"113.942963,22.761171",18018747386,[],B0FFLPUN4X
B02F38TEYX,桂园街道新围社区深南东路5015号金丰城大厦B座,[],广东省,[],"{'cost': [], 'rating': []}",[],深圳市,医疗保健服务;专科医院;口腔医院,"[{'title': [], 'url': 'http://store.is.autonavi.com/showpic/da6659ea52a2f79ff39d45c4c8289965'}, {'title': [], 'url': 'http://store.is.autonavi.com/showpic/e2c42e60cd247385dbd69575be9eef46'}, {'title': [], 'url': 'http://store.is.autonavi.com/showpic/000796a5039aa45044d49424f2687a4a'}]",090202,2,[],307,罗湖区,希玛爱康健口腔(罗湖大剧院店),"114.110090,22.541063",0755-61302631,[],B0FFH4T6IR
B0FFH0OY16,桂园街道红村社区深南东路5002号信兴广场主楼M3-1,[],广东省,[],"{'cost': [], 'rating': '1.7'}",[],深圳市,医疗保健服务;专科医院;整形美容,"[{'title': [], 'url': 'http://store.is.autonavi.com/showpic/3287df721fc3642ce709f09a6b412258'}, {'title': [], 'url': 'http://store.is.autonavi.com/showpic/f5f72c1b7c8c78558677bd099d2e4f11'}, {'title': [], 'url': 'http://store.is.autonavi.com/showpic/0f7510a5abf1422a92e3baea8952728f'}]",090201,2,[],202,罗湖区,深圳星荟丽格医疗美容诊所,"114.110615,22.542854",18902445687,[],B0H6POUYMS
B0IA95O7IY,深南大道9680号大冲商务中心A栋31层3103(高新园地铁站B出口50米),[],广东省,[],"{'cost': [], 'rating': []}",[],深圳市,医疗保健服务;专科医院;口腔医院,"[{'title': [], 'url': 'http://store.is.autonavi.com/showpic/51b3fc98ac506c8ecb637c7ce66b8603'}, {'title': [], 'url': 'http://store.is.autonavi.com/showpic/5431bc9b301ac23730b2892de6015548'}, {'title': [], 'url': 'http://store.is.autonavi.com/showpic/12fe33d7ac5db8f229a4696fbd9b693b'}]",090202,2,[],202,南山区,深圳慈恩富诚口腔门诊部,"113.951589,22.541034",0755-26607945;0755-86521932;19928734980,[],B0HKG1LXNB
B02F37ULZE,华强北街道华航社区红荔路3013上航大厦首层,[],广东省,[],"{'cost': [], 'rating': []}",[],深圳市,医疗保健服务;专科医院;整形美容,"[{'title': [], 'url': 'http://store.is.autonavi.com/showpic/e57ba1d7e34f83195a0cefe6b390ddf5'}, {'title': [], 'url': 'http://store.is.autonavi.com/showpic/029dc99642e8a0f11436d2d36b10c284'}, {'title': [], 'url': 'http://store.is.autonavi.com/showpic/d6a86a6eabfbbf12cb6e6f7086064478'}]",090201,2,[],202,福田区,深圳曹孟君医疗美容门诊部,"114.083001,22.548659",0755-83881314,[],B0G1KS0707
B02F38JPVS,益田路6001号太平金融大厦4楼,[],广东省,[],"{'cost': [], 'rating': []}",[],深圳市,医疗保健服务;诊所;诊所,"[{'title': [], 'url': 'http://aos-cdn-image.amap.com/sns/ugccomment/dae1a3f2-bb52-4518-affa-4ab97ecca22b.jpg'}, {'title': [], 'url': 'http://store.is.autonavi.com/showpic/8a0a6a93448abe0963ae09e7e97da220'}, {'title': [], 'url': 'http://store.is.autonavi.com/showpic/cd052263ea1cbe0e993b642e332dde11'}]",090300,2,[],202,福田区,云杉医疗福田名医诊疗中心,"114.055552,22.542048",0755-83131515;4009655582,[],B0FFHGXNN3
[],中康路东梅公寓第一层南侧01号铺,[],广东省,[],"{'cost': [], 'rating': []}",[],深圳市,医疗保健服务;专科医院;口腔医院,"[{'title': [], 'url': 'http://store.is.autonavi.com/showpic/69784a1b81bd6b18a941e65164cb8465'}, {'title': [], 'url': 'http://store.is.autonavi.com/showpic/dadbc4ff582b42d44b0abd363c7a33bd'}, {'title': [], 'url': 'http://store.is.autonavi.com/showpic/890d00865c84d4f05e7e85fd2d023373'}]",090202,2,[],[],福田区,正夫口腔(福田梅林店),"114.058662,22.567187",13392184225,[],B0FFKH8J3A
B02F38JHVA,松岗街道松涛社区宝利豪庭07,[],广东省,[],"{'cost': [], 'rating': []}",[],深圳市,医疗保健服务;专科医院;口腔医院,"[{'title': [], 'url': 'http://store.is.autonavi.com/showpic/433d54e0f4a63b3b1336eaaf94b4c852'}, {'title': [], 'url': 'http://store.is.autonavi.com/showpic/5b54fd19a4e7c54a2b85c65c278308fe'}, {'title': [], 'url': 'http://store.is.autonavi.com/showpic/5bb90b2f26f46b11d0d8309834c30579'}]",090202,2,[],320,宝安区,河山口腔连锁(宝利天虹店),"113.851023,22.763870",0755-85254177,[],B0GKRHCGT2
B0FFGU48IG,西乡宝源路1009号广兴源互联网基地A区6栋101,[],广东省,[],"{'cost': [], 'rating': []}",[],深圳市,医疗保健服务;综合医院;卫生院,"[{'title': [], 'url': 'http://store.is.autonavi.com/showpic/8f51426a1aa6cdfb0febe6d7a2a07762'}, {'title': [], 'url': 'http://store.is.autonavi.com/showpic/6e60ccdbaebcf7e15823c85d1afbb7c9'}, {'title': [], 'url': 'http://s-pic.oss-cn-beijing.aliyuncs.com/desensitize/deep/images/publish/27ec61e002dfeb04e87f302e00934419.jpg'}]",090102,2,[],202,宝安区,宝安区中心医院福中福社区健康服务中心,"113.871241,22.562914",0755-29957666,[],B0G1F5MPQI
[],福永街道福海科技工业园1号1-3,[],广东省,[],"{'cost': [], 'rating': []}",[],深圳市,医疗保健服务;专科医院;口腔医院,"[{'title': [], 'url': 'http://store.is.autonavi.com/showpic/30931538fa6a49ab5ed3bf79979fb036'}, {'title': [], 'url': 'http://store.is.autonavi.com/showpic/10a92193f452b9e27dad20364d6ec5ed'}, {'title': [], 'url': 'http://store.is.autonavi.com/showpic/26ecfaf0c55699da4cc5a26c4887cf56'}]",090202,2,[],[],宝安区,河山口腔连锁(福中店),"113.812774,22.674236",0755-85254177,[],B0G01HSDRT
B0FFF4K5GE,深南大道9030号沙河世纪假日广场A座201-207,[],广东省,[],"{'cost': [], 'rating': []}",[],深圳市,医疗保健服务;专科医院;口腔医院,"[{'title': [], 'url': 'http://store.is.autonavi.com/showpic/17ee2f67e75b21f11a373ed44ded91c9'}, {'title': [], 'url': 'http://store.is.autonavi.com/showpic/b306981ca3610146909433489922b5ea'}, {'title': [], 'url': 'http://store.is.autonavi.com/showpic/bc516b029005c4b68905888b4b2beaa1'}]",090202,2,[],202,南山区,正夫口腔(世界之窗旗舰店),"113.973403,22.538273",13392184225,[],B0G29ZN7TD
B02F309VI2,春风路桂都大厦一楼(向西村地铁站A2口步行120米),[],广东省,[],"{'cost': [], 'rating': []}",[],深圳市,医疗保健服务;专科医院;专科医院,"[{'title': [], 'url': 'http://s-pic.oss-cn-beijing.aliyuncs.com/desensitize/deep/images/publish/7a1e9df1ff735fd32f30e5cb3b98078f.jpg'}, {'title': [], 'url': 'http://store.is.autonavi.com/showpic/bda7176a335d74c1f71993d08fdfde3d'}, {'title': [], 'url': 'http://store.is.autonavi.com/showpic/5382b885fd9578fe838a4e0284d61046'}]",090200,2,[],202,罗湖区,德正堂中医门诊部(罗湖店),"114.124924,22.537797",0755-25121305;18334913884,[],B0JA9MGLHG
[],龙岗街道南联社区吓岗鹏达商业街19号101,[],广东省,[],"{'cost': [], 'rating': '3.9'}",[],深圳市,医疗保健服务;专科医院;整形美容,"[{'title': [], 'url': 'http://store.is.autonavi.com/showpic/4465dea3ed9d76ec9ac40f214d10806a'}, {'title': [], 'url': 'https://aos-comment.amap.com/B0FFJMQBQQ/comment/6a2b66bd7ace4f1b669ba2752db12a42_2048_2048_80.jpg'}, {'title': [], 'url': 'http://store.is.autonavi.com/showpic/c7e7dd47a1714aededf2e8f866d251a1'}]",090201,2,[],[],龙岗区,深圳素仁医疗美容门诊部,"114.266487,22.721330",0755-28503310,[],B0FFJMQBQQ
[],横岗街道六园路7号,[],广东省,[],"{'cost': [], 'rating': []}",[],深圳市,医疗保健服务;专科医院;妇科医院,"[{'title': [], 'url': 'http://store.is.autonavi.com/showpic/f26b18cc03013d030d67c0a151bf9bc5'}, {'title': [], 'url': 'http://store.is.autonavi.com/showpic/2aaadea342841ed411c37e7c8d715066'}, {'title': [], 'url': 'http://store.is.autonavi.com/showpic/f3e677ab81d832ef2a61c3583f5e4775'}]",090209,2,[],[],龙岗区,深圳新锦华妇产医院,"114.193349,22.643830",0755-33113386;18594203135,[],B0FFJB6HJ6
B0FFFYPNHH,科苑路17号科兴科学园B栋B3单元601室,[],广东省,[],"{'cost': [], 'rating': []}",[],深圳市,医疗保健服务;专科医院;口腔医院,"[{'title': [], 'url': 'https://aos-comment.amap.com/B0HACSUXVA/comment/7a347e1a5b7f76748080c4ef49b35f0a_2048_2048_80.jpg'}, {'title': [], 'url': 'https://aos-comment.amap.com/B0HACSUXVA/comment/8de10f4e0460b2d9b1f0498368ebafa0_2048_2048_80.jpg'}, {'title': [], 'url': 'https://aos-comment.amap.com/B0HACSUXVA/comment/39f972093d65da7e7a6d23f58dc894ff_2048_2048_80.jpg'}]",090202,2,[],202,南山区,乐莎莎口腔(科兴店),"113.944686,22.548949",0755-21883456;18027428598,[],B0HACSUXVA
B0FFG2CPRA,中洲控股金融中心A座19楼全层,[],广东省,[],"{'cost': [], 'rating': '3.5'}",[],深圳市,医疗保健服务;专科医院;整形美容,"[{'title': [], 'url': 'http://store.is.autonavi.com/showpic/779b4b2d378b65d58191296cabf2c8d5'}, {'title': [], 'url': 'http://store.is.autonavi.com/showpic/c10d5be316df3943b152aaeea1d1570f'}, {'title': [], 'url': 'http://store.is.autonavi.com/showpic/b95bd64fa7a00fd534f6b98e2e12b101'}]",090201,2,[],202,南山区,深圳联合会美医疗美容诊所,"113.933357,22.517497",18948334665,[],B0H1OURKG2
B02F37VFLL,南头街道大汪山社区南山大道2040号百仕城大厦401,[],广东省,[],"{'cost': [], 'rating': []}",[],深圳市,医疗保健服务;专科医院;口腔医院,"[{'title': [], 'url': 'http://store.is.autonavi.com/showpic/1317677b3b71ea785feed5a1f3fd7693'}, {'title': [], 'url': 'http://store.is.autonavi.com/showpic/134c0d4d184b2e956f13d75cfc8e8e5d'}, {'title': [], 'url': 'http://store.is.autonavi.com/showpic/cca12d6502bf22f5de3d1c333bc9ffd1'}]",090202,2,[],202,南山区,正夫口腔(南山赛格旗舰店),"113.924938,22.529479",13392184225,[],B0FFJ9CC2Z
[],松岗街道溪头社区沙江路211号,[],广东省,[],"{'cost': [], 'rating': []}",[],深圳市,医疗保健服务;专科医院;口腔医院,"[{'title': [], 'url': 'http://store.is.autonavi.com/showpic/eadeadb10d5725b8000e80929d3ae298'}, {'title': [], 'url': 'http://store.is.autonavi.com/showpic/78e5899e825bd9cf5112542f9ea91ae3'}, {'title': [], 'url': 'http://store.is.autonavi.com/showpic/a6e50dea1db0e1b01a40098b2cf60a82'}]",090202,2,[],[],宝安区,河山口腔连锁(松岗地铁站店),"113.832929,22.773167",0755-85254177;0755-23318714,[],B0I6TYLSHJ
B02F37UQVL,深南大道泰然九路西喜年中心a座2501地铁C出口,[],广东省,[],"{'cost': [], 'rating': []}",[],深圳市,医疗保健服务;专科医院;口腔医院,"[{'title': [], 'url': 'http://store.is.autonavi.com/showpic/97d812601c800543fab8960c7d155686'}, {'title': [], 'url': 'http://store.is.autonavi.com/showpic/4c7b68fbab5663850e492a05d52bb35e'}, {'title': [], 'url': 'http://store.is.autonavi.com/showpic/c02c8b3f8f1a7c4bf0e4d447c1006576'}]",090202,2,[],202,福田区,深圳泰康拜博车公庙口腔门诊部,"114.023932,22.534592",4008500755,[],B0FFGL173A
B02F37U9JJ,粤海街道海珠社区文心五路33号海岸大厦西座501-505,[],广东省,[],"{'cost': [], 'rating': []}",[],深圳市,医疗保健服务;专科医院;口腔医院,"[{'title': [], 'url': 'http://store.is.autonavi.com/showpic/eab07ee1a5dee66a70add20671e78aba'}, {'title': [], 'url': 'http://store.is.autonavi.com/showpic/e2c42e60cd247385dbd69575be9eef46'}, {'title': [], 'url': 'http://store.is.autonavi.com/showpic/49ae5fd92c8816c9ca15501f0f90d2ff'}]",090202,2,[],202,南山区,希玛爱康健口腔(南山海岸城店),"113.936584,22.518302",0755-61302631,[],B0FFI5HC6D
B02F38MEBG,西乡街道固成社区固戍一路236号茶联大厦301,[],广东省,[],"{'cost': [], 'rating': []}",[],深圳市,医疗保健服务;专科医院;口腔医院,"[{'title': [], 'url': 'http://store.is.autonavi.com/showpic/bbbe495e195b8287c391f4adb53f7cd8'}, {'title': [], 'url': 'https://aos-comment.amap.com/B0J0ZCC6UZ/comment/5180c9eb736a15b4ec22808f381a8393_2048_2048_80.jpg'}, {'title': [], 'url': 'https://aos-comment.amap.com/B0J0ZCC6UZ/headerImg/934add13b538eb42bfaeece659b8e844_2048_2048_80.jpg'}]",090202,2,[],202,宝安区,深圳华度口腔门诊部,"113.848509,22.596486",19129964756,[],B0J0ZCC6UZ
B0G0LCIOCQ,桃源街道福光社区留仙大道3288号宝能城(东区)G座H座J座地下1层9号商铺,[],广东省,[],"{'cost': [], 'rating': []}",[],深圳市,医疗保健服务;专科医院;口腔医院,"[{'title': [], 'url': 'http://store.is.autonavi.com/showpic/b47483a53c905f271080a6660b6c32c5'}, {'title': [], 'url': 'http://store.is.autonavi.com/showpic/6c24ee90e337d87b0dba34190cc153ad'}, {'title': [], 'url': 'http://store.is.autonavi.com/showpic/bf6781552b19ebb53836d8973c71b093'}]",090202,2,[],202,南山区,正夫口腔(西丽宝能城店),"113.997362,22.589802",13392184225,[],B0G21RAOUY
B02F37VPPH,西丽沙河西路3230号上沙河大厦,[],广东省,[],"{'cost': [], 'rating': []}",[],深圳市,医疗保健服务;综合医院;卫生院,"[{'title': [], 'url': 'http://store.is.autonavi.com/showpic/190b06cd4bf78e568ed3e0a05999f1d3'}, {'title': [], 'url': 'http://store.is.autonavi.com/showpic/aaf8eafafcc1381787a2daf778d9a771'}, {'title': [], 'url': 'http://store.is.autonavi.com/showpic/a4f7a3d828ec42711a3c02c9a1f9a37c'}]",090102,2,[],202,南山区,深圳市南山区医疗集团总部西丽社区健康服务中心,"113.954615,22.577516",0755-26620097;0755-26703457,[],B0FFF9ZBU2
[],福海街道塘尾社区万里路4-1号105,[],广东省,[],"{'cost': [], 'rating': []}",[],深圳市,医疗保健服务;专科医院;口腔医院,"[{'title': [], 'url': 'http://store.is.autonavi.com/showpic/024202cef54f4c784bc57b6aeeab5a9a'}, {'title': [], 'url': 'http://store.is.autonavi.com/showpic/069f067464b487aa2eb5f27287c56608'}, {'title': [], 'url': 'http://store.is.autonavi.com/showpic/80f91f2981f2ebc44a0f2ad81547c7b9'}]",090202,2,[],[],宝安区,河山口腔连锁(塘尾店),"113.812759,22.702860",0755-85254177,[],B0H0V71T5M
B0FFH6ZPX5,桂湾三路龙海商业广场北区(龙海家园10栋1层),[],广东省,[],"{'cost': [], 'rating': []}",[],深圳市,医疗保健服务;医疗保健服务场所;医疗保健服务场所,"[{'title': [], 'url': 'http://store.is.autonavi.com/showpic/be7daa8b752cb9248f1552c8b1c3704b'}, {'title': [], 'url': 'http://s-pic.oss-cn-beijing.aliyuncs.com/desensitize/deep/images/publish/154508768ef9e2ee0f5b18327ede1a73.jpg'}, {'title': [], 'url': 'http://store.is.autonavi.com/showpic/0ef4c15d5b0943d7bfa112b3029011ca'}]",090000,0,[],201,南山区,龙海家园社区健康服务中心,"113.905909,22.535935",0755-86566694;0755-86727535,[],B0FFI94FWT
[],福永街道怀德社区怀德南路85号怀德峰景北园F座铺,[],广东省,[],"{'cost': [], 'rating': []}",[],深圳市,医疗保健服务;专科医院;口腔医院,"[{'title': [], 'url': 'http://store.is.autonavi.com/showpic/e7cdddaea5dfb276254ed20ca61c67ef'}, {'title': [], 'url': 'http://store.is.autonavi.com/showpic/7c560b299c9344fb260c030c97a939ef'}, {'title': [], 'url': 'http://store.is.autonavi.com/showpic/b51ff08ebdf6dc2dc0a61c36143fe8ff'}]",090202,2,[],[],宝安区,河山口腔连锁(怀德店),"113.819417,22.663702",0755-85254177,[],B0I2PHKTGH
[],民治街道民强社区水尾新村11栋101-301,[],广东省,[],"{'cost': [], 'rating': []}",[],深圳市,医疗保健服务;专科医院;口腔医院,"[{'title': [], 'url': 'http://s-pic.oss-cn-beijing.aliyuncs.com/desensitize/deep/images/publish/a3e28372184e347aec09dbf54fecf079.jpg'}, {'title': [], 'url': 'http://s-pic.oss-cn-beijing.aliyuncs.com/desensitize/deep/images/publish/d0479764413f7bbd7eea989506d922e4.jpg'}, {'title': [], 'url': 'http://store.is.autonavi.com/showpic/79ded34a4c80ef1082dcd30e8468cbd6'}]",090202,2,[],[],龙华区,深圳润发口腔诊所,"114.038407,22.624848",18038105653,[],B0J25HS4DS
[],南园街道沙浦头西1012号一二层爱华路32号首层,[],广东省,[],"{'cost': '99.00', 'rating': '4.7'}",[],深圳市,医疗保健服务;医疗保健服务场所;医疗保健服务场所,"[{'title': [], 'url': 'http://store.is.autonavi.com/showpic/f57c04b2b35bce4bde5ad07fc15a8038'}, {'title': [], 'url': 'http://store.is.autonavi.com/showpic/65b0f43ad481f43ff23cc11819eee940'}, {'title': [], 'url': 'http://store.is.autonavi.com/showpic/fb8afd7b6b29f23568d03ee0330f013e'}]",090000,1,[],[],福田区,深圳有安康医院有限公司玖健门诊部(妇科),"114.091850,22.537069",18194015690,[],B0I6B7TM8F
B02F37UD0K,泽田路18号深圳市眼科医院内,[],广东省,[],"{'cost': [], 'rating': []}",[],深圳市,医疗保健服务;专科医院;眼科医院,"[{'title': [], 'url': 'http://store.is.autonavi.com/showpic/979d91ea92292f69e2bfd2a1240caf4c'}, {'title': [], 'url': 'http://store.is.autonavi.com/showpic/1d810b3e901d8cf9d9a72e7e0b126163'}, {'title': [], 'url': 'http://store.is.autonavi.com/showpic/9ca1a3c512f4be34ae52f4b448220904'}]",090203,2,[],317,福田区,深圳市眼科医院门诊,"114.014367,22.546077",0755-23959600,[],B0FFHZMA5K
[],松岗街道红星社区松新北一巷1号,[],广东省,[],"{'cost': [], 'rating': []}",[],深圳市,医疗保健服务;专科医院;口腔医院,"[{'title': [], 'url': 'http://store.is.autonavi.com/showpic/e92b680f195dd345c592800a0a6efc0a'}, {'title': [], 'url': 'http://store.is.autonavi.com/showpic/5ebb1b314f64e7a0d016207eba3f24ac'}, {'title': [], 'url': 'http://store.is.autonavi.com/showpic/270089d4ba2a961fb24c93515d8c4fdf'}]",090202,2,[],[],宝安区,深圳康尼雅口腔门诊部,"113.841606,22.766529",13380790275,[],B0FFG74FDA
[],粤海街道海珠社区海德三道天利中央广场A座4F,[],广东省,[],"{'cost': [], 'rating': []}",[],深圳市,医疗保健服务;诊所;诊所,"[{'title': [], 'url': 'http://store.is.autonavi.com/showpic/33af95df220ec03d8fbc0978c06ab256'}, {'title': [], 'url': 'http://store.is.autonavi.com/showpic/9bb5a269d0ede0a49e0257cc099db3f2'}, {'title': [], 'url': 'http://store.is.autonavi.com/showpic/3f8897b96fbfeebc4ee6d8f0a4c3dc8c'}]",090300,2,[],[],南山区,深圳云杉汉林门诊部,"113.934402,22.519173",4009655582,[],B0H3ZUFB23
B02F37TZCA,福田街道福安社区金田路3037号金中环国际商务大厦6层主楼601-A裙楼603-B,[],广东省,[],"{'cost': [], 'rating': []}",[],深圳市,医疗保健服务;专科医院;口腔医院,"[{'title': [], 'url': 'http://store.is.autonavi.com/showpic/ee59d40bd15ee6dfc653cde29dbaef85'}, {'title': [], 'url': 'http://store.is.autonavi.com/showpic/b331a14f03b74014c7faff38d2476aaf'}, {'title': [], 'url': 'http://store.is.autonavi.com/showpic/b4b551221a0233e64dbe65dcb853139e'}]",090202,2,[],202,福田区,深圳新浩口腔医院,"114.062582,22.534164",17727915909,[],B0IRZ76WIG
B0FFHLKBGO,南山街道玉泉路西侧麒麟花园B区6号楼2A-205,[],广东省,[],"{'cost': [], 'rating': []}",[],深圳市,医疗保健服务;专科医院;口腔医院,"[{'title': [], 'url': 'http://store.is.autonavi.com/showpic/5375153f29b070f52fdec9cb2a71317e'}, {'title': [], 'url': 'http://store.is.autonavi.com/showpic/6c24ee90e337d87b0dba34190cc153ad'}, {'title': [], 'url': 'http://store.is.autonavi.com/showpic/bf6781552b19ebb53836d8973c71b093'}]",090202,2,[],202,南山区,正夫口腔(马家龙店),"113.928016,22.546000",13392184225,[],B0FFGFQOM7
B02F309PMV,巴登街14号滨江大厦F3层,[],广东省,[],"{'cost': [], 'rating': []}",[],深圳市,医疗保健服务;诊所;诊所,"[{'title': [], 'url': 'http://store.is.autonavi.com/showpic/c4dadd8a8d0d3e8b0cec2beb0180f118'}, {'title': [], 'url': 'http://s-pic.oss-cn-beijing.aliyuncs.com/desensitize/deep/images/publish/66fd4a63287f9993022b3c70f40441f3.jpg'}]",090300,2,[],202,福田区,深圳君鑫门诊部,"114.102270,22.538296",17512039120,[],B0IRFS7JWG
B02F37UK78,深南大道7006号万科富春东方大厦18层,[],广东省,[],"{'cost': [], 'rating': '4.5'}",[],深圳市,医疗保健服务;专科医院;口腔医院,"[{'title': [], 'url': 'http://store.is.autonavi.com/showpic/4d76de91133d20eda7ffbae136554b09'}, {'title': [], 'url': 'https://aos-comment.amap.com/B0FFKQ7RNC/comment/0b4057a8678529a88ebf714e8ae4e82a_2048_2048_80.jpg'}, {'title': [], 'url': 'https://aos-comment.amap.com/B0FFKQ7RNC/comment/2e2740a85dc17d56c27026dcecad5e99_2048_2048_80.jpg'}]",090202,2,[],202,福田区,同步齿科·种植正畸口腔连锁(同创门诊),"114.025798,22.537373",4008550755,[],B0FFKQ7RNC
B02F37UGC3,渔农社区裕亨路38号裕亨花园裕亨大厦103,[],广东省,[],"{'cost': [], 'rating': []}",[],深圳市,生活服务;生活服务场所;生活服务场所,"[{'title': [], 'url': 'http://store.is.autonavi.com/showpic/4855fd0c11e3c5caeb9d32d5806d2c6f'}, {'title': [], 'url': 'http://store.is.autonavi.com/showpic/ede73927561ab31c3836d401fee75604'}, {'title': [], 'url': 'https://aos-comment.amap.com/B0KB473873/comment/178414db16825f0054190d9db28310ff_2048_2048_80.jpg'}]",070000,1,[],320,福田区,希玛爱康健口腔(福田口岸裕亨店),"114.072227,22.516880",0755-61302631,[],B0KB473873
B02F300853,桂园街道桂木园社区宝安南路2018号1-3层部分,[],广东省,[],"{'cost': [], 'rating': '4.4'}",[],深圳市,生活服务;美容美发店;美容美发店,"[{'title': [], 'url': 'https://aos-comment.amap.com/B0I11U8OFL/headerImg/34eb56432a8600d82ed0001dbf92657a_2048_2048_80.jpg'}, {'title': [], 'url': 'https://aos-comment.amap.com/B0I11U8OFL/comment/342a5dc14edd6c630bf37802789b7b79_2048_2048_80.jpg'}, {'title': [], 'url': 'http://store.is.autonavi.com/showpic/95037bc0f9201203a7717d8a8da6253e'}]",071100,1,[],202,罗湖区,深圳九州医疗美容门诊部,"114.111180,22.544265",15338781557,[],B0I11U8OFL
B02F38JF90,布澜路29号深圳市第三人民医院,[],广东省,[],"{'cost': [], 'rating': []}",[],深圳市,医疗保健服务;综合医院;三级甲等医院,"[{'title': [], 'url': 'http://store.is.autonavi.com/showpic/8525f27e7da81248756f4216ad68e8d1'}, {'title': [], 'url': 'https://aos-comment.amap.com/B0FFHG8M94/headerImg/037d53db6b723931a561a9bf11d0446e_2048_2048_80.jpg'}, {'title': [], 'url': 'http://store.is.autonavi.com/showpic/c8ccf1f358fb5138da9fec78a000b41e'}]",090101,2,[],317,龙岗区,深圳市第三人民医院门诊部,"114.129343,22.635359",[],[],B02F38PEIG
B0FFGS2QMD,桃源街道塘朗社区学苑大道1098号深圳大学总医院,[],广东省,[],"{'cost': [], 'rating': []}",[],深圳市,医疗保健服务;综合医院;综合医院,"[{'title': [], 'url': 'http://store.is.autonavi.com/showpic/2cda9c9accbbf4d766a720d4349483f7'}, {'title': [], 'url': 'http://store.is.autonavi.com/showpic/2a77fea1f5cfb345a00f69cada92151b'}, {'title': [], 'url': 'https://aos-comment.amap.com/B0FFKAVTYF/comment/2a96a2b91c6e15a635356610eb68a5c2_2048_2048_80.jpg'}]",090100,2,[],317,南山区,深圳大学总医院门诊部,"113.987615,22.594352",0755-21839888,[],B0FFKAVTYF
B0FFF2HORM,民塘路与金龙路交叉口书香门第·上河坊购物广场1006,[],广东省,[],"{'cost': [], 'rating': []}",[],深圳市,医疗保健服务;诊所;诊所,"[{'title': [], 'url': 'http://store.is.autonavi.com/showpic/49f28392bd94e50bb6398b3f1b9d019a'}]",090300,2,[],201,龙华区,深圳九味中医门诊部-上河坊总部,"114.047046,22.598654",0755-28131299,[],B0FFHB89R7
B02F300372,桂园街道笋岗东路3013号长虹大厦1-4楼,[],广东省,[],"{'cost': [], 'rating': []}",[],深圳市,医疗保健服务;专科医院;口腔医院,"[{'title': [], 'url': 'https://aos-comment.amap.com/B0FFH0NE3H/comment/dc5e274f842a0937bb3bd5edc6114175_2048_2048_80.jpg'}, {'title': [], 'url': 'https://aos-comment.amap.com/B0FFH0NE3H/comment/f6db59aae0c57e1434e0f2dbece89d33_2048_2048_80.jpg'}, {'title': [], 'url': 'https://aos-comment.amap.com/B0FFH0NE3H/comment/da02913463e1146a317a092b2fe7f81e_2048_2048_80.jpg'}]",090202,2,[],202,罗湖区,深圳鹏程医院(口腔),"114.107577,22.554993",18948167896,[],B0FFH0NE3H
B02F37VXCI,福保街道新港社区福强路3004号中港城新钰阁新鼎阁新银阁4AL412-3L413,[],广东省,[],"{'cost': [], 'rating': []}",[],深圳市,医疗保健服务;医疗保健服务场所;医疗保健服务场所,"[{'title': [], 'url': 'https://aos-comment.amap.com/B0J2DSYDKQ/comment/5b4d219f3829d6df4ce9c9f4e80f849d_2048_2048_80.jpg'}, {'title': [], 'url': 'https://aos-comment.amap.com/B0J2DSYDKQ/comment/237d146d364bfc85ad5e4f0a64532661_2048_2048_80.jpg'}, {'title': [], 'url': 'https://aos-comment.amap.com/B0J2DSYDKQ/comment/526dccd8f364e1688d50a04e55845f25_2048_2048_80.jpg'}]",090000,1,[],202,福田区,同步齿科·同源口腔(益田总院),"114.053357,22.516305",18188617596,[],B0J2DSYDKQ
B0FFH0OZ91,梅林街道下梅社区虹湾花园1栋二层212,[],广东省,[],"{'cost': [], 'rating': []}",[],深圳市,医疗保健服务;专科医院;口腔医院,"[{'title': [], 'url': 'https://aos-comment.amap.com/B0G3LXJ15C/comment/cb077b707c0f2a78d9d368eaee807931_2048_2048_80.jpg'}, {'title': [], 'url': 'https://aos-comment.amap.com/B0G3LXJ15C/comment/4bfbd23d410d0f731b675e8d54747ae1_2048_2048_80.jpg'}, {'title': [], 'url': 'https://aos-comment.amap.com/B0G3LXJ15C/comment/1d22f802fcd62fb2cb662c7c75840f7f_2048_2048_80.jpg'}]",090202,2,[],202,福田区,护芽口腔·种植修复矫正中心(梅林店),"114.039313,22.560435",19147804297,[],B0G3LXJ15C
B02F37U84N,粤海街道高新区社区高新南七道018号高新工业村R3-B栋01层102A,[],广东省,[],"{'cost': [], 'rating': []}",[],深圳市,医疗保健服务;专科医院;口腔医院,"[{'title': [], 'url': 'https://aos-comment.amap.com/B0JU65ODWO/headerImg/979f418acf60fdf8f8cf344c2907a49b_2048_2048_80.jpg'}, {'title': [], 'url': 'https://aos-comment.amap.com/B0JU65ODWO/headerImg/2fab6a11e3b12c765dbf12e203320c1a_2048_2048_80.jpg'}, {'title': [], 'url': 'https://aos-comment.amap.com/B0JU65ODWO/comment/fdf205cc1b6760f27899bf67bf633d19_2048_2048_80.jpg'}]",090202,2,[],202,南山区,深圳微笑时代口腔门诊部,"113.945285,22.534704",0755-26923937,[],B0JU65ODWO
[],莲花街道景华社区红荔西路7002号第一世界广场A座18DE,[],广东省,[],"{'cost': [], 'rating': []}",[],深圳市,医疗保健服务;专科医院;口腔医院,"[{'title': [], 'url': 'http://store.is.autonavi.com/showpic/b19b4cf9b45dc3b4d587fa3fb53272aa'}, {'title': [], 'url': 'http://store.is.autonavi.com/showpic/f66a4de5b3701e78fa42b66f77d6433b'}, {'title': [], 'url': 'http://store.is.autonavi.com/showpic/51484b47efcc321b3f246e7d77e0c2e2'}]",090202,2,[],[],福田区,深圳笑美博士口腔门诊部,"114.048518,22.548356",15679215202;18028769096,[],B0IUNLD8P8
B02F38MTMC,裕安二路25号深圳市宝安中医院(集团),[],广东省,[],"{'cost': [], 'rating': []}",[],深圳市,医疗保健服务;综合医院;三级甲等医院,"[{'title': [], 'url': 'http://store.is.autonavi.com/showpic/6cb4f5615e7399fe4d6095646174ab85'}]",090101,2,[],317,宝安区,深圳市宝安中医院(集团)西院区门诊楼,"113.898710,22.571107",[],[],B0FFIQDKT0
[],解放路3015(大剧院地铁站D口步行340米),[],广东省,[],"{'cost': [], 'rating': []}",[],深圳市,医疗保健服务;诊所;诊所,"[{'title': [], 'url': 'http://store.is.autonavi.com/showpic/6507e2652f5d0e3da13edb81221eb134'}]",090300,2,[],[],罗湖区,深圳市中医院(门诊部),"114.112403,22.543821",0755-25578220;0755-82228235,[],B0FFHFBO4E
[],龙城街道愉园社区和谐路12号御景蓝湾2栋商铺106号,[],广东省,[],"{'cost': [], 'rating': []}",[],深圳市,医疗保健服务;专科医院;口腔医院,"[{'title': [], 'url': 'https://aos-comment.amap.com/B0GD1ZMFP7/comment/652fb706345bc8895cac3790affb0741_2048_2048_80.jpg'}, {'title': [], 'url': 'https://aos-comment.amap.com/B0GD1ZMFP7/comment/6436d3548b415e1dbb1da190227bdfa7_2048_2048_80.jpg'}, {'title': [], 'url': 'https://aos-comment.amap.com/B0GD1ZMFP7/comment/e3807c656dd7b38c62f725cfe7eb87ac_2048_2048_80.jpg'}]",090202,2,[],[],龙岗区,雅医生口腔,"114.226769,22.722475",15919905864,[],B0GD1ZMFP7
B02F3006F6,益田路7019号深圳市儿童医院,[],广东省,[],"{'cost': [], 'rating': []}",[],深圳市,医疗保健服务;专科医院;专科医院,"[{'title': [], 'url': 'http://store.is.autonavi.com/showpic/7f5d311d0b01812c23a899e2fbd66645'}, {'title': [], 'url': 'http://s-pic.oss-cn-beijing.aliyuncs.com/desensitize/deep/images/publish/742c754a0eb882632806fadb91aa9f20.jpg'}, {'title': [], 'url': 'http://store.is.autonavi.com/showpic/1106d35052cf5544c0a8631c0ea570c1'}]",090200,2,[],307,福田区,深圳市儿童医院门诊大厅,"114.054926,22.547295",0755-83008301,[],B0FFH1EKTI
[],新桥街道上寮社区广深路(沙井段)110号沙穗酒店110-3,[],广东省,[],"{'cost': [], 'rating': []}",[],深圳市,医疗保健服务;专科医院;口腔医院,"[{'title': [], 'url': 'http://store.is.autonavi.com/showpic/14602f5362e68e024bde91bcf52d67d9'}, {'title': [], 'url': 'http://store.is.autonavi.com/showpic/2311478ab437909cbcd9c96b2ae5f41a'}, {'title': [], 'url': 'http://store.is.autonavi.com/showpic/68580b217aea228ecfeba7bc2f8de6c4'}]",090202,2,[],[],宝安区,河山口腔连锁(沙井店),"113.840500,22.720969",0755-85254177,[],B0FFH5FY6G
[],坂田街道五和社区五和大道92号201,[],广东省,[],"{'cost': [], 'rating': []}",[],深圳市,医疗保健服务;专科医院;口腔医院,"[{'title': [], 'url': 'http://store.is.autonavi.com/showpic/6c69f2cecb92101581e56abb22decbf3'}, {'title': [], 'url': 'http://store.is.autonavi.com/showpic/e7ea3f07a55484ec65065863b57f9f43'}, {'title': [], 'url': 'http://store.is.autonavi.com/showpic/f5251fec569c1073f9450d09f11b9534'}]",090202,2,[],[],龙岗区,和乐口腔·种植正畸中心,"114.061080,22.623809",19129309991;19928804949,[],B0H0MCMQ37
[],粤海街道大冲社区大冲新城花园2栋1A1B1C1E1F座1-013,[],广东省,[],"{'cost': [], 'rating': []}",[],深圳市,医疗保健服务;专科医院;口腔医院,"[{'title': [], 'url': 'https://aos-comment.amap.com/B0J6JC8FNQ/comment/d686e7a7b5ebd2c4e6498e5a261554b0_2048_2048_80.jpg'}, {'title': [], 'url': 'http://s-pic.oss-cn-beijing.aliyuncs.com/desensitize/deep/images/publish/7e43c6eff3608e9fd95e0fdc636ef080.jpg'}, {'title': [], 'url': 'http://store.is.autonavi.com/showpic/2e9b7ab1c1f2e9f1c03bc2d55f2a04e7'}]",090202,2,[],[],南山区,深圳合诺大冲口腔门诊部,"113.950015,22.542678",18926466691,[],B0J6JC8FNQ
B0G0V6JCJQ,海山街道深盐路东南侧壹海城(一区)1栋304、305,[],广东省,[],"{'cost': [], 'rating': []}",[],深圳市,医疗保健服务;专科医院;口腔医院,"[{'title': [], 'url': 'http://store.is.autonavi.com/showpic/3d9120155f5be717dce66243652167f4'}, {'title': [], 'url': 'http://store.is.autonavi.com/showpic/5d746c19e38b6ad0a082474550e3ff3f'}, {'title': [], 'url': 'http://store.is.autonavi.com/showpic/275ce4fc8a64d403664a23cc24cf64f9'}]",090202,2,[],202,盐田区,诺德齿科连锁(盐田总院),"114.237264,22.554472",0755-22740382,[],B0FFHSKSEW
B02F37T8SF,沙头街道天安社区深南大道6015号本元大厦01B02B,[],广东省,[],"{'cost': [], 'rating': []}",[],深圳市,医疗保健服务;专科医院;整形美容,"[{'title': [], 'url': 'http://store.is.autonavi.com/showpic/15e721470843003705ec4502d9451a40'}, {'title': [], 'url': 'http://store.is.autonavi.com/showpic/03c80438c673af15c6ddb602fe7d0d02'}, {'title': [], 'url': 'http://store.is.autonavi.com/showpic/c14447c5130fd31125d298cd188c3b95'}]",090201,2,[],202,福田区,深圳雅尊医疗美容门诊部,"114.026222,22.535237",18025339293;18138851536,[],B0FFMA0LQX
B02F38J0HY,龙城街道龙翔大道9009号珠江广场珠江国际中心7楼ABCDLJK单元,[],广东省,[],"{'cost': [], 'rating': []}",[],深圳市,医疗保健服务;专科医院;整形美容,"[{'title': [], 'url': 'https://aos-comment.amap.com/B0FFF3UAJN/headerImg/6e93d6ec8a776219d3b76f98c5e5b306_2048_2048_80.jpg'}, {'title': [], 'url': 'http://store.is.autonavi.com/showpic/6e1813d04368e9a29273fc09863d2796'}, {'title': [], 'url': 'http://store.is.autonavi.com/showpic/3fd2a6faa437840cbc015025f4b237ed'}]",090201,2,[],202,龙岗区,深圳丽港丽格医疗美容门诊部,"114.250367,22.722436",13316991471;18923839210;18923866290;18926556210,[],B0FFF3UAJN
B02F305KXG,笋岗西路3002号深圳市第二人民医院内,[],广东省,[],"{'cost': [], 'rating': []}",[],深圳市,医疗保健服务;综合医院;三级甲等医院,"[{'title': [], 'url': 'http://s-pic.oss-cn-beijing.aliyuncs.com/desensitize/deep/images/publish/89e0424498dc5b44e38e6559b74efee5.jpg'}, {'title': [], 'url': 'http://store.is.autonavi.com/showpic/66982127558137cf6be9c18e73d123f4'}, {'title': [], 'url': 'http://s-pic.oss-cn-beijing.aliyuncs.com/desensitize/deep/images/publish/08619312fe5081bf63cbab186120c139.jpg'}]",090101,2,[],317,福田区,深圳市第二人民医院门诊部,"114.085714,22.556361",[],[],B02F38PEPO
B0FFII5OQZ,民治街道龙塘社区ATMALL上塘荟商场L1层7136(奈雪的茶楼上),[],广东省,[],"{'cost': [], 'rating': []}",[],深圳市,医疗保健服务;专科医院;口腔医院,"[{'title': [], 'url': 'http://s-pic.oss-cn-beijing.aliyuncs.com/desensitize/deep/images/publish/8611d2ddab2613af70a8bb375d70e39a.jpg'}, {'title': [], 'url': 'http://store.is.autonavi.com/showpic/ef759aa731a7b691d040775636d1df5e'}, {'title': [], 'url': 'https://aos-comment.amap.com/B0KBL75LGV/comment/d2fcfefa2fdc4e7f5fa1cb317f858e4f_2048_2048_80.jpg'}]",090202,2,[],202,龙华区,护芽口腔·种植修复矫正中心(龙华店),"114.014605,22.636317",19925351082,[],B0KBL75LGV
B0FFK1N485,东晓街道独树社区布心路3008号水贝珠宝总部大厦一层IBC MALLL1层02号商铺,[],广东省,[],"{'cost': [], 'rating': []}",[],深圳市,医疗保健服务;专科医院;口腔医院,"[{'title': [], 'url': 'http://store.is.autonavi.com/showpic/a2ee9835f43be52b612bc4576bdc97b2'}, {'title': [], 'url': 'http://store.is.autonavi.com/showpic/6c24ee90e337d87b0dba34190cc153ad'}, {'title': [], 'url': 'http://store.is.autonavi.com/showpic/bf6781552b19ebb53836d8973c71b093'}]",090202,2,[],202,罗湖区,正夫口腔(水贝IBC店),"114.125104,22.574841",13392184225,[],B0G2TC6P0T
[],新桥街道上星社区华凌路21号,[],广东省,[],"{'cost': [], 'rating': []}",[],深圳市,医疗保健服务;诊所;诊所,"[{'title': [], 'url': 'http://store.is.autonavi.com/showpic/c2bff595e5965b04f2a42575af67d730'}, {'title': [], 'url': 'https://aos-comment.amap.com/B0FFHGUTU5/comment/b0820928e1c5e87a80464c9d0fec80fc_2048_2048_80.jpg'}, {'title': [], 'url': 'https://aos-comment.amap.com/B0FFHGUTU5/comment/4ba453ab2609545a9c3d67a45afeafc7_2048_2048_80.jpg'}]",090300,2,[],[],宝安区,深圳上星门诊部,"113.833150,22.730560",0755-27247790;0755-27252383,[],B0FFHGUTU5
B02F37UKUX,福田街道岗厦社区福华三路88号财富大厦4层101号,[],广东省,[],"{'cost': [], 'rating': '4.4'}",[],深圳市,医疗保健服务;专科医院;整形美容,"[{'title': [], 'url': 'http://store.is.autonavi.com/showpic/728d667c54d5a2ee409ff450b9945dc2'}, {'title': [], 'url': 'http://store.is.autonavi.com/showpic/b714ea531853dfa414777b83f1713d8a'}, {'title': [], 'url': 'http://store.is.autonavi.com/showpic/201bc50616db5ad124dbcd2ba80b37bf'}]",090201,2,[],202,福田区,深圳千氧医疗美容门诊部,"114.063950,22.533389",0755-89666689,[],B0IUOS63ST
B02F3006F6,益田路7019号深圳市儿童医院,[],广东省,[],"{'cost': [], 'rating': []}",[],深圳市,医疗保健服务;综合医院;三级甲等医院,"[{'title': [], 'url': 'https://aos-comment.amap.com/B0FFH0ZHEM/headerImg/31c3ff3ab59d35126ebb3c2904a70d22_2048_2048_80.jpg'}, {'title': [], 'url': 'http://store.is.autonavi.com/showpic/eb2a7657ba3da5d063df0dd9a0221bf3'}, {'title': [], 'url': 'http://s-pic.oss-cn-beijing.aliyuncs.com/desensitize/deep/images/publish/7ac291974281d4aa5f975c84a580398f.jpg'}]",090101,2,[],317,福田区,深圳市儿童医院门诊楼,"114.054952,22.547433",[],[],B0FFH0ZHEM
B02F38SKYK,翠岗西路117号富德商务大厦F1层,[],广东省,[],"{'cost': [], 'rating': []}",[],深圳市,医疗保健服务;综合医院;卫生院,"[{'title': [], 'url': 'http://s-pic.oss-cn-beijing.aliyuncs.com/desensitize/deep/images/publish/cfbf4d597b876d04854c73f95604b95d.jpg'}, {'title': [], 'url': 'https://aos-comment.amap.com/B0FFLLKM1U/comment/9d85a1fe21e9cbee7477047198c32336_2048_2048_80.jpg'}]",090102,2,[],202,宝安区,怀德社康服务中心,"113.817843,22.662939",0755-27331078,[],B0FFLLKM1U
B02F3004B9,宝岗路23号笋岗大厦1层(笋岗地铁站C2口步行60米),[],广东省,[],"{'cost': [], 'rating': []}",[],深圳市,医疗保健服务;综合医院;卫生院,"[{'title': [], 'url': 'http://s-pic.oss-cn-beijing.aliyuncs.com/desensitize/deep/images/publish/da546fc2c7011e6cd9024a198103296c.jpg'}, {'title': [], 'url': 'http://store.is.autonavi.com/showpic/ed50970a6a7a58f4f444f808e5d285f3'}]",090102,2,[],202,罗湖区,罗湖医院集团笋岗街道社区健康服务中心,"114.112000,22.564136",0755-82260329,[],B0FFHPS7JP
B0FFG0U7JP,解放路3015号,[],广东省,[],"{'cost': [], 'rating': []}",[],深圳市,医疗保健服务;诊所;诊所,"[{'title': [], 'url': 'http://store.is.autonavi.com/showpic/9f30c74a24ee5aa2aa90237b0d78631c'}, {'title': [], 'url': 'http://store.is.autonavi.com/showpic/56e79c0ea31007f5f3ee5e34'}, {'title': [], 'url': 'http://store.is.autonavi.com/showpic/9ab950ea7559aab96951dd1b819f0846'}]",090300,2,[],307,罗湖区,深圳市中医院第一门诊部,"114.112818,22.543886",0755-25578220,[],B02F37RN2O
[],爱国路3060号,[],广东省,[],"{'cost': [], 'rating': []}",[],深圳市,医疗保健服务;专科医院;专科医院,"[{'title': [], 'url': 'https://aos-comment.amap.com/B0FFF2C3OX/comment/fecc37c12b4168da3dbb84ba027ee43e_2048_2048_80.jpg'}, {'title': [], 'url': 'https://aos-comment.amap.com/B0FFF2C3OX/comment/81c1ce63ed0666c05abd943f0b88f780_2048_2048_80.jpg'}, {'title': [], 'url': 'https://aos-comment.amap.com/B0FFF2C3OX/comment/3120fde53a71acd5b4b28157e675782d_2048_2048_80.jpg'}]",090200,2,[],[],罗湖区,深圳新兴皮肤病专科门诊部,"114.143445,22.566298",0755-25661122,[],B0FFF2C3OX
[],坂田街道坂田社区吉华路571号202,[],广东省,[],"{'cost': [], 'rating': []}",[],深圳市,医疗保健服务;专科医院;口腔医院,"[{'title': [], 'url': 'https://aos-comment.amap.com/B0JAAZJ8OQ/comment/7124ea16c4b54c0bd23253945d7145ec_2048_2048_80.jpg'}, {'title': [], 'url': 'https://aos-comment.amap.com/B0JAAZJ8OQ/comment/27a1b6fafab82c3ff9ce45cc06f18b1d_2048_2048_80.jpg'}, {'title': [], 'url': 'https://aos-comment.amap.com/B0JAAZJ8OQ/comment/a7d6aa7c6cfbe17af5f08134f2eb46bb_2048_2048_80.jpg'}]",090202,2,[],[],龙岗区,深圳八方口腔门诊部,"114.069134,22.636699",18666660403,[],B0JAAZJ8OQ
B0GRKC6NGK,民治街道大岭社区红山6979二期8栋25座202,[],广东省,[],"{'cost': [], 'rating': []}",[],深圳市,医疗保健服务;专科医院;口腔医院,"[{'title': [], 'url': 'http://store.is.autonavi.com/showpic/4849e1eeda645257fc60f115b4e433e4'}, {'title': [], 'url': 'http://store.is.autonavi.com/showpic/a56108764ffc4788159c3e2d241a69a8'}, {'title': [], 'url': 'http://store.is.autonavi.com/showpic/e85fe84aa577eb0fa125f6e3767366a5'}]",090202,2,[],202,龙华区,希玛爱康健口腔(龙华红山店),"114.027206,22.620939",0755-61302631,[],B0KUJHR88F
B02F37VDVU,布心路2021号(太安地铁站A口步行280米),[],广东省,[],"{'cost': [], 'rating': []}",[],深圳市,医疗保健服务;专科医院;专科医院,"[{'title': [], 'url': 'http://store.is.autonavi.com/showpic/9bd0a779ad933dcf12608a39e533ef76'}, {'title': [], 'url': 'http://store.is.autonavi.com/showpic/7dab7ddf50ef9f3ef9e52f8b3ba3442a'}]",090200,2,[],0,罗湖区,深圳市慢性病防治中心门诊部,"114.135190,22.574543",0755-25503863;0755-25617222,[],B02F38SKDF
B0J6SKXLBQ,黄贝街道新谊社区爱国路1002号轻工大厦5层501,[],广东省,[],"{'cost': [], 'rating': []}",[],深圳市,医疗保健服务;医疗保健服务场所;医疗保健服务场所,"[{'title': [], 'url': 'https://aos-comment.amap.com/B0JBKCLUHB/comment/44b8cfb9108d7434a1cec214f486672b_2048_2048_80.jpg'}, {'title': [], 'url': 'https://aos-comment.amap.com/B0JBKCLUHB/comment/39f8cdaacccc020b2fd71276afc82564_2048_2048_80.jpg'}, {'title': [], 'url': 'https://aos-comment.amap.com/B0JBKCLUHB/comment/3e055351ccfe56fbdc2a09a36f739e5f_2048_2048_80.jpg'}]",090000,1,[],202,罗湖区,同步齿科·同盛口腔(黄贝岭店),"114.131739,22.550906",18188617596;18988772408,[],B0JBKCLUHB
B02F38S8YC,东门智选假日酒店(爱国路店)4楼,[],广东省,[],"{'cost': [], 'rating': []}",[],深圳市,医疗保健服务;诊所;诊所,"[{'title': [], 'url': 'http://store.is.autonavi.com/showpic/6cc22dede907012f679c226e877c6d2a'}, {'title': [], 'url': 'http://store.is.autonavi.com/showpic/886538af8eadf0b864f2970653d89eb5'}, {'title': [], 'url': 'http://store.is.autonavi.com/showpic/52891e1285951283d2387e50a6aa72e7'}]",090300,2,[],202,罗湖区,深圳华影门诊部,"114.133247,22.552918",0755-25162351;15099904295,[],B0FFM7WIEL
B02F38IHAD,友谊路47号深圳市罗湖区人民医院,[],广东省,[],"{'cost': [], 'rating': []}",[],深圳市,医疗保健服务;综合医院;卫生院,"[{'title': [], 'url': 'http://store.is.autonavi.com/showpic/fec0661a95274755c79dec7be8276b51'}, {'title': [], 'url': 'http://store.is.autonavi.com/showpic/a33ea631f18cb76ae70c226ac938a64c'}]",090102,2,[],307,罗湖区,罗湖医院集团东门社康中心,"114.121383,22.547605",0755-82222589,[],B0FFGBHPD5
B02F38IRJ4,龙城街道吉祥社区龙翔大道7188号,[],广东省,[],"{'cost': [], 'rating': []}",[],深圳市,医疗保健服务;专科医院;口腔医院,"[{'title': [], 'url': 'https://aos-comment.amap.com/B0HKLCUQJG/comment/ca6fe15c0546ce2ace0853100d73fb2f_2048_2048_80.jpg'}, {'title': [], 'url': 'http://store.is.autonavi.com/showpic/30792954fc4c3e5ffc6eb51def8add79'}, {'title': [], 'url': 'https://aos-comment.amap.com/B0HKLCUQJG/comment/495b325aed007f4b76dbbd16a8de2b6d_2048_2048_80.jpg'}]",090202,2,[],202,龙岗区,汪洋齿科时代口腔门诊部,"114.242733,22.713321",13631619590,[],B0HKLCUQJG
[],宝安大道金泓凯旋城一期4栋117号,[],广东省,[],"{'cost': [], 'rating': []}",[],深圳市,医疗保健服务;综合医院;卫生院,"[{'title': [], 'url': 'http://store.is.autonavi.com/showpic/965e3fd3bceb6799853bea30f4916f31'}, {'title': [], 'url': 'http://store.is.autonavi.com/showpic/82460f4d2e170413d380ee76ed947b71'}]",090102,2,[],[],宝安区,宝安区中医院凯旋社区健康服务中心,"113.899325,22.549497",0755-29113998;0755-29636868,[],B0FFGYQ9AI
B0FFG2DXVV,文心三路与海德二道交汇口中洲控股金融中心B栋14层,[],广东省,[],"{'cost': [], 'rating': []}",[],深圳市,医疗保健服务;专科医院;口腔医院,"[{'title': [], 'url': 'http://store.is.autonavi.com/showpic/d122a3b2b335fc4c3bb93bdd40ba5aa7'}, {'title': [], 'url': 'http://store.is.autonavi.com/showpic/3167091fd33cf06dd138cc46de03fc83'}, {'title': [], 'url': 'http://store.is.autonavi.com/showpic/2b4bd5662a4b2ac6f351a6d4b710c33c'}]",090202,2,[],202,南山区,慈恩齿科国际部(中洲门诊),"113.933975,22.517712",0755-86534378;0755-86544577,[],B0G1LS5VOI
B0IDGHT4IN,侨香路4080号侨城坊11栋2层,[],广东省,[],"{'cost': [], 'rating': []}",[],深圳市,医疗保健服务;专科医院;口腔医院,"[{'title': [], 'url': 'http://store.is.autonavi.com/showpic/efb7a70d41cf50729121118c7e7ff251'}, {'title': [], 'url': 'http://s-pic.oss-cn-beijing.aliyuncs.com/desensitize/deep/images/publish/e8c5db9adc3137b1fe59b7bbc01a71bd.jpg'}, {'title': [], 'url': 'http://store.is.autonavi.com/showpic/8480418eac75783aa3c382ddc3d711ad'}]",090202,2,[],202,南山区,深圳侨城菲诺口腔门诊部,"113.980819,22.551672",0755-86728130,[],B0FFKHCE4X
B0FFHXQPR5,民治街道大岭社区中梅路润达圆庭南街铺107,[],广东省,[],"{'cost': [], 'rating': []}",[],深圳市,医疗保健服务;专科医院;口腔医院,"[{'title': [], 'url': 'http://store.is.autonavi.com/showpic/ee6dbc53bd4fe90def71f4c163c34357'}, {'title': [], 'url': 'http://store.is.autonavi.com/showpic/27de151601b2712c72a81bbb5597dfd7'}, {'title': [], 'url': 'http://s-pic.oss-cn-beijing.aliyuncs.com/desensitize/deep/images/publish/fb9874e48cea25f6c6d6596324737df8.jpg'}]",090202,2,[],202,龙华区,博森口腔医院,"114.022600,22.625423",13689522552,[],B0GRK95VTI
B0JBXLWV81,小来来商业广场(南油地铁站C1口旁),[],广东省,[],"{'cost': [], 'rating': []}",[],深圳市,医疗保健服务;诊所;诊所,"[{'title': [], 'url': 'http://store.is.autonavi.com/showpic/afd8616dd932be3f96a4f80726ec5a10'}, {'title': [], 'url': 'http://store.is.autonavi.com/showpic/20eaa41bbf8f232e08b83da49267f355'}, {'title': [], 'url': 'http://store.is.autonavi.com/showpic/a5d6af1e88c511268d94cf12b6bd2083'}]",090300,2,[],202,南山区,广誉远中医馆,"113.926713,22.511110",[],[],B0JDXPJ54C
B0IDGHT4IM,沙河街道侨香路4080号侨城坊T6栋3楼,[],广东省,[],"{'cost': [], 'rating': '4.5'}",[],深圳市,医疗保健服务;医疗保健服务场所;医疗保健服务场所,"[{'title': [], 'url': 'https://aos-comment.amap.com/B0J13HNTOD/headerImg/3ed0322dcfdc463a2d85bd027911a070_2048_2048_80.jpg'}, {'title': [], 'url': 'http://store.is.autonavi.com/showpic/44ee06a51aca57430c04bd88bdf49aac'}, {'title': [], 'url': 'http://store.is.autonavi.com/showpic/6c98c1dc4a6a89f02e0961b78a1fced4'}]",090000,1,[],202,南山区,深圳济美仁医疗美容门诊部,"113.980797,22.552945",0755-26928745,[],B0J13HNTOD
[],沙河西路深圳湾科技生态园7栋B座4-5楼,[],广东省,[],"{'cost': [], 'rating': []}",[],深圳市,医疗保健服务;诊所;诊所,"[{'title': [], 'url': 'http://store.is.autonavi.com/showpic/c3b57e0ae2eb0065012a33b35049a33c'}, {'title': [], 'url': 'http://store.is.autonavi.com/showpic/ddadcade31c160c80ac77c7ca9341fb6'}]",090300,2,[],[],南山区,深圳平安粤海门诊部,"113.954369,22.530958",18675578885,[],B0IBYURTSJ
[],白石三道38号SlC深湾睿云中心8楼,[],广东省,[],"{'cost': [], 'rating': []}",[],深圳市,医疗保健服务;诊所;诊所,"[{'title': [], 'url': 'http://store.is.autonavi.com/showpic/d00bfc6ca82da3c58411794f1342513a'}, {'title': [], 'url': 'http://store.is.autonavi.com/showpic/7218f60d557df6805d541f4b39663359'}, {'title': [], 'url': 'https://aos-comment.amap.com/B0J0U75WLU/headerImg/d47bacc7eaf1ff669d9d32221e3a69cd_2048_2048_80.jpg'}]",090300,2,[],[],南山区,深圳丽颖丽驻兰门诊部,"113.970513,22.524118",16625570843,[],B0J0U75WLU
B0FFLJEVED,福城街道新和社区松元围居民小组72号201,[],广东省,[],"{'cost': [], 'rating': []}",[],深圳市,医疗保健服务;专科医院;口腔医院,"[{'title': [], 'url': 'http://store.is.autonavi.com/showpic/edfdc29d80137a0c07fd5698445d0514'}, {'title': [], 'url': 'https://aos-comment.amap.com/B0I6JU18VC/comment/51da1f0717b3ae00526a0df7c413d5e0_2048_2048_80.jpg'}, {'title': [], 'url': 'https://aos-comment.amap.com/B0I6JU18VC/comment/306b03d3a9841747dfde5afe0b68ad73_2048_2048_80.jpg'}]",090202,2,[],320,龙华区,诺德齿科连锁(观澜店),"114.044324,22.711006",0755-22740382,[],B0I6JU18VC
[],南园街道巴登社区红岭南路1039号红岭大厦45栋105,[],广东省,[],"{'cost': [], 'rating': []}",[],深圳市,医疗保健服务;专科医院;口腔医院,"[{'title': [], 'url': 'http://store.is.autonavi.com/showpic/6b8dd6ed6f783f37ca197fd61bcbe244'}, {'title': [], 'url': 'http://store.is.autonavi.com/showpic/79eb72e6422a0f4dad025bc2c92d7880'}, {'title': [], 'url': 'https://aos-comment.amap.com/B0I6VM4GDB/comment/b00d1e2e13faa2f273c01de470ba8e68_2048_2048_80.jpg'}]",090202,2,[],[],福田区,海涛口腔,"114.104517,22.539224",13612857229,[],B0I6VM4GDB
[],龙岗大道布吉街道知春里2号楼B栋商铺101-102-103号,[],广东省,[],"{'cost': [], 'rating': []}",[],深圳市,医疗保健服务;专科医院;口腔医院,"[{'title': [], 'url': 'http://store.is.autonavi.com/showpic/4ce8d63f3f5363465c6a201d8f57a44f'}, {'title': [], 'url': 'http://store.is.autonavi.com/showpic/57386391ff009f63d369c77dad00b0e2'}, {'title': [], 'url': 'http://s-pic.oss-cn-beijing.aliyuncs.com/desensitize/deep/images/publish/d93213690de577fc3eada698fbfb99d7.jpg'}]",090202,2,[],[],龙岗区,深圳南州口腔门诊部,"114.139914,22.617021",18938979158,[],B0I6H96XCZ
B02F37W6BO,桃园路89号华中科技大学协和深圳医院,[],广东省,[],"{'cost': [], 'rating': []}",[],深圳市,医疗保健服务;综合医院;三级甲等医院,"[{'title': [], 'url': 'http://store.is.autonavi.com/showpic/27d3cdee1944790e3d2ba5472f20d49c'}, {'title': [], 'url': 'http://store.is.autonavi.com/showpic/5eb3f2f039176b53f9388a44bac3b71c'}, {'title': [], 'url': 'http://store.is.autonavi.com/showpic/d025405b9ec143060df5360d89be7812'}]",090101,2,[],318,南山区,华中科技大学协和深圳医院急诊,"113.924122,22.529705",0755-26553111;0755-26565339,[],B0FFF2QAVP
B0FFGDDLUB,粤海街道滨海社区海天二路19号盈峰中心3层,[],广东省,[],"{'cost': [], 'rating': '4.2'}",[],深圳市,医疗保健服务;专科医院;整形美容,"[{'title': [], 'url': 'http://store.is.autonavi.com/showpic/9f0099d1ece36527d1896ae21810914c'}, {'title': [], 'url': 'http://store.is.autonavi.com/showpic/2b031252a7934a0c4235beb4cc07c552'}, {'title': [], 'url': 'http://s-pic.oss-cn-beijing.aliyuncs.com/desensitize/deep/images/publish/1d3d3f67a8874f3f25cb44e87123d80c.jpg'}]",090201,2,[],202,南山区,深圳市格芮医疗美容门诊部,"113.939317,22.522618",4000917649,[],B0G3VBAV3W
B0FFFHB50L,南湖街道嘉北社区人民南路3005号深房广场3层,[],广东省,[],"{'cost': [], 'rating': []}",[],深圳市,医疗保健服务;专科医院;整形美容,"[{'title': [], 'url': 'https://aos-comment.amap.com/B0FFLIPG80/comment/c1464df117c9e0b3ffb56b0ef8dd9dce_2048_2048_80.jpg'}, {'title': [], 'url': 'https://aos-comment.amap.com/B0FFLIPG80/comment/122b49795c31e7d73f548dd9af5684ca_2048_2048_80.jpg'}, {'title': [], 'url': 'https://aos-comment.amap.com/B0FFLIPG80/comment/8d929bf8e154109ba6c06e931b82b20c_2048_2048_80.jpg'}]",090201,2,[],202,罗湖区,深圳悦己悦心医疗美容医院,"114.118302,22.541264",13316576347,[],B0FFLIPG80
B0FFG9LN8L,光明街道光明社区光翠路正力时代广场A107,[],广东省,[],"{'cost': [], 'rating': []}",[],深圳市,医疗保健服务;专科医院;口腔医院,"[{'title': [], 'url': 'https://aos-comment.amap.com/B0JA1LR3ZJ/comment/f28c1fa259171d51bdb1728532028a1a_2048_2048_80.jpg'}, {'title': [], 'url': 'https://aos-comment.amap.com/B0JA1LR3ZJ/comment/db5e525d47e3b04209e378425be586f1_2048_2048_80.jpg'}, {'title': [], 'url': 'https://aos-comment.amap.com/B0JA1LR3ZJ/comment/624d0b30b3f6e63be09e36d6894d8aa4_2048_2048_80.jpg'}]",090202,2,[],202,光明区,云景口腔连锁·数字化美学矫正种植,"113.944439,22.759794",0755-88656559,[],B0JA1LR3ZJ
B02F37W9ER,东门北路1017号深圳市人民医院,[],广东省,[],"{'cost': [], 'rating': []}",[],深圳市,医疗保健服务;综合医院;三级甲等医院,"[{'title': [], 'url': 'http://store.is.autonavi.com/showpic/e37be1e2a9f0e0aca311d5a75be67b32'}, {'title': [], 'url': 'http://store.is.autonavi.com/showpic/3212b90f8ead2dd83e25e5cba57564fa'}, {'title': [], 'url': 'http://s-pic.oss-cn-beijing.aliyuncs.com/desensitize/deep/images/publish/70c4c4b76291313f101e6afe887f42aa.jpg'}]",090101,2,[],318,罗湖区,深圳市人民医院急诊,"114.129317,22.556648",[],[],B0G0M7N3GW
[],宝龙街道锦龙三路6号,[],广东省,[],"{'cost': [], 'rating': []}",[],深圳市,医疗保健服务;综合医院;综合医院,"[{'title': [], 'url': 'http://store.is.autonavi.com/showpic/46caf40fe18ff3ddf627ace897d8e3e0'}, {'title': [], 'url': 'http://store.is.autonavi.com/showpic/79b41477d92cf8dd7bf1220d2ba42053'}, {'title': [], 'url': 'http://store.is.autonavi.com/showpic/bc5733dc55e310d485fb36ee130da905'}]",090100,2,[],[],龙岗区,深圳和济医院,"114.320160,22.699915",[],[],B0G0754MDZ
B0ID7CEZ7E,横岗街道怡锦社区康乐路21号佳宏星悦城商业广场1栋C305C306,[],广东省,[],"{'cost': [], 'rating': []}",[],深圳市,医疗保健服务;专科医院;口腔医院,"[{'title': [], 'url': 'http://store.is.autonavi.com/showpic/19956eca6e889264e819997d6c7ca579'}, {'title': [], 'url': 'https://aos-comment.amap.com/B0IKJH990T/headerImg/69f59ca39e9fe08f79d44e71baa655a1_2048_2048_80.jpg'}, {'title': [], 'url': 'http://store.is.autonavi.com/showpic/9174b1fa4aee63a23e294abf9986a696'}]",090202,2,[],202,龙岗区,深圳康乐一欣口腔门诊部,"114.188594,22.645432",0755-28665166,[],B0IKJH990T
B02F38IZY0,新安街道建安一路29号农村商业银行大厦4-5层,[],广东省,[],"{'cost': [], 'rating': []}",[],深圳市,医疗保健服务;专科医院;口腔医院,"[{'title': [], 'url': 'http://store.is.autonavi.com/showpic/1d1e8d8efc129a74ff62506f415363e6'}, {'title': [], 'url': 'http://store.is.autonavi.com/showpic/15405a06cbad98c9c882b9d37b574f26'}, {'title': [], 'url': 'http://store.is.autonavi.com/showpic/55a1205fe5bff3681257051d37c9322c'}]",090202,2,[],202,宝安区,同步齿科·种植正畸口腔连锁(同美门诊),"113.909092,22.558323",4008550755,[],B0FFJ3H4MI
B02F38SZT7,莲花街道福中社区金田路4018号安联大厦3层3A01,[],广东省,[],"{'cost': [], 'rating': '3.6'}",[],深圳市,医疗保健服务;专科医院;整形美容,"[{'title': [], 'url': 'https://aos-comment.amap.com/B0HK1C9ZCE/comment/3e0db415f0fb77cc0dde780b17c2d874_2048_2048_80.jpg'}, {'title': [], 'url': 'https://aos-comment.amap.com/B0HK1C9ZCE/comment/b3a647a4ea15c8bcb7940c200f070988_2048_2048_80.jpg'}, {'title': [], 'url': 'https://aos-comment.amap.com/B0HK1C9ZCE/comment/9661dab4110f179128df278167fd67b0_2048_2048_80.jpg'}]",090201,2,[],202,福田区,深圳健丽心歌医疗美容门诊部,"114.063803,22.542237",15361753015,[],B0HK1C9ZCE
[],桃源街道平山社区丽山路2号平山村平康苑201-202,[],广东省,[],"{'cost': [], 'rating': []}",[],深圳市,医疗保健服务;专科医院;口腔医院,"[{'title': [], 'url': 'http://store.is.autonavi.com/showpic/bdb99aeb28f0630cfb7311507bce0db4'}, {'title': [], 'url': 'http://store.is.autonavi.com/showpic/3984799213c43527144436e51077948a'}, {'title': [], 'url': 'http://store.is.autonavi.com/showpic/3d9120155f5be717dce66243652167f4'}]",090202,2,[],[],南山区,诺德齿科连锁(西丽店),"113.965557,22.583695",0755-22740382,[],B0FFKFEOSC
